PK;NOMBRE;DESCRIPCION-ENTIDAD;HORARIO;EQUIPAMIENTO;TRANSPORTE;DESCRIPCION;ACCESIBILIDAD;CONTENT-URL;NOMBRE-VIA;CLASE-VIAL;TIPO-NUM;NUM;PLANTA;PUERTA;ESCALERAS;ORIENTACION;LOCALIDAD;PROVINCIA;CODIGO-POSTAL;COD-BARRIO;BARRIO;COD-DISTRITO;DISTRITO;COORDENADA-X;COORDENADA-Y;LATITUD;LONGITUD;TELEFONO;FAX;EMAIL;TIPO
11777881;"Acción Diaconal Protestante IEE";"Templo evangélico.";"";"";"Metro: Noviciado (Línea 2)   Bus:   002, 147, 3    Bicimad:   Estación 15 (Calle Norte, 8)";"";"3";"http://www.madrid.es/sites/v/index.jsp?vgnextchannel=bfa48ab43d6bb410VgnVCM100000171f5a0aRCRD&vgnextoid=5fcb490e2c453810VgnVCM1000001d4a900aRCRD";"NOVICIADO";"CALLE";"V";"5";"";"";"";"";"MADRID";"MADRID";"28015";"5";"UNIVERSIDAD";"1";"CENTRO";"439932";"4475235";"40.425585219802336";"-3.708110408802556";"";"";"";"/contenido/entidadesYorganismos/TemplosOtrasReligiones"
12283898;"Aglow España, Fraternidad de Mujeres Cristianas";"Templo evangélico.";"";"";"Bus: 153";"";"3";"http://www.madrid.es/sites/v/index.jsp?vgnextchannel=bfa48ab43d6bb410VgnVCM100000171f5a0aRCRD&vgnextoid=7233508ccbd8d810VgnVCM1000001d4a900aRCRD";"ARCES";"AVENIDA";"V";"17";"";"";"";"17G - 1B";"MADRID";"MADRID";"28042";"1";"PALOMAS";"16";"HORTALEZA";"447484";"4478419";"40.45477650667386";"-3.6193466729031307";"";"";"";"/contenido/entidadesYorganismos/TemplosOtrasReligiones"
11745490;"Alianza Cristiana y Misionera Bilingüe";"Templo evangélico.";"";"";"Metro: Villaverde Bajo-Cruce (línea 3).  Bus: 18, 23, 116     Cercanías Renfe: Villaveverde Bajo (líneas C3, C4, C4a).  Bicimad: Estación 414 (Calle de Santa Petronila, 7)";"";"3";"http://www.madrid.es/sites/v/index.jsp?vgnextchannel=bfa48ab43d6bb410VgnVCM100000171f5a0aRCRD&vgnextoid=3a08b83607c82810VgnVCM1000001d4a900aRCRD";"ESPERANZA MACARENA";"CALLE";"V";"24";"SEMISOTANO";"";"";"";"MADRID";"MADRID";"28021";"4";"LOS ROSALES";"17";"VILLAVERDE";"441373";"4466765";"40.34938955813733";"-3.6903411051943804";"";"";"";"/contenido/entidadesYorganismos/TemplosOtrasReligiones"
11772877;"Asamblea Cristiana Gilgal";"Templo evangélico.";"";"";"Bus:  103, 142, 143, 54, 58, 144  Metro: Miguel Hernández (línea 1)";"";"3";"http://www.madrid.es/sites/v/index.jsp?vgnextchannel=bfa48ab43d6bb410VgnVCM100000171f5a0aRCRD&vgnextoid=1f2d6e4d59043810VgnVCM1000001d4a900aRCRD";"LEON FELIPE";"CALLE";"V";"4";"";"";"";"Local 2 C";"MADRID";"MADRID";"28038";"4";"PALOMERAS SURESTE";"13";"PUENTE DE VALLECAS";"445804";"4470935";"40.38724931072868";"-3.638521057740299";"";"";"";"/contenido/entidadesYorganismos/TemplosOtrasReligiones"
11025958;"Asambleas de Evangelización Mundial para Cristo (AEMC)";"Templo evangélico";"";"";"Metro: San Francisco (línea 11)  Bus: 108, 118, 121, 131, 47";"";"3";"http://www.madrid.es/sites/v/index.jsp?vgnextchannel=bfa48ab43d6bb410VgnVCM100000171f5a0aRCRD&vgnextoid=2a060d28e4e5d610VgnVCM2000001f4a900aRCRD";"ANTONIA RODRIGUEZ SACRISTAN";"CALLE";"V";"8";"BAJO";"IZQUIERDA";"";"";"MADRID";"MADRID";"28044";"6";"BUENAVISTA";"11";"CARABANCHEL";"436747";"4469402";"40.372800292475574";"-3.745073767335671";"";"";"";"/contenido/entidadesYorganismos/TemplosOtrasReligiones"
11772932;"Asociación Bautista Reformada del Pacto de Gracia";"Templo evangélico.";"";"";"Bus: 119, 138";"";"3";"http://www.madrid.es/sites/v/index.jsp?vgnextchannel=bfa48ab43d6bb410VgnVCM100000171f5a0aRCRD&vgnextoid=3e226e4d59043810VgnVCM1000001d4a900aRCRD";"FUENDETODOS";"CALLE";"V";"18";"";"";"";"";"MADRID";"MADRID";"28047";"1";"LOS CARMENES";"10";"LATINA";"437982";"4472876";"40.40419309219844";"-3.730865167008894";"";"";"";"/contenido/entidadesYorganismos/TemplosOtrasReligiones"
11745515;"Asociación Europea de Formación Teológica y Evangélica";"Templo evangélico.";"";"";"Metro: Canillejas (Línea 5)  Bus: 165, 77, 140, 88, 101     Bicimad: Estación 508 (Parador de Santa Lucía, 8)";"";"3";"http://www.madrid.es/sites/v/index.jsp?vgnextchannel=bfa48ab43d6bb410VgnVCM100000171f5a0aRCRD&vgnextoid=9fbdb83607c82810VgnVCM1000001d4a900aRCRD";"BOLTAÑA";"CALLE";"V";"65";"";"";"";"LOCAL";"MADRID";"MADRID";"28022";"7";"CANILLEJAS";"20";"SAN BLAS-CANILLEJAS";"448350";"4477669";"40.4480804038164";"-3.6090836573163845";"";"";"";"/contenido/entidadesYorganismos/TemplosOtrasReligiones"
11026848;"Asociación Evangélica Internacional";"Templo evangélico.";"";"";"Metro: Colombia (líneas 8 y 9).  Bus: 52, 11, 40, 7, 87.";"";"3";"http://www.madrid.es/sites/v/index.jsp?vgnextchannel=bfa48ab43d6bb410VgnVCM100000171f5a0aRCRD&vgnextoid=04d59283b726d610VgnVCM2000001f4a900aRCRD";"NICARAGUA";"CALLE";"V";"19";"";"";"";"";"MADRID";"MADRID";"28016";"4";"HISPANOAMERICA";"5";"CHAMARTIN";"443135";"4478797";"40.457895405861926";"-3.6706745177055007";"";"";"";"/contenido/entidadesYorganismos/TemplosOtrasReligiones"
12284606;"Asociación Religiosa para la Asistencia Evangélica";"Templo evangélico.";"";"";"Bus:   87   Bicimad: Estación 541 (Avda. Gran Vía de Hortaleza, 68)";"";"3";"http://www.madrid.es/sites/v/index.jsp?vgnextchannel=bfa48ab43d6bb410VgnVCM100000171f5a0aRCRD&vgnextoid=50dd37f2adc9d810VgnVCM2000001f4a900aRCRD";"PABLO SERRANO";"CALLE";"V";"7";"";"";"";"posterior";"MADRID";"MADRID";"28043";"4";"PINAR DEL REY";"16";"HORTALEZA";"445184";"4480090";"40.46968643150903";"-3.6466154408361775";"";"";"";"/contenido/entidadesYorganismos/TemplosOtrasReligiones"
11431523;"Canal de Vida Mequinenza";"Templo evangélico.";"";"";"Metro: Canillejas (línea 5).  Bus: 77, 165.";"";"3";"http://www.madrid.es/sites/v/index.jsp?vgnextchannel=bfa48ab43d6bb410VgnVCM100000171f5a0aRCRD&vgnextoid=e3998000baa7a710VgnVCM1000001d4a900aRCRD";"MEQUINENZA";"CALLE";"V";"20";"BAJA";"";"";"";"MADRID";"MADRID";"28022";"7";"CANILLEJAS";"20";"SAN BLAS-CANILLEJAS";"448653";"4477623";"40.44768356828449";"-3.605497309069597";"";"";"";"/contenido/entidadesYorganismos/TemplosOtrasReligiones"
11026233;"Casa sobre la Roca Iglesia Cristiana Integral";"Templo evangélico";"";"";"Metro: Arturo Soria (línea 4)  Bus: 120, 122, 11, 70";"";"3";"http://www.madrid.es/sites/v/index.jsp?vgnextchannel=bfa48ab43d6bb410VgnVCM100000171f5a0aRCRD&vgnextoid=0d9fb608d026d610VgnVCM2000001f4a900aRCRD";"ULISES";"CALLE";"V";"1";"";"";"";"";"MADRID";"MADRID";"28043";"7";"COLINA";"15";"CIUDAD LINEAL";"444411";"4478618";"40.456371724419725";"-3.6556133054897137";"";"";"";"/contenido/entidadesYorganismos/TemplosOtrasReligiones"
3387;"Catedral Anglicana de Madrid";"Iglesia Española Reformada Episcopal Comunión Anglicana.";"";"";"Metro: Alonso Martínez (líneas 4, 5 y 10), Tribunal (líneas 1 y 10).  Bus: 37, 149, 3, 40.  Bicimad: Estación 54 (calle Barceló, 7) / estación 7 (calle Hortaleza, 75).  Aparcamientos: Barceló (69), calle Barceló sin número; Arquitecto Ribera (Barceló) (17), calle Barceló, 2.";"";"3";"http://www.madrid.es/sites/v/index.jsp?vgnextchannel=bfa48ab43d6bb410VgnVCM100000171f5a0aRCRD&vgnextoid=94ef13db5b71c010VgnVCM1000000b205a0aRCRD";"BENEFICENCIA";"CALLE";"V";"18";"";"";"";"";"MADRID";"MADRID";"28004";"4";"JUSTICIA";"1";"CENTRO";"440734";"4475314";"40.42635538209311";"-3.6986664775671785";"914 452 560 / 609 876 913";"";"anglicanspain@gmail.com";"/contenido/entidadesYorganismos/TemplosOtrasReligiones"
3388;"Catedral Ortodoxa Griega. Santa Iglesia Catedral de los Santos Andrés y Demetrio";"";"";"";"Metro: Colombia (líneas 8 y 9).  Bus: 11, 40, 7, 87, 52.";"";"3";"http://www.madrid.es/sites/v/index.jsp?vgnextchannel=bfa48ab43d6bb410VgnVCM100000171f5a0aRCRD&vgnextoid=82547b503a71c010VgnVCM1000000b205a0aRCRD";"NICARAGUA";"CALLE";"V";"12";"";"";"";"";"MADRID";"MADRID";"28016";"4";"HISPANOAMERICA";"5";"CHAMARTIN";"442946";"4478760";"40.45755529500435";"-3.672894912820636";"913 454 085 / 913 503 705";"913 509 374";"metropoliespo@yahoo.es";"/contenido/entidadesYorganismos/TemplosOtrasReligiones"
11030102;"Centro Apostólico Cristo Viene";"Templo evangélico";"";"";"Metro: Almendrales (línea 3)  Bus: 123, 23, 18, 22, 59, 76, 79, 85, 86";"";"3";"http://www.madrid.es/sites/v/index.jsp?vgnextchannel=bfa48ab43d6bb410VgnVCM100000171f5a0aRCRD&vgnextoid=cec2be0e48e6d610VgnVCM2000001f4a900aRCRD";"ANTONIO LOPEZ";"CALLE";"V";"236";"1";"";"";"";"MADRID";"MADRID";"28026";"4";"ALMENDRALES";"12";"USERA";"440917";"4470580";"40.383724492823504";"-3.6960683266163925";"";"";"";"/contenido/entidadesYorganismos/TemplosOtrasReligiones"
11431586;"Centro Cristiano Casa del Alfarero Madrid";"Templo evangélico.";"";"";"Metro: Pueblo Nuevo (líneas 5 y 7).  Bus: 109, 113, 38.";"";"3";"http://www.madrid.es/sites/v/index.jsp?vgnextchannel=bfa48ab43d6bb410VgnVCM100000171f5a0aRCRD&vgnextoid=c3718000baa7a710VgnVCM1000001d4a900aRCRD";"RIO ULLA";"CALLE";"V";"14";"1";"";"";"";"MADRID";"MADRID";"28017";"2";"PUEBLO NUEVO";"15";"CIUDAD LINEAL";"445484";"4476145";"40.43416644534178";"-3.642738285902067";"";"";"";"/contenido/entidadesYorganismos/TemplosOtrasReligiones"
7063869;"Centro Cristiano Ciudad de Refugio";"Templo evangélico";"";"";"Metro: San Cristóbal (línea 3)  Bus: 59, 79  Cercanías: San Cristóbal del los Ángeles";"";"3";"http://www.madrid.es/sites/v/index.jsp?vgnextchannel=bfa48ab43d6bb410VgnVCM100000171f5a0aRCRD&vgnextoid=9d28ec795b750410VgnVCM2000000c205a0aRCRD";"GODELLA";"CALLE";"V";"103";"1";"Derecha";"";"";"MADRID";"MADRID";"28021";"2";"SAN CRISTOBAL";"17";"VILLAVERDE";"441595";"4465935";"40.34192622597721";"-3.6876586251390493";"";"";"";"/contenido/entidadesYorganismos/TemplosOtrasReligiones"
11745480;"Centro Cristiano Cuatro Caminos";"Templo evangélico.";"";"";"Metro: Estrecho (línea 1).  Bus: 124, 126, 66, 3, 128, 64.     Bicimad: Estación 155 (calle San Germán, 57).";"";"3";"http://www.madrid.es/sites/v/index.jsp?vgnextchannel=bfa48ab43d6bb410VgnVCM100000171f5a0aRCRD&vgnextoid=1185d69d1fb82810VgnVCM1000001d4a900aRCRD";"SAN ENRIQUE";"CALLE";"V";"12";"";"";"";"";"MADRID";"MADRID";"28020";"2";"CUATRO CAMINOS";"6";"TETUAN";"440563";"4478617";"40.456100287456294";"-3.700994547334428";"";"";"";"/contenido/entidadesYorganismos/TemplosOtrasReligiones"
11772883;"Centro Cristiano Cuatro Caminos Vinca";"Templo evangélico.";"";"";"Metro: Plaza de Castilla (líneas 1, 9 y 10).  Bus: 177, 124, 134, 135, 147, 173, 175, 176, 178, 67";"";"3";"http://www.madrid.es/sites/v/index.jsp?vgnextchannel=bfa48ab43d6bb410VgnVCM100000171f5a0aRCRD&vgnextoid=938e6e4d59043810VgnVCM1000001d4a900aRCRD";"VINCA";"CALLE";"V";"12";"";"";"";"";"MADRID";"MADRID";"28029";"4";"ALMENARA";"6";"TETUAN";"441496";"4480157";"40.47003442709249";"-3.6901323163579396";"";"";"";"/contenido/entidadesYorganismos/TemplosOtrasReligiones"
11772518;"Centro Cristiano Evangélico";"Templo evangélico.";"";"";"Metro: Vicálvaro (línea 9).  Bus: 100, 130, 4.";"";"3";"http://www.madrid.es/sites/v/index.jsp?vgnextchannel=bfa48ab43d6bb410VgnVCM100000171f5a0aRCRD&vgnextoid=60d1fec79ff33810VgnVCM1000001d4a900aRCRD";"LUMBRERAS";"CALLE";"V";"8";"";"";"";"";"MADRID";"MADRID";"28032";"1";"CASCO H.VICALVARO";"19";"VICALVARO";"447777";"4473097";"40.40685383679603";"-3.6154573903495684";"";"";"";"/contenido/entidadesYorganismos/TemplosOtrasReligiones"
11028407;"Centro Cristiano Internacional Barcelona";"Templo evangélico";"";"";"Metro: Aluche (línea 5)  Bus: 138, 17.  Cercanías Renfe: Maestra Justa Freire Polideportivo Aluche (línea C5).";"";"3";"http://www.madrid.es/sites/v/index.jsp?vgnextchannel=bfa48ab43d6bb410VgnVCM100000171f5a0aRCRD&vgnextoid=34b203ce1ec6d610VgnVCM1000001d4a900aRCRD";"FUERTE DE NAVIDAD";"CALLE";"V";"19";"";"";"";"";"MADRID";"MADRID";"28044";"7";"LAS AGUILAS";"10";"LATINA";"434906";"4470254";"40.380332955379934";"-3.7668506940875517";"";"";"";"/contenido/entidadesYorganismos/TemplosOtrasReligiones"
11744851;"Centro Cristiano Misionero Fuente de Vida";"Templo evangélico.";"";"";"Metro: Oporto (líneas 5 y 6).  Bus: 119.";"";"3";"http://www.madrid.es/sites/v/index.jsp?vgnextchannel=bfa48ab43d6bb410VgnVCM100000171f5a0aRCRD&vgnextoid=48aa509625282810VgnVCM1000001d4a900aRCRD";"PEDRO DIEZ";"AVENIDA";"V";"21";"";"";"";"";"MADRID";"MADRID";"28019";"3";"SAN ISIDRO";"11";"CARABANCHEL";"437938";"4471453";"40.39136955330053";"-3.7312417599906453";"";"";"";"/contenido/entidadesYorganismos/TemplosOtrasReligiones"
11778293;"Centro Cristiano Vida Nueva de las Asambleas de Dios";"Templo evangélico.";"";"";"Bus:   60, 148, 6, 78, 59, 85      Bicimad: Estación 171 (Calle Embajadores n&amp;ordm; 97)";"";"3";"http://www.madrid.es/sites/v/index.jsp?vgnextchannel=bfa48ab43d6bb410VgnVCM100000171f5a0aRCRD&vgnextoid=b4ae8512b8553810VgnVCM1000001d4a900aRCRD";"FERNANDO POO";"CALLE";"V";"14";"";"";"";"";"MADRID";"MADRID";"28045";"3";"CHOPERA";"2";"ARGANZUELA";"440622";"4472240";"40.39865776068678";"-3.6996971455005694";"";"";"";"/contenido/entidadesYorganismos/TemplosOtrasReligiones"
3751;"Centro Cultural Islámico. Mezquita de Madrid";"";"";"";"Metro: Barrio de la Concepción (línea 7).  Bus: 122, 53.  Bicimad: Estación 231 (calle Derechos Humanos, 12).  Aparcamiento: Verdaguer y García (44), calle Verdaguer y García.";"";"3";"http://www.madrid.es/sites/v/index.jsp?vgnextchannel=bfa48ab43d6bb410VgnVCM100000171f5a0aRCRD&vgnextoid=a3b71e79ee71c010VgnVCM1000000b205a0aRCRD";"SALVADOR DE MADARIAGA";"CALLE";"V";"7";"";"";"";"";"MADRID";"MADRID";"28027";"5";"SAN PASCUAL";"15";"CIUDAD LINEAL";"444248";"4476638";"40.43852894692424";"-3.6573554749897212";"913 262 610";"";"info@centro-islamico.com";"/contenido/entidadesYorganismos/TemplosOtrasReligiones"
11769868;"Centro de Fe y Esperanza Internacional de España";"Templo evangélico.";"";"";"Metro: Oporto (línea 5 y 6)  Bus: 247";"";"3";"http://www.madrid.es/sites/v/index.jsp?vgnextchannel=bfa48ab43d6bb410VgnVCM100000171f5a0aRCRD&vgnextoid=6a97103c47533810VgnVCM2000001f4a900aRCRD";"LUIS GOMEZ";"CALLE";"V";"18";"";"";"";"";"MADRID";"MADRID";"28025";"5";"PUERTA BONITA";"11";"CARABANCHEL";"437898";"4470830";"40.38575649321376";"-3.7316618578640703";"";"";"";"/contenido/entidadesYorganismos/TemplosOtrasReligiones"
7064897;"Centro Evangélico de Restauración Aliento de Vida";"Templo evangélico";"";"";"Metro: Sierra de Guadalupe (línea 1)  Bus: 130, T31  Renfe Cercanías: Vallecas (C2, C7)";"";"3";"http://www.madrid.es/sites/v/index.jsp?vgnextchannel=bfa48ab43d6bb410VgnVCM100000171f5a0aRCRD&vgnextoid=03479bd56dc50410VgnVCM2000000c205a0aRCRD";"PUERTO DE LAS PILAS";"CALLE";"V";"12";"BAJO";"";"";"";"MADRID";"MADRID";"28031";"1";"CASCO H.VALLECAS";"18";"VILLA DE VALLECAS";"446793";"4469998";"40.37887387719392";"-3.6268000188410188";"";"";"";"/contenido/entidadesYorganismos/TemplosOtrasReligiones"
12283894;"Centro Palabra de Vida - ICI";"Templo evangélico.";"";"";"Bus:  70, 146, 48  Metro: Ciudad Lineal (línea 5)  Bicimad: Estación 478 (Jose del Hierro , 69)";"";"3";"http://www.madrid.es/sites/v/index.jsp?vgnextchannel=bfa48ab43d6bb410VgnVCM100000171f5a0aRCRD&vgnextoid=58e1508ccbd8d810VgnVCM1000001d4a900aRCRD";"ARTURO SORIA";"CALLE";"V";"18";"";"";"";"";"MADRID";"MADRID";"28027";"3";"QUINTANA";"15";"CIUDAD LINEAL";"445797";"4476765";"40.43977112521045";"-3.639101549206394";"";"";"";"/contenido/entidadesYorganismos/TemplosOtrasReligiones"
11430960;"Christ Missions Evangelical Church";"Templo evangélico.";"";"";"Bus: 123, 85.  Bicimad: Estación 401 (Calle de Eduardo Maristany, 7).  Cercanías Renfe: Villaverde bajo (líneas C3, C4, C4a, C4b)";"";"3";"http://www.madrid.es/sites/v/index.jsp?vgnextchannel=bfa48ab43d6bb410VgnVCM100000171f5a0aRCRD&vgnextoid=78b9eafcd367a710VgnVCM1000001d4a900aRCRD";"TANTALO";"CALLE";"V";"7";"3ª";"";"";"";"MADRID";"MADRID";"28021";"3";"BUTARQUE";"17";"VILLAVERDE";"442125";"4467096";"40.35242427567422";"-3.681517625700249";"";"";"";"/contenido/entidadesYorganismos/TemplosOtrasReligiones"
11771489;"Christ The Master Filipino Christian Fellowship";"Templo evangélico.";"";"";"Metro: Barrio del Pilar (línea 9).  Bus: 128, 132, 137, 49, 83, 147.";"";"3";"http://www.madrid.es/sites/v/index.jsp?vgnextchannel=bfa48ab43d6bb410VgnVCM100000171f5a0aRCRD&vgnextoid=7472efa872b33810VgnVCM1000001d4a900aRCRD";"FONSAGRADA";"PLAZA";"V";"5";"";"";"";"";"MADRID";"MADRID";"28029";"4";"EL PILAR";"8";"FUENCARRAL-EL PARDO";"439997";"4480999";"40.47751222856838";"-3.707887319176637";"";"";"";"/contenido/entidadesYorganismos/TemplosOtrasReligiones"
11768989;"Comunidad Cristiana Casa de Bendición";"Templo evangélico.";"";"";"Metro: Torre Arias (línea 5).  Bus: 148.";"";"3";"http://www.madrid.es/sites/v/index.jsp?vgnextchannel=bfa48ab43d6bb410VgnVCM100000171f5a0aRCRD&vgnextoid=75d840bd16133810VgnVCM1000001d4a900aRCRD";"ESFINGE";"CALLE";"V";"19";"";"";"";"";"MADRID";"MADRID";"28022";"7";"CANILLEJAS";"20";"SAN BLAS-CANILLEJAS";"448253";"4477305";"40.444795655280224";"-3.610188031875868";"";"";"";"/contenido/entidadesYorganismos/TemplosOtrasReligiones"
11745537;"Comunidad Cristiana Casa de Bendición Colonia Occidente";"Templo evangélico.";"";"";"Bus: 77.";"";"3";"http://www.madrid.es/sites/v/index.jsp?vgnextchannel=bfa48ab43d6bb410VgnVCM100000171f5a0aRCRD&vgnextoid=be52b83607c82810VgnVCM1000001d4a900aRCRD";"OCCIDENTE";"COLONIA";"T";"3";"baja";"derecha";"";"Bloque 3";"MADRID";"MADRID";"28022";"6";"REJAS";"20";"SAN BLAS-CANILLEJAS";"449505";"4477183";"40.443772916963106";"-3.5954228683243725";"";"";"";"/contenido/entidadesYorganismos/TemplosOtrasReligiones"
12283661;"Comunidad Cristiana Eben Ezer Pueblo Nuevo";"Templo evangélico.";"";"";"Bus:  105";"";"3";"http://www.madrid.es/sites/v/index.jsp?vgnextchannel=bfa48ab43d6bb410VgnVCM100000171f5a0aRCRD&vgnextoid=801b4aa015d8d810VgnVCM2000001f4a900aRCRD";"JULIAN CAMARILLO";"CALLE";"V";"39";"";"";"";"";"MADRID";"MADRID";"28037";"1";"SIMANCAS";"20";"SAN BLAS-CANILLEJAS";"446993";"4476322";"40.43586084470142";"-3.6249632986560396";"";"";"";"/contenido/entidadesYorganismos/TemplosOtrasReligiones"
3740;"Comunidad Cristiana Eben-Ezer de la Villa de Vallecas";"";"";"";"Metro: Congosto (línea 1)  Bus: 54, 142";"";"3";"http://www.madrid.es/sites/v/index.jsp?vgnextchannel=bfa48ab43d6bb410VgnVCM100000171f5a0aRCRD&vgnextoid=04750a47f441f010VgnVCM2000000c205a0aRCRD";"SIERRA DE TORTEJADA";"CALLE";"V";"2";"";"";"";"";"MADRID";"MADRID";"28031";"1";"CASCO H.VALLECAS";"18";"VILLA DE VALLECAS";"447525";"4469177";"40.37152812090639";"-3.6181096496598038";"";"";"";"/contenido/entidadesYorganismos/TemplosOtrasReligiones"
7064594;"Comunidad Cristiana Evangélica Decisión";"Templo evangélico";"";"";"Metro: Canillejas (línea 5)";"";"3";"http://www.madrid.es/sites/v/index.jsp?vgnextchannel=bfa48ab43d6bb410VgnVCM100000171f5a0aRCRD&vgnextoid=e65fb8d07d850410VgnVCM1000000b205a0aRCRD";"MEQUINENZA";"CALLE";"V";"20";"";"B";"";"";"MADRID";"MADRID";"28022";"7";"CANILLEJAS";"20";"SAN BLAS-CANILLEJAS";"448653";"4477623";"40.44768356828449";"-3.605497309069597";"";"";"";"/contenido/entidadesYorganismos/TemplosOtrasReligiones"
11778302;"Comunidad Cristiana Evangélica El Faro";"Templo evangélico.";"";"";"Metro: Nueva Numancia (línea 1).   Bus:   24, 10, 111, 310.      Bicimad: Estación 227 (calle Arroyo del Olivar, 6).";"";"3";"http://www.madrid.es/sites/v/index.jsp?vgnextchannel=bfa48ab43d6bb410VgnVCM100000171f5a0aRCRD&vgnextoid=f4058512b8553810VgnVCM1000001d4a900aRCRD";"SIERRA DE ALCUBIERRE";"CALLE";"V";"4";"";"";"";"";"MADRID";"MADRID";"28053";"2";"SAN DIEGO";"13";"PUENTE DE VALLECAS";"443344";"4471525";"40.39240706108415";"-3.6675631832603";"";"";"";"/contenido/entidadesYorganismos/TemplosOtrasReligiones"
11745488;"Comunidad Cristiana Misionera Newma España";"Templo evangélico.";"";"";"Metro: Villaverde Alto (línea 3).  Bus: 124, 126, 66, 3, 128, 64.     Cercanías Renfe: Villaverde Alto (líneas C4, C4a, C5).";"";"3";"http://www.madrid.es/sites/v/index.jsp?vgnextchannel=bfa48ab43d6bb410VgnVCM100000171f5a0aRCRD&vgnextoid=cab6d69d1fb82810VgnVCM1000001d4a900aRCRD";"CIUDAD DE FRIAS";"CALLE";"V";"24";"";"";"";"y 32 (NAVE 63)";"MADRID";"MADRID";"28021";"1";"VILLAVERDE ALTO C.H.";"17";"VILLAVERDE";"439371";"4465622";"40.338947832675025";"-3.7138105528343224";"";"";"";"/contenido/entidadesYorganismos/TemplosOtrasReligiones"
11030093;"Comunidad Cristiana Sendero de la Cruz";"Templo evangélico.";"";"";"Bus:   140";"";"3";"http://www.madrid.es/sites/v/index.jsp?vgnextchannel=bfa48ab43d6bb410VgnVCM100000171f5a0aRCRD&vgnextoid=bb62be0e48e6d610VgnVCM2000001f4a900aRCRD";"AQUILES";"CALLE";"V";"2";"";"";"";"Portal 2b, bloque 3b";"MADRID";"MADRID";"28022";"7";"CANILLEJAS";"20";"SAN BLAS-CANILLEJAS";"447977";"4476571";"40.43815905181562";"-3.613390403500953";"";"";"";"/contenido/entidadesYorganismos/TemplosOtrasReligiones"
11431093;"Comunidad Eben-Ezer Dios Es Amor";"";"";"";"Metro: Miguel Hernández (línea 1)  Bus: 10, 144, 310, 57";"";"3";"http://www.madrid.es/sites/v/index.jsp?vgnextchannel=bfa48ab43d6bb410VgnVCM100000171f5a0aRCRD&vgnextoid=ae7498f0f567a710VgnVCM1000001d4a900aRCRD";"VILLALOBOS";"CALLE";"V";"11";"";"";"";"";"MADRID";"MADRID";"28018";"4";"PALOMERAS SURESTE";"13";"PUENTE DE VALLECAS";"445077";"4470354";"40.381966779984396";"-3.647037080630487";"";"";"";"/contenido/entidadesYorganismos/TemplosOtrasReligiones"
7065908;"Comunidad Evangélica de habla alemana de Madrid";"Templo evangélico";"";"";"Metro: Colón (línea 4)  Bus:  27, 45, 150, 5, 14, 1, 19, 51, 74, 9  Bicimad: Estación 104 (Paseo Castellana, 4)";"";"3";"http://www.madrid.es/sites/v/index.jsp?vgnextchannel=bfa48ab43d6bb410VgnVCM100000171f5a0aRCRD&vgnextoid=95f550adce160410VgnVCM2000000c205a0aRCRD";"CASTELLANA";"PASEO";"V";"6";"";"";"";"";"MADRID";"MADRID";"28046";"1";"RECOLETOS";"4";"SALAMANCA";"441519";"4475403";"40.42721250117197";"-3.689422328230453";"";"";"";"/contenido/entidadesYorganismos/TemplosOtrasReligiones"
11025240;"Comunidad Evangélica Internacional";"Templo evangélico";"";"";"Bus:   155";"";"3";"http://www.madrid.es/sites/v/index.jsp?vgnextchannel=bfa48ab43d6bb410VgnVCM100000171f5a0aRCRD&vgnextoid=20f07b42aed5d610VgnVCM2000001f4a900aRCRD";"CIDRO";"CALLE";"V";"14";"BAJO";"";"";"Polígono Industrial de Aguacate";"MADRID";"MADRID";"28044";"6";"BUENAVISTA";"11";"CARABANCHEL";"436619";"4468690";"40.366381452000546";"-3.74651822287228";"";"";"";"/contenido/entidadesYorganismos/TemplosOtrasReligiones"
11777752;"Comunidad Evangélica Internacional Zona Sur";"Templo evangélico.";"";"";"Metro: Carabanchel Alto (línea 11).   Bus:   108, 118.";"";"3";"http://www.madrid.es/sites/v/index.jsp?vgnextchannel=bfa48ab43d6bb410VgnVCM100000171f5a0aRCRD&vgnextoid=8446832e34353810VgnVCM1000001d4a900aRCRD";"SECOYA";"CALLE";"V";"19";"baja";"";"";"local 2";"MADRID";"MADRID";"28044";"6";"BUENAVISTA";"11";"CARABANCHEL";"436566";"4468969";"40.368892245184576";"-3.747166775976031";"";"";"";"/contenido/entidadesYorganismos/TemplosOtrasReligiones"
12283671;"Comunidad Evangélica Internacional Zona Sur Secoya";"Templo evangélico.";"";"";"Bus: 108, 118";"";"3";"http://www.madrid.es/sites/v/index.jsp?vgnextchannel=bfa48ab43d6bb410VgnVCM100000171f5a0aRCRD&vgnextoid=bb7e4aa015d8d810VgnVCM2000001f4a900aRCRD";"SECOYA";"CALLE";"V";"19";"";"";"";"";"MADRID";"MADRID";"28044";"6";"BUENAVISTA";"11";"CARABANCHEL";"436758";"4469009";"40.3692641254172";"-3.7449067888210887";"";"";"";"/contenido/entidadesYorganismos/TemplosOtrasReligiones"
7064962;"Conferencia para la Evangelización de España";"Templo evangélico.";"";"";"Metro: Canillejas (línea 5).  Bus: 77, 165";"";"3";"http://www.madrid.es/sites/v/index.jsp?vgnextchannel=bfa48ab43d6bb410VgnVCM100000171f5a0aRCRD&vgnextoid=6b760ac0dfc50410VgnVCM2000000c205a0aRCRD";"MEQUINENZA";"CALLE";"V";"20";"local";"";"";"";"MADRID";"MADRID";"28022";"7";"CANILLEJAS";"20";"SAN BLAS-CANILLEJAS";"448653";"4477623";"40.44768356828449";"-3.605497309069597";"";"";"";"/contenido/entidadesYorganismos/TemplosOtrasReligiones"
12284620;"Congregación Local en su Nombre de la Iglesia Evan";"";"";"";"Metro: Plaza Elíptica (líneas 6 y 11)  Bus: 247, 47, 60, 81, 55, 116  Bicimad: Estación 355 (Calle de la Via, 52)";"";"3";"http://www.madrid.es/sites/v/index.jsp?vgnextchannel=bfa48ab43d6bb410VgnVCM100000171f5a0aRCRD&vgnextoid=1f2f37f2adc9d810VgnVCM2000001f4a900aRCRD";"SAN MAGIN";"CALLE";"V";"3";"baja";"3";"";"";"MADRID";"MADRID";"28026";"6";"ZOFIO";"12";"USERA";"439242";"4470695";"40.38464021029389";"-3.7158083426288218";"917 377 737";"";"info@aventista.es";"/contenido/entidadesYorganismos/TemplosOtrasReligiones"
7065029;"Consejo Evangélico de Madrid";"Templo evangélico.";"";"";"Metro: Pinar del Rey (línea 8).  Bus: 87, 120, 125, 172  Bicimad: Estación 541 (Avda. Gran Vía de Hortaleza, 68)";"";"3";"http://www.madrid.es/sites/v/index.jsp?vgnextchannel=bfa48ab43d6bb410VgnVCM100000171f5a0aRCRD&vgnextoid=fdea3ddd32d50410VgnVCM2000000c205a0aRCRD";"PABLO SERRANO";"CALLE";"V";"7";"";"";"";"Posterior";"MADRID";"MADRID";"28043";"4";"PINAR DEL REY";"16";"HORTALEZA";"445184";"4480090";"40.46968643150903";"-3.6466154408361775";"";"";"";"/contenido/entidadesYorganismos/TemplosOtrasReligiones"
11778138;"Consejo General de la Enseñanza Religiosa Evangélica";"Templo evangélico.";"";"";"Bus:   87   Bicimad: Estación 541 (Avda. Gran Vía de Hortaleza, 68)";"";"3";"http://www.madrid.es/sites/v/index.jsp?vgnextchannel=bfa48ab43d6bb410VgnVCM100000171f5a0aRCRD&vgnextoid=455e2344a4553810VgnVCM1000001d4a900aRCRD";"PABLO SERRANO";"CALLE";"V";"9";"";"";"";"posterior";"MADRID";"MADRID";"28043";"4";"PINAR DEL REY";"16";"HORTALEZA";"445195";"4480070";"40.4695091940147";"-3.6464921220644464";"";"";"";"/contenido/entidadesYorganismos/TemplosOtrasReligiones"
12279120;"Coordinadora de Asambleas de Hermanos de España";"Templo evangélico.";"";"";"Metro: Suances (Línea 5)   Bus:   104, 77. 105";"";"3";"http://www.madrid.es/sites/v/index.jsp?vgnextchannel=bfa48ab43d6bb410VgnVCM100000171f5a0aRCRD&vgnextoid=4b5eea0ac497d810VgnVCM2000001f4a900aRCRD";"PAQUITIN";"PASAJE";"V";"2";"";"";"";"";"MADRID";"MADRID";"28037";"1";"SIMANCAS";"20";"SAN BLAS-CANILLEJAS";"446996";"4476864";"40.44073942561432";"-3.624978172391884";"";"";"";"/contenido/entidadesYorganismos/TemplosOtrasReligiones"
11028319;"Diaconía de Madrid";"Templo evangélico";"";"";"Metro: Cuatro Caminos (líneas 1, 2, 6)  Bus: 37, 149, 3, 45  Bicimad: Estación 132 (calle Santa Engracia, 168)";"";"3";"http://www.madrid.es/sites/v/index.jsp?vgnextchannel=bfa48ab43d6bb410VgnVCM100000171f5a0aRCRD&vgnextoid=11a903ce1ec6d610VgnVCM1000001d4a900aRCRD";"BRAVO MURILLO";"CALLE";"V";"85";"BAJO";"12";"";"";"MADRID";"MADRID";"28003";"6";"VALLEHERMOSO";"7";"CHAMBERI";"440280";"4477381";"40.44493824188452";"-3.70421024880097";"";"";"";"/contenido/entidadesYorganismos/TemplosOtrasReligiones"
11431592;"Diaconía Pablo Serrano";"Templo evangélico.";"";"";"Metro: Pinar del Rey (línea 8).  Bus: 87.  Bicimad: Estación 541 (Avda. Gran Vía de Hortaleza, 68).";"";"3";"http://www.madrid.es/sites/v/index.jsp?vgnextchannel=bfa48ab43d6bb410VgnVCM100000171f5a0aRCRD&vgnextoid=b7528000baa7a710VgnVCM1000001d4a900aRCRD";"PABLO SERRANO";"CALLE";"V";"9";"1";"";"";"Posterior";"MADRID";"MADRID";"28043";"4";"PINAR DEL REY";"16";"HORTALEZA";"445195";"4480070";"40.4695091940147";"-3.6464921220644464";"";"";"";"/contenido/entidadesYorganismos/TemplosOtrasReligiones"
11431675;"Elan Church (Iglesia Elan)";"Templo evangélico.";"";"";"Bus: 4.  Bicimad: Estación 463 (Calle Casalarreina, 18)";"";"3";"http://www.madrid.es/sites/v/index.jsp?vgnextchannel=bfa48ab43d6bb410VgnVCM100000171f5a0aRCRD&vgnextoid=36b58000baa7a710VgnVCM1000001d4a900aRCRD";"EZCARAY";"CALLE";"V";"20";"2";"c";"";"";"MADRID";"MADRID";"28032";"1";"CASCO H.VICALVARO";"19";"VICALVARO";"447994";"4473468";"40.410210854887914";"-3.61293716036795";"";"";"";"/contenido/entidadesYorganismos/TemplosOtrasReligiones"
11772378;"Fe y Ministerio";"Templo evangélico.";"";"";"Bus:   3, 16, 61    Metro: Iglesia (línea 1), Quevedo (línea 2)    Bicimad: Estación 126 (Calle del General Álvarez de Castro, 1)    Aparcamiento: Plaza de Olavide (52)";"";"3";"http://www.madrid.es/sites/v/index.jsp?vgnextchannel=bfa48ab43d6bb410VgnVCM100000171f5a0aRCRD&vgnextoid=9a7dfec79ff33810VgnVCM1000001d4a900aRCRD";"TRAFALGAR";"CALLE";"V";"32";"2";"A";"";"";"MADRID";"MADRID";"28010";"3";"TRAFALGAR";"7";"CHAMBERI";"440522";"4476132";"40.43371124396547";"-3.701241599331296";"";"";"";"/contenido/entidadesYorganismos/TemplosOtrasReligiones"
11777708;"Federación Fraternidad Pentecostal y Carismática";"Templo evangélico.";"";"";"Metro: San Francisco (línea 11).   Bus:   108, 118.";"";"3";"http://www.madrid.es/sites/v/index.jsp?vgnextchannel=bfa48ab43d6bb410VgnVCM100000171f5a0aRCRD&vgnextoid=e3f1832e34353810VgnVCM1000001d4a900aRCRD";"SECOYA";"CALLE";"V";"18";"3";"";"";"";"MADRID";"MADRID";"28044";"6";"BUENAVISTA";"11";"CARABANCHEL";"436762";"4469033";"40.36948386820239";"-3.744863153558721";"";"";"";"/contenido/entidadesYorganismos/TemplosOtrasReligiones"
12284611;"Fraternidad Eben Ezer";"Templo evangélico.";"";"";"Bus:  105";"";"3";"http://www.madrid.es/sites/v/index.jsp?vgnextchannel=bfa48ab43d6bb410VgnVCM100000171f5a0aRCRD&vgnextoid=5c9e37f2adc9d810VgnVCM2000001f4a900aRCRD";"JULIAN CAMARILLO";"CALLE";"V";"39";"";"";"";"";"MADRID";"MADRID";"28037";"1";"SIMANCAS";"20";"SAN BLAS-CANILLEJAS";"446993";"4476322";"40.43586084470142";"-3.6249632986560396";"";"";"";"/contenido/entidadesYorganismos/TemplosOtrasReligiones"
7063730;"Golden Harvest Fellowship International";"Templo evangélico.";"";"";"Metro: Noviciado (línea 2), Plaza de España (líneas 3 y 10)  Bus: 001, 002, 3, 25, 148, 46, 74, 75, 1, 2, 133, 44, 39, 147  Bicimad: Estación 116b (Calle de los Reyes, 10). Estación 16 (Calle San Bernardo, 22)  Aparcamiento: Mostenses (50), Plaza Mostenses y C/ Ricardo León";"";"3";"http://www.madrid.es/sites/v/index.jsp?vgnextchannel=bfa48ab43d6bb410VgnVCM100000171f5a0aRCRD&vgnextoid=924b7b05a8350410VgnVCM2000000c205a0aRCRD";"MANZANA";"CALLE";"V";"19";"1";"Izqda";"";"";"MADRID";"MADRID";"28015";"5";"UNIVERSIDAD";"1";"CENTRO";"439876";"4475054";"40.423954986176156";"-3.708750741323957";"";"";"";"/contenido/entidadesYorganismos/TemplosOtrasReligiones"
12283901;"Gospel Madrid Calle Finisterre";"Templo evangélico.";"";"";"Bus:  147  Metro: Barrio del Pilar (línea 9)";"";"3";"http://www.madrid.es/sites/v/index.jsp?vgnextchannel=bfa48ab43d6bb410VgnVCM100000171f5a0aRCRD&vgnextoid=1604508ccbd8d810VgnVCM1000001d4a900aRCRD";"FINISTERRE";"CALLE";"V";"3";"3";"2";"";"";"MADRID";"MADRID";"28029";"5";"LA PAZ";"8";"FUENCARRAL-EL PARDO";"440608";"4480771";"40.47550328192985";"-3.700664367177924";"";"";"";"/contenido/entidadesYorganismos/TemplosOtrasReligiones"
7064565;"Iglesia  Evangélica Bautista Pueblo Nuevo";"Templo evangélico";"";"";"Metro: Pueblo Nuevo (líneas 5, 7)    Bus: 38, 109, 113";"";"3";"http://www.madrid.es/sites/v/index.jsp?vgnextchannel=bfa48ab43d6bb410VgnVCM100000171f5a0aRCRD&vgnextoid=0304efba3c850410VgnVCM1000000b205a0aRCRD";"GUTIERRE DE CETINA";"CALLE";"V";"13";"";"";"";"";"MADRID";"MADRID";"28017";"2";"PUEBLO NUEVO";"15";"CIUDAD LINEAL";"445362";"4476114";"40.433881823976215";"-3.6441835021326243";"";"";"";"/contenido/entidadesYorganismos/TemplosOtrasReligiones"
11026241;"Iglesia Abundante Vida";"Templo evangélico";"";"";"Metro: Carabanchel Alto (línea 11)  Bus: 108, 118";"";"3";"http://www.madrid.es/sites/v/index.jsp?vgnextchannel=bfa48ab43d6bb410VgnVCM100000171f5a0aRCRD&vgnextoid=82efb608d026d610VgnVCM2000001f4a900aRCRD";"SECOYA";"CALLE";"V";"18";"2";"";"";"";"MADRID";"MADRID";"28044";"6";"BUENAVISTA";"11";"CARABANCHEL";"436762";"4469033";"40.36948386820239";"-3.744863153558721";"";"";"";"/contenido/entidadesYorganismos/TemplosOtrasReligiones"
11744838;"Iglesia Anglicana Episcopal de San Jorge en Madrid";"Templo evangélico.";"";"";"Metro: Velázquez (línea 4)  Bus: 1, 19, 51, 74, 9  Bicimad: Estación 87 (Calle Ayala, 44)  Aparcamiento: Calle Velázquez, calle Ayala (42)";"";"3";"http://www.madrid.es/sites/v/index.jsp?vgnextchannel=bfa48ab43d6bb410VgnVCM100000171f5a0aRCRD&vgnextoid=e0f07177f1282810VgnVCM1000001d4a900aRCRD";"NUÑEZ DE BALBOA";"CALLE";"V";"43";"";"";"";"";"MADRID";"MADRID";"28001";"1";"RECOLETOS";"4";"SALAMANCA";"442084";"4475343";"40.42670809944061";"-3.682755618134939";"";"";"";"/contenido/entidadesYorganismos/TemplosOtrasReligiones"
3386;"Iglesia Anglicana Sección Española de la Diócesis en Europa";"Templo evangélico";"";"";"Metro: Velazquez (línea 4)  Bus: 1, 19, 51, 74, 9  Bicimad: Estación 87 (Calle Ayala, 44)  Aparcamiento: Velázquez Ayala (42), calle Velázquez ( y calle Ayala)";"";"3";"http://www.madrid.es/sites/v/index.jsp?vgnextchannel=bfa48ab43d6bb410VgnVCM100000171f5a0aRCRD&vgnextoid=48047b503a71c010VgnVCM1000000b205a0aRCRD";"NUÑEZ DE BALBOA";"CALLE";"V";"43";"";"";"";"";"MADRID";"MADRID";"28001";"1";"RECOLETOS";"4";"SALAMANCA";"442084";"4475343";"40.42670809944061";"-3.682755618134939";"";"";"";"/contenido/entidadesYorganismos/TemplosOtrasReligiones"
7066142;"Iglesia Asamblea Cristiana de Madrid";"Templo evangélico";"";"";"Metro: Miguel Hernández (línea 1)  Bus: 144, 103, 142, 143, 54, 58";"";"3";"http://www.madrid.es/sites/v/index.jsp?vgnextchannel=bfa48ab43d6bb410VgnVCM100000171f5a0aRCRD&vgnextoid=03758105e2260410VgnVCM2000000c205a0aRCRD";"ALORA";"CALLE";"V";"7";"";"";"";"y 9 posterior";"MADRID";"MADRID";"28018";"4";"PALOMERAS SURESTE";"13";"PUENTE DE VALLECAS";"445650";"4470802";"40.386045219549125";"-3.6403338362133675";"";"";"";"/contenido/entidadesYorganismos/TemplosOtrasReligiones"
11026250;"Iglesia Asamblea de Dios Belén";"Templo evangélico.";"";"";"Metro: Ascao (línea 7).  Bus: 28, 109.";"";"3";"http://www.madrid.es/sites/v/index.jsp?vgnextchannel=bfa48ab43d6bb410VgnVCM100000171f5a0aRCRD&vgnextoid=e880b608d026d610VgnVCM2000001f4a900aRCRD";"EZEQUIEL SOLANA";"CALLE";"V";"51";"";"";"";"";"MADRID";"MADRID";"28017";"2";"PUEBLO NUEVO";"15";"CIUDAD LINEAL";"445362";"4475668";"40.42985610848436";"-3.6441399002858303";"";"";"";"/contenido/entidadesYorganismos/TemplosOtrasReligiones"
12281744;"Iglesia Avivamiento Renacer Madrid a las Naciones";"Templo evangélico.";"";"";"Metro: Vistalegre (línea 5)";"";"3";"http://www.madrid.es/sites/v/index.jsp?vgnextchannel=bfa48ab43d6bb410VgnVCM100000171f5a0aRCRD&vgnextoid=4cd5491c5688d810VgnVCM1000001d4a900aRCRD";"GAVIOTA";"CALLE";"V";"56";"";"";"";"";"MADRID";"MADRID";"28025";"4";"VISTA ALEGRE";"11";"CARABANCHEL";"437377";"4471155";"40.388641971097854";"-3.7378216298754694";"";"";"";"/contenido/entidadesYorganismos/TemplosOtrasReligiones"
11025964;"Iglesia Bautista Calvario";"Templo evangélico.";"";"";"Metro: Esperanza (línea 4).  Bus: 120, 122.";"";"3";"http://www.madrid.es/sites/v/index.jsp?vgnextchannel=bfa48ab43d6bb410VgnVCM100000171f5a0aRCRD&vgnextoid=d0460d28e4e5d610VgnVCM2000001f4a900aRCRD";"PALERMO";"CALLE";"V";"28";"";"";"";"";"MADRID";"MADRID";"28043";"3";"CANILLAS";"16";"HORTALEZA";"444986";"4478918";"40.45911690185054";"-3.6488513828849785";"";"";"";"/contenido/entidadesYorganismos/TemplosOtrasReligiones"
11777516;"Iglesia Bautista de Alameda de Osuna";"Templo evangélico.";"";"";"Bus: 114, 101.";"";"3";"http://www.madrid.es/sites/v/index.jsp?vgnextchannel=bfa48ab43d6bb410VgnVCM100000171f5a0aRCRD&vgnextoid=5688832e34353810VgnVCM1000001d4a900aRCRD";"SOTO HIDALGO";"CALLE";"V";"6";"";"";"";"";"MADRID";"MADRID";"28042";"1";"ALAMEDA DE OSUNA";"21";"BARAJAS";"450828";"4478991";"40.46013668353802";"-3.5799608501207385";"";"";"";"/contenido/entidadesYorganismos/TemplosOtrasReligiones"
7064876;"Iglesia Bautista de Jesús";"Templo evangélico.";"";"";"Metro: Lucero (línea 6).  Bus: 138.";"";"3";"http://www.madrid.es/sites/v/index.jsp?vgnextchannel=bfa48ab43d6bb410VgnVCM100000171f5a0aRCRD&vgnextoid=335d9bd56dc50410VgnVCM2000000c205a0aRCRD";"PERALES";"PASEO";"V";"28";"";"";"";"";"MADRID";"MADRID";"28011";"2";"PUERTA DEL ANGEL";"10";"LATINA";"437273";"4472977";"40.405049702498715";"-3.739235702341104";"";"";"";"/contenido/entidadesYorganismos/TemplosOtrasReligiones"
11769014;"Iglesia Bautista de Jesús (José Villena, 10)";"Templo evangélico.";"";"";"Metro: El Carmen (línea 5).  Bus: 146, 38, 110, 210, 106.";"";"3";"http://www.madrid.es/sites/v/index.jsp?vgnextchannel=bfa48ab43d6bb410VgnVCM100000171f5a0aRCRD&vgnextoid=e833914953133810VgnVCM2000001f4a900aRCRD";"JOSE VILLENA";"CALLE";"V";"10";"";"";"";"";"MADRID";"MADRID";"28017";"1";"VENTAS";"15";"CIUDAD LINEAL";"444372";"4475839";"40.431333124979844";"-3.655823971182136";"";"";"";"/contenido/entidadesYorganismos/TemplosOtrasReligiones"
12281440;"Iglesia Bautista Emanuel de Madrid Hernández de Tejada";"Templo evangélico.";"";"";"Bus:  11, 114, 115, 200";"";"3";"http://www.madrid.es/sites/v/index.jsp?vgnextchannel=bfa48ab43d6bb410VgnVCM100000171f5a0aRCRD&vgnextoid=003797afda78d810VgnVCM1000001d4a900aRCRD";"HERNANDEZ DE TEJADA";"CALLE";"V";"4";"";"";"";"";"MADRID";"MADRID";"28027";"5";"SAN PASCUAL";"15";"CIUDAD LINEAL";"444755";"4477556";"40.44683079932284";"-3.6514595783618526";"";"";"";"/contenido/entidadesYorganismos/TemplosOtrasReligiones"
12281476;"Iglesia Bautista Lagoinha Madrid";"Templo evangélico.";"";"";"Bus: 174, 171, BR1";"";"3";"http://www.madrid.es/sites/v/index.jsp?vgnextchannel=bfa48ab43d6bb410VgnVCM100000171f5a0aRCRD&vgnextoid=f61c62ec2188d810VgnVCM1000001d4a900aRCRD";"MAESTRA DOLORES MARCO";"CALLE";"V";"14";"3";"B";"";"Puerta 6";"MADRID";"MADRID";"28055";"6";"VALDEFUENTES";"16";"HORTALEZA";"446729";"4481498";"40.4824691104066";"-3.6285142846205916";"";"";"";"/contenido/entidadesYorganismos/TemplosOtrasReligiones"
11744847;"Iglesia Bíblica de la Gracia";"Templo evangélico.";"";"";"Bus: 100, 130, E3, E5, 4, 106";"";"3";"http://www.madrid.es/sites/v/index.jsp?vgnextchannel=bfa48ab43d6bb410VgnVCM100000171f5a0aRCRD&vgnextoid=8c78509625282810VgnVCM1000001d4a900aRCRD";"LUMBRERAS";"CALLE";"V";"8";"";"";"";"";"MADRID";"MADRID";"28032";"1";"CASCO H.VICALVARO";"19";"VICALVARO";"447777";"4473097";"40.40685383679603";"-3.6154573903495684";"";"";"";"/contenido/entidadesYorganismos/TemplosOtrasReligiones"
11771765;"Iglesia Bíblica Reto a la Esperanza Camino de Hormigueras 137";"Templo evangélico.";"";"";"Bus:  130, T31.";"";"3";"http://www.madrid.es/sites/v/index.jsp?vgnextchannel=bfa48ab43d6bb410VgnVCM100000171f5a0aRCRD&vgnextoid=91345fe4a5b33810VgnVCM2000001f4a900aRCRD";"HORMIGUERAS";"CAMINO";"V";"137";"";"";"";"";"MADRID";"MADRID";"28031";"1";"CASCO H.VALLECAS";"18";"VILLA DE VALLECAS";"445411";"4469557";"40.374809606409876";"-3.643042097371311";"";"";"";"/contenido/entidadesYorganismos/TemplosOtrasReligiones"
11778140;"Iglesia Bíblica Vida Nueva Madrid";"Templo evangélico.";"";"";"Bus:   150, 174.    Cercanías Renfe:   Fuente de la Mora (líneas C1, C2 y C10).    Bicimad: 551 (Calle Oña s/n)";"";"3";"http://www.madrid.es/sites/v/index.jsp?vgnextchannel=bfa48ab43d6bb410VgnVCM100000171f5a0aRCRD&vgnextoid=15112344a4553810VgnVCM1000001d4a900aRCRD";"MANOTERAS";"AVENIDA";"V";"22";"3";"";"";"";"MADRID";"MADRID";"28050";"6";"VALDEFUENTES";"16";"HORTALEZA";"443438";"4482059";"40.48730378881032";"-3.6673971793876783";"";"";"";"/contenido/entidadesYorganismos/TemplosOtrasReligiones"
11027012;"Iglesia Buenas Nuevas la Gran Comisión";"Templo evangélico";"";"";"Metro: Oporto (líneas 5 y 6)  Bus: 55 Bicimad: Estación 380 (Calle de la Oca, 20)";"";"3";"http://www.madrid.es/sites/v/index.jsp?vgnextchannel=bfa48ab43d6bb410VgnVCM100000171f5a0aRCRD&vgnextoid=6731b97c8136d610VgnVCM2000001f4a900aRCRD";"PEDRO DIEZ";"AVENIDA";"V";"44";"BAJO";"A";"";"";"MADRID";"MADRID";"28019";"3";"SAN ISIDRO";"11";"CARABANCHEL";"437640";"4471460";"40.39140939863793";"-3.7347623378764117";"";"";"";"/contenido/entidadesYorganismos/TemplosOtrasReligiones"
11771794;"Iglesia Carismática Episcopal de España";"Templo evangélico.";"";"";"Metro: Lavapiés (línea 3)  Bus: M1  Aparcamiento: Plaza Arturo Barea (73), Calle Casino (19)";"";"3";"http://www.madrid.es/sites/v/index.jsp?vgnextchannel=bfa48ab43d6bb410VgnVCM100000171f5a0aRCRD&vgnextoid=b3075fe4a5b33810VgnVCM2000001f4a900aRCRD";"EMBAJADORES";"CALLE";"V";"62";"2";"3";"";"";"MADRID";"MADRID";"28012";"2";"EMBAJADORES";"1";"CENTRO";"440254";"4473221";"40.40746398966426";"-3.7041263994299647";"";"";"";"/contenido/entidadesYorganismos/TemplosOtrasReligiones"
11732447;"Iglesia Catedral del Redentor";"Templo evangélico";"";"";"Metro: Tribunal (línea 1, 10) / Alonso Martínez (línea 4, 5, 10)  Bus: 149, 40, 37  Bicimad: Estación 54 (calle Barceló, 7)  Aparcamiento: (Barceló (69), calle Barceló, sin número / Arquitecto Ribera (Barceló) (17), calle Barceló, 2)";"";"3";"http://www.madrid.es/sites/v/index.jsp?vgnextchannel=bfa48ab43d6bb410VgnVCM100000171f5a0aRCRD&vgnextoid=25166ec47c7f1810VgnVCM2000001f4a900aRCRD";"BENEFICENCIA";"CALLE";"V";"18";"";"";"";"";"MADRID";"MADRID";"28004";"4";"JUSTICIA";"1";"CENTRO";"440734";"4475314";"40.42635538209311";"-3.6986664775671785";"";"";"";"/contenido/entidadesYorganismos/TemplosOtrasReligiones"
7064593;"Iglesia CENFOL España";"Templo evangélico";"";"";"Metro: Pinar del Rey (línea 8)  Bus: 73";"";"3";"http://www.madrid.es/sites/v/index.jsp?vgnextchannel=bfa48ab43d6bb410VgnVCM100000171f5a0aRCRD&vgnextoid=beddb8d07d850410VgnVCM1000000b205a0aRCRD";"ALEJANDRO VILLEGAS";"CALLE";"V";"34";"BAJO";"";"";"entrada por calle Manzanar";"MADRID";"MADRID";"28043";"3";"CANILLAS";"16";"HORTALEZA";"444995";"4479591";"40.4651811895254";"-3.648807352035274";"";"";"";"/contenido/entidadesYorganismos/TemplosOtrasReligiones"
7066102;"Iglesia Centro de Evangelización Anuncio de Paz";"Templo evangélico";"";"";"Metro: Nueva Numancia (línea 1)  Bus: 10, 54, 57, 58, 136,";"";"3";"http://www.madrid.es/sites/v/index.jsp?vgnextchannel=bfa48ab43d6bb410VgnVCM100000171f5a0aRCRD&vgnextoid=17bb8105e2260410VgnVCM2000000c205a0aRCRD";"PUERTO DEL MONASTERIO";"CALLE";"V";"21";"BAJO";"";"";"";"MADRID";"MADRID";"28053";"2";"SAN DIEGO";"13";"PUENTE DE VALLECAS";"443726";"4471726";"40.39424096832157";"-3.6630821739716866";"";"";"";"/contenido/entidadesYorganismos/TemplosOtrasReligiones"
11772907;"Iglesia China Evangélica Misión Internacional";"Templo evangélico.";"";"";"Metro: Nueva Numancia (línea 1)  Bus: 136, 54, 57, 58";"";"3";"http://www.madrid.es/sites/v/index.jsp?vgnextchannel=bfa48ab43d6bb410VgnVCM100000171f5a0aRCRD&vgnextoid=69e06e4d59043810VgnVCM1000001d4a900aRCRD";"PUERTO DE CANFRANC";"CALLE";"V";"10";"";"";"";"";"MADRID";"MADRID";"28038";"6";"NUMANCIA";"13";"PUENTE DE VALLECAS";"443683";"4471951";"40.396267707201616";"-3.6636066213529817";"";"";"";"/contenido/entidadesYorganismos/TemplosOtrasReligiones"
11026245;"Iglesia China Río de Esperanza";"Templo evangélico.";"";"";"Bus: 116.  Bicimad: Estación 358 (Calle de la Verdad, 14c).";"";"3";"http://www.madrid.es/sites/v/index.jsp?vgnextchannel=bfa48ab43d6bb410VgnVCM100000171f5a0aRCRD&vgnextoid=ab30b608d026d610VgnVCM2000001f4a900aRCRD";"ANTONIO GONZALEZ PORRAS";"CALLE";"V";"25";"6";"B";"";"";"MADRID";"MADRID";"28019";"2";"OPAÑEL";"11";"CARABANCHEL";"439074";"4471366";"40.3906699322105";"-3.7178522152667624";"";"";"";"/contenido/entidadesYorganismos/TemplosOtrasReligiones"
11777733;"Iglesia Comunidad Cristiana de Fe";"Templo evangélico.";"";"";"Metro: San Francisco (línea 11).   Bus:   108, 118.";"";"3";"http://www.madrid.es/sites/v/index.jsp?vgnextchannel=bfa48ab43d6bb410VgnVCM100000171f5a0aRCRD&vgnextoid=0373832e34353810VgnVCM1000001d4a900aRCRD";"SECOYA";"CALLE";"V";"18";"";"B";"";"Polígono Industrial Aguacate";"MADRID";"MADRID";"28044";"6";"BUENAVISTA";"11";"CARABANCHEL";"436762";"4469033";"40.36948386820239";"-3.744863153558721";"";"";"";"/contenido/entidadesYorganismos/TemplosOtrasReligiones"
11777559;"Iglesia Comunidad Cristiana en España, CCL";"Templo evangélico.";"";"";"Metro: Carabanchel Alto (línea 11).   Bus:   155.";"";"3";"http://www.madrid.es/sites/v/index.jsp?vgnextchannel=bfa48ab43d6bb410VgnVCM100000171f5a0aRCRD&vgnextoid=b1cc832e34353810VgnVCM1000001d4a900aRCRD";"HAYA";"CALLE";"V";"1";"1";"";"";"Polígono Industrial de Aguacate";"MADRID";"MADRID";"28044";"6";"BUENAVISTA";"11";"CARABANCHEL";"436570";"4468949";"40.368709165465525";"-3.7471132818088884";"";"";"";"/contenido/entidadesYorganismos/TemplosOtrasReligiones"
11777745;"Iglesia Coreana de Madrid Cheil";"Templo evangélico.";"";"";"Metro: Carabanchel Alto (línea 11)   Bus:   108, 118";"";"3";"http://www.madrid.es/sites/v/index.jsp?vgnextchannel=bfa48ab43d6bb410VgnVCM100000171f5a0aRCRD&vgnextoid=10c4832e34353810VgnVCM1000001d4a900aRCRD";"SECOYA";"CALLE";"V";"22";"1";"1";"";"";"MADRID";"MADRID";"28044";"6";"BUENAVISTA";"11";"CARABANCHEL";"436639";"4468992";"40.36910408905974";"-3.746309510930643";"";"";"";"/contenido/entidadesYorganismos/TemplosOtrasReligiones"
18298;"Iglesia Cristiana Adventista del Séptimo Día. Madrid Alenza";"";"";"";"Metro: Ríos Rosas (línea 1), Cuatro Caminos (líneas 1, 2, 6)  Bus: 45, 12, 149, 3, 37  Bicimad: Estación 130 (calle Santa Engracia, 127)";"";"3";"http://www.madrid.es/sites/v/index.jsp?vgnextchannel=bfa48ab43d6bb410VgnVCM100000171f5a0aRCRD&vgnextoid=435f6f065851c010VgnVCM2000000c205a0aRCRD";"ALENZA";"CALLE";"V";"6";"Baja";"";"";"";"MADRID";"MADRID";"28003";"5";"RIOS ROSAS";"7";"CHAMBERI";"440594";"4477227";"40.443575443757055";"-3.700489559324882";"917 377 737";"";"info@aventista.es";"/contenido/entidadesYorganismos/TemplosOtrasReligiones"
190017;"Iglesia Cristiana Adventista del Séptimo Día. Madrid Aluche";"";"";"";"Metro: Eugenía de Montijo (línea 5)  Bus: 31, 25, 138";"";"3";"http://www.madrid.es/sites/v/index.jsp?vgnextchannel=bfa48ab43d6bb410VgnVCM100000171f5a0aRCRD&vgnextoid=08470bf21677f010VgnVCM1000000b205a0aRCRD";"LOS YEBENES";"CALLE";"V";"255";"";"";"";"";"MADRID";"MADRID";"28047";"4";"ALUCHE";"10";"LATINA";"436212";"4471257";"40.38947474678948";"-3.751562379802795";"917 377 737";"";"info@aventista.es";"/contenido/entidadesYorganismos/TemplosOtrasReligiones"
8353139;"Iglesia Cristiana Adventista del Séptimo Día. Madrid Eben-Ezer";"";"";"";"Metro: Avenida de Guadalajara (línea 2)  Bus: 4";"";"3";"http://www.madrid.es/sites/v/index.jsp?vgnextchannel=bfa48ab43d6bb410VgnVCM100000171f5a0aRCRD&vgnextoid=925691f81c421510VgnVCM2000000c205a0aRCRD";"RUSIA";"CALLE";"V";"11";"";"";"";"";"MADRID";"MADRID";"28022";"5";"ROSAS";"20";"SAN BLAS-CANILLEJAS";"448247";"4475023";"40.424237049023766";"-3.6100802530279967";"917 377 737";"";"info@aventista.es";"/contenido/entidadesYorganismos/TemplosOtrasReligiones"
190046;"Iglesia Cristiana Adventista del Séptimo Día. Madrid Efes";"";"";"";"Metro: Urgel (línea 5)  Bus: 118, 34, 35, 119";"";"3";"http://www.madrid.es/sites/v/index.jsp?vgnextchannel=bfa48ab43d6bb410VgnVCM100000171f5a0aRCRD&vgnextoid=5cb70bf21677f010VgnVCM1000000b205a0aRCRD";"ALEJANDRO SANCHEZ";"CALLE";"V";"49";"";"";"";"";"MADRID";"MADRID";"28019";"2";"OPAÑEL";"11";"CARABANCHEL";"438716";"4471312";"40.390153190373084";"-3.7220850553963856";"917 377 737";"";"info@aventista.es";"/contenido/entidadesYorganismos/TemplosOtrasReligiones"
11417679;"Iglesia Cristiana Adventista del Séptimo Día. Madrid Emaus";"";"";"";"Metro: Avenida de Guadalajara (línea 2)  Bus: 4";"";"3";"http://www.madrid.es/sites/v/index.jsp?vgnextchannel=bfa48ab43d6bb410VgnVCM100000171f5a0aRCRD&vgnextoid=f4aaeeb2dcd1a710VgnVCM1000001d4a900aRCRD";"RUSIA";"CALLE";"V";"11";"";"";"";"";"MADRID";"MADRID";"28022";"5";"ROSAS";"20";"SAN BLAS-CANILLEJAS";"448247";"4475023";"40.424237049023766";"-3.6100802530279967";"917 377 737";"";"info@aventista.es";"/contenido/entidadesYorganismos/TemplosOtrasReligiones"
6893233;"Iglesia Cristiana Adventista del Séptimo Día. Madrid Habla Portuguesa";"";"";"";"Metro: Carpetana (línea 6)  Bus: 17, 25";"";"3";"http://www.madrid.es/sites/v/index.jsp?vgnextchannel=bfa48ab43d6bb410VgnVCM100000171f5a0aRCRD&vgnextoid=f1d689f2b4eed310VgnVCM2000000c205a0aRCRD";"DOCTOR ZOFIO";"CALLE";"V";"4";"";"";"";"";"MADRID";"MADRID";"28019";"3";"SAN ISIDRO";"11";"CARABANCHEL";"437355";"4471841";"40.3948228497844";"-3.738156333879843";"917 377 737";"";"info@aventista.es";"/contenido/entidadesYorganismos/TemplosOtrasReligiones"
8352971;"Iglesia Cristiana Adventista del Séptimo Día. Madrid Horeb";"";"";"";"Metro: Carpetana (línea 6)  Bus: 17, 25";"";"3";"http://www.madrid.es/sites/v/index.jsp?vgnextchannel=bfa48ab43d6bb410VgnVCM100000171f5a0aRCRD&vgnextoid=384fcef44b421510VgnVCM2000000c205a0aRCRD";"DOCTOR ZOFIO";"CALLE";"V";"4";"";"";"";"";"MADRID";"MADRID";"28019";"3";"SAN ISIDRO";"11";"CARABANCHEL";"437355";"4471841";"40.3948228497844";"-3.738156333879843";"917 377 737";"";"info@aventista.es";"/contenido/entidadesYorganismos/TemplosOtrasReligiones"
190054;"Iglesia Cristiana Adventista del Séptimo Día. Madrid Resurrección";"";"";"";"Metro: Avenida de Guadalajara (línea 2)  Bus: 153, 38";"";"3";"http://www.madrid.es/sites/v/index.jsp?vgnextchannel=bfa48ab43d6bb410VgnVCM100000171f5a0aRCRD&vgnextoid=23e70bf21677f010VgnVCM1000000b205a0aRCRD";"AUSTRIA";"CALLE";"V";"2";"";"";"";"";"MADRID";"MADRID";"28022";"5";"ROSAS";"20";"SAN BLAS-CANILLEJAS";"448422";"4475079";"40.424745913913924";"-3.6080217648238966";"917 377 737";"";"info@aventista.es";"/contenido/entidadesYorganismos/TemplosOtrasReligiones"
190014;"Iglesia Cristiana Adventista del Séptimo Día. Madrid Vallecas";"";"";"";"Bus: 103, 111, 144  Cercanías RENFE: Asamblea de Madrid-Entrevías (líneas C2, C7)";"";"3";"http://www.madrid.es/sites/v/index.jsp?vgnextchannel=bfa48ab43d6bb410VgnVCM100000171f5a0aRCRD&vgnextoid=26f70bf21677f010VgnVCM1000000b205a0aRCRD";"DOCTOR BELLIDO";"CALLE";"V";"13";"";"";"";"";"MADRID";"MADRID";"28018";"2";"SAN DIEGO";"13";"PUENTE DE VALLECAS";"443352";"4470675";"40.384743037956014";"-3.667388786715533";"917 377 737";"";"info@aventista.es";"/contenido/entidadesYorganismos/TemplosOtrasReligiones"
190059;"Iglesia Cristiana Adventista del Séptimo Día. Madrid Ventas";"";"";"";"Metro: Quintana (línea 5), La Elipa (línea 2)  Bus: 113, 106, 28";"";"3";"http://www.madrid.es/sites/v/index.jsp?vgnextchannel=bfa48ab43d6bb410VgnVCM100000171f5a0aRCRD&vgnextoid=0a08d5bfd677f010VgnVCM1000000b205a0aRCRD";"HERMANOS GOMEZ";"CALLE";"V";"32";"";"local";"";"";"MADRID";"MADRID";"28017";"1";"VENTAS";"15";"CIUDAD LINEAL";"444879";"4475715";"40.43025079764197";"-3.649838033163314";"917 377 737";"";"info@aventista.es";"/contenido/entidadesYorganismos/TemplosOtrasReligiones"
11769743;"Iglesia Cristiana Adventista Rusia 11";"Templo evangélico.";"";"";"Metro: Avenida de Guadalajara (línea 2).  Bus: 4.";"";"3";"http://www.madrid.es/sites/v/index.jsp?vgnextchannel=bfa48ab43d6bb410VgnVCM100000171f5a0aRCRD&vgnextoid=d23d103c47533810VgnVCM2000001f4a900aRCRD";"RUSIA";"CALLE";"V";"11";"";"";"";"";"MADRID";"MADRID";"28022";"5";"ROSAS";"20";"SAN BLAS-CANILLEJAS";"448247";"4475023";"40.424237049023766";"-3.6100802530279967";"";"";"";"/contenido/entidadesYorganismos/TemplosOtrasReligiones"
11768941;"Iglesia Cristiana Bautista Betel";"Templo evangélico.";"";"";"Bus:   167, 77";"";"3";"http://www.madrid.es/sites/v/index.jsp?vgnextchannel=bfa48ab43d6bb410VgnVCM100000171f5a0aRCRD&vgnextoid=db768f0261133810VgnVCM1000001d4a900aRCRD";"ENERO";"CALLE";"V";"13";"";"";"";"";"MADRID";"MADRID";"28022";"6";"REJAS";"20";"SAN BLAS-CANILLEJAS";"452022";"4477611";"40.44777785297718";"-3.5657783371016496";"";"";"";"/contenido/entidadesYorganismos/TemplosOtrasReligiones"
7064915;"Iglesia Cristiana Bautista de Vallecas";"Templo evangélico.";"";"";"Metro: Nueva Numancia (línea 1).  Bus: 103, 142, 54";"";"3";"http://www.madrid.es/sites/v/index.jsp?vgnextchannel=bfa48ab43d6bb410VgnVCM100000171f5a0aRCRD&vgnextoid=19bdb607bec50410VgnVCM2000000c205a0aRCRD";"SIERRA ESPU&amp;Ntilde;A";"CALLE";"V";"22";"local";"2";"";"";"MADRID";"MADRID";"28031";"1";"CASCO H.VALLECAS";"18";"VILLA DE VALLECAS";"447217";"4469619";"40.37548350089073";"-3.6217714951930553";"";"";"";"/contenido/entidadesYorganismos/TemplosOtrasReligiones"
11745350;"Iglesia Cristiana Casa de mi Padre";"Templo evangélico.";"";"";"Metro: Oporto (líneas 5 y 6), Vista Alegre (línea 5)  Bus: 55";"";"3";"http://www.madrid.es/sites/v/index.jsp?vgnextchannel=bfa48ab43d6bb410VgnVCM100000171f5a0aRCRD&vgnextoid=46475ecb8b782810VgnVCM1000001d4a900aRCRD";"TORTOLA";"CALLE";"V";"10";"3";"C";"";"";"MADRID";"MADRID";"28019";"3";"SAN ISIDRO";"11";"CARABANCHEL";"437630";"4471400";"40.39087260351759";"-3.734867022776862";"";"";"";"/contenido/entidadesYorganismos/TemplosOtrasReligiones"
11770106;"Iglesia Cristiana China en España";"Templo evangélico.";"";"";"Metro: Usera (línea 6).  Bus: 247, 47.";"";"3";"http://www.madrid.es/sites/v/index.jsp?vgnextchannel=bfa48ab43d6bb410VgnVCM100000171f5a0aRCRD&vgnextoid=032d52deb5633810VgnVCM2000001f4a900aRCRD";"GABRIEL USERA";"CALLE";"V";"32";"";"";"";"- 36 (BAJOS)";"MADRID";"MADRID";"28026";"7";"PRADOLONGO";"12";"USERA";"439840";"4470717";"40.38487927104675";"-3.708765245871834";"";"";"";"/contenido/entidadesYorganismos/TemplosOtrasReligiones"
7064802;"Iglesia Cristiana Corazón de León";"Templo evangélico.";"";"";"Metro: Sol (líneas 1, 2 y 3). Tirso de Molina (línea 1).  Bus: 002, M1, 26, 32, 6, 65, 50.  Bicimad: Estaciones 34 (plaza de Jacinto Benavente), 33 (calle Carretas, 8), 52 (plaza de Santa Ana, 10), 40 (plaza del Conde de Romanones, 9), 32 (plaza de la Provincia, 1).  Cercanías Renfe: Sol (líneas C3, C4, C4a, Regional).";"";"3";"http://www.madrid.es/sites/v/index.jsp?vgnextchannel=bfa48ab43d6bb410VgnVCM100000171f5a0aRCRD&vgnextoid=98296bbcdbc50410VgnVCM1000000b205a0aRCRD";"CARRETAS";"CALLE";"V";"14";"3";"";"";"";"MADRID";"MADRID";"28012";"6";"SOL";"1";"CENTRO";"440320";"4474056";"40.41498820459974";"-3.703424906084702";"";"";"";"/contenido/entidadesYorganismos/TemplosOtrasReligiones"
11778010;"Iglesia Cristiana de Transformación Total (ICT)";"Templo evangélico.";"";"";"Metro: Urgel (línea 5).";"";"3";"http://www.madrid.es/sites/v/index.jsp?vgnextchannel=bfa48ab43d6bb410VgnVCM100000171f5a0aRCRD&vgnextoid=fc58a62150553810VgnVCM1000001d4a900aRCRD";"HERMANOS DEL MORAL";"CALLE";"V";"69";"4";"A";"";"";"MADRID";"MADRID";"28019";"2";"OPAÑEL";"11";"CARABANCHEL";"438759";"4471381";"40.390777593778836";"-3.7215716544298516";"";"";"";"/contenido/entidadesYorganismos/TemplosOtrasReligiones"
7065462;"Iglesia Cristiana Evangélica Casa de Oración";"Templo evangélico.";"";"";"Metro: Manuel Becerra (líneas 2 y 6), Las Ventas (líneas 2 y 5).  Bus: 1, 43, 74, 12, 210, 48, 56, C1.";"";"3";"http://www.madrid.es/sites/v/index.jsp?vgnextchannel=bfa48ab43d6bb410VgnVCM100000171f5a0aRCRD&vgnextoid=644198d978d50410VgnVCM2000000c205a0aRCRD";"LONDRES";"CALLE";"V";"13";"";"";"";"";"MADRID";"MADRID";"28028";"4";"GUINDALERA";"4";"SALAMANCA";"443217";"4475862";"40.43146551176339";"-3.6694435929153446";"";"";"";"/contenido/entidadesYorganismos/TemplosOtrasReligiones"
23684;"Iglesia Cristiana Evangélica de Aluche";"Templo evangélico";"";"";"Metro: Eugenia de Montijo (línea 5)  Bus: 17";"";"0";"http://www.madrid.es/sites/v/index.jsp?vgnextchannel=bfa48ab43d6bb410VgnVCM100000171f5a0aRCRD&vgnextoid=bf9b92355c51c010VgnVCM2000000c205a0aRCRD";"NUESTRA SEÑORA DE LA LUZ";"CALLE";"V";"118";"";"";"";"";"MADRID";"MADRID";"28047";"4";"ALUCHE";"10";"LATINA";"436212";"4470932";"40.38654839663729";"-3.7515244313543996";"";"";"";"/contenido/entidadesYorganismos/TemplosOtrasReligiones"
11771515;"Iglesia Cristiana Evangélica de Aluche Paseo Extremadura";"Templo evangélico.";"";"";"Bus:   36, 39, 65, 33    Bicimad: Estación 328 (Calle Cebreros, 97)";"";"3";"http://www.madrid.es/sites/v/index.jsp?vgnextchannel=bfa48ab43d6bb410VgnVCM100000171f5a0aRCRD&vgnextoid=7565efa872b33810VgnVCM1000001d4a900aRCRD";"EXTREMADURA";"PASEO";"V";"258";"";"";"";"";"MADRID";"MADRID";"28011";"3";"LUCERO";"10";"LATINA";"436040";"4472934";"40.40456851921803";"-3.7537632335870046";"";"";"";"/contenido/entidadesYorganismos/TemplosOtrasReligiones"
11026266;"Iglesia Cristiana Evangelica de Chamartín";"Templo evangélico.";"";"";"Metro: Colombia (líneas 8 y 9).  Bus: 11, 40, 7, 87, 52.";"";"3";"http://www.madrid.es/sites/v/index.jsp?vgnextchannel=bfa48ab43d6bb410VgnVCM100000171f5a0aRCRD&vgnextoid=6621b608d026d610VgnVCM2000001f4a900aRCRD";"VICTOR DE LA SERNA";"CALLE";"V";"58";"";"";"";"y 60";"MADRID";"MADRID";"28016";"4";"HISPANOAMERICA";"5";"CHAMARTIN";"443039";"4478784";"40.45777867348771";"-3.671802881446396";"";"";"";"/contenido/entidadesYorganismos/TemplosOtrasReligiones"
7065093;"Iglesia Cristiana Evangélica El Buen Pastor de Madrid";"Templo evangélico.";"";"";"Metro: Nueva Numancia (línea 1).  Bus: 141.  Bicimad: Estación 226 (camino de Valderribas, 94).";"";"3";"http://www.madrid.es/sites/v/index.jsp?vgnextchannel=bfa48ab43d6bb410VgnVCM100000171f5a0aRCRD&vgnextoid=7d373ddd32d50410VgnVCM2000000c205a0aRCRD";"VALDERRIBAS";"CAMINO";"V";"96";"";"";"";"Nave";"MADRID";"MADRID";"28038";"6";"NUMANCIA";"13";"PUENTE DE VALLECAS";"443944";"4472238";"40.398863439810455";"-3.660560405682932";"";"";"";"/contenido/entidadesYorganismos/TemplosOtrasReligiones"
11772717;"Iglesia Cristiana Evangélica en Suanzes";"Templo evangélico.";"";"";"Metro: Suanzes (línea 5).  Bus: 104, 77, 105.";"";"3";"http://www.madrid.es/sites/v/index.jsp?vgnextchannel=bfa48ab43d6bb410VgnVCM100000171f5a0aRCRD&vgnextoid=17266cd533043810VgnVCM1000001d4a900aRCRD";"PAQUITIN";"PASAJE";"V";"10";"";"";"";"";"MADRID";"MADRID";"28037";"1";"SIMANCAS";"20";"SAN BLAS-CANILLEJAS";"447015";"4476835";"40.44047986175515";"-3.6247473743912937";"";"";"";"/contenido/entidadesYorganismos/TemplosOtrasReligiones"
12283681;"Iglesia Cristiana Evangélica Itamar";"Templo evangélico.";"";"";"Metro: Tetuan (línea 1)  Bus: 124, 66";"";"3";"http://www.madrid.es/sites/v/index.jsp?vgnextchannel=bfa48ab43d6bb410VgnVCM100000171f5a0aRCRD&vgnextoid=da2f4aa015d8d810VgnVCM2000001f4a900aRCRD";"HIERBABUENA";"CALLE";"V";"12";"";"";"";"Local 2 derecho";"MADRID";"MADRID";"28039";"6";"BERRUGUETE";"6";"TETUAN";"440512";"4479055";"40.46003737488267";"-3.7016358112600694";"";"";"";"/contenido/entidadesYorganismos/TemplosOtrasReligiones"
11025949;"Iglesia Cristiana Evangélica Las Águilas";"Templo evangélico";"";"";"Bus: 138, 17";"";"3";"http://www.madrid.es/sites/v/index.jsp?vgnextchannel=bfa48ab43d6bb410VgnVCM100000171f5a0aRCRD&vgnextoid=96350d28e4e5d610VgnVCM2000001f4a900aRCRD";"FUERTE DE NAVIDAD";"CALLE";"V";"19";"";"";"";"";"MADRID";"MADRID";"28044";"7";"LAS AGUILAS";"10";"LATINA";"434906";"4470254";"40.380332955379934";"-3.7668506940875517";"";"";"";"/contenido/entidadesYorganismos/TemplosOtrasReligiones"
11777569;"Iglesia Cristiana Evangélica Ministerio Misionero";"Templo evangélico.";"";"";"Metro: Carabanchel Alto (línea 11).";"";"3";"http://www.madrid.es/sites/v/index.jsp?vgnextchannel=bfa48ab43d6bb410VgnVCM100000171f5a0aRCRD&vgnextoid=d16d832e34353810VgnVCM1000001d4a900aRCRD";"HAYA";"CALLE";"V";"11";"1";"";"";"";"MADRID";"MADRID";"28044";"6";"BUENAVISTA";"11";"CARABANCHEL";"436543";"4468663";"40.36613220090543";"-3.747406133925766";"";"";"";"/contenido/entidadesYorganismos/TemplosOtrasReligiones"
11771780;"Iglesia Cristiana Evangélica Pentecostal Shekinah";"Templo evangélico.";"";"";"Metro: Villa de Vallecas (línea 1).  Bus: 58, 103, 142, 54.  Cercanáis Renfe: Vallecas (líneas C2, C7 y Regional).";"";"3";"http://www.madrid.es/sites/v/index.jsp?vgnextchannel=bfa48ab43d6bb410VgnVCM100000171f5a0aRCRD&vgnextoid=f8955fe4a5b33810VgnVCM2000001f4a900aRCRD";"MONTE DE MONTJUICH";"CALLE";"V";"3";"";"";"";"";"MADRID";"MADRID";"28031";"1";"CASCO H.VALLECAS";"18";"VILLA DE VALLECAS";"447472";"4470133";"40.38013097479169";"-3.618810637876165";"";"";"";"/contenido/entidadesYorganismos/TemplosOtrasReligiones"
11772995;"Iglesia Cristiana Filipina Cristo el Camino de Salvación";"Templo evangélico.";"";"";"Metro: Tetuán (línea 1).  Bus: 11.";"";"3";"http://www.madrid.es/sites/v/index.jsp?vgnextchannel=bfa48ab43d6bb410VgnVCM100000171f5a0aRCRD&vgnextoid=cfb93d647d043810VgnVCM1000001d4a900aRCRD";"HIERBABUENA";"CALLE";"V";"55";"";"";"";"";"MADRID";"MADRID";"28039";"5";"VALDEACEDERAS";"6";"TETUAN";"440621";"4479298";"40.462233128185645";"-3.700373838408467";"";"";"";"/contenido/entidadesYorganismos/TemplosOtrasReligiones"
7064620;"Iglesia Cristiana Hosanna";"Templo evangélico";"";"";"Metro: Vista Alegre (línea 5)    Bus: 55";"";"3";"http://www.madrid.es/sites/v/index.jsp?vgnextchannel=bfa48ab43d6bb410VgnVCM100000171f5a0aRCRD&vgnextoid=149a5bddd0950410VgnVCM1000000b205a0aRCRD";"ALFARO";"CALLE";"V";"36";"";"";"";"";"MADRID";"MADRID";"28025";"4";"VISTA ALEGRE";"11";"CARABANCHEL";"437463";"4471307";"40.390022670284225";"-3.736823421959365";"";"";"";"/contenido/entidadesYorganismos/TemplosOtrasReligiones"
11772893;"Iglesia Cristiana Paraíso de Adoración";"Templo evangélico.";"";"";"Metro: Puente de Vallecas (línea 1).  Bus: 141, 113, 8.  Bicimad: Estación 424 (Camino de Valderribas, 47)";"";"3";"http://www.madrid.es/sites/v/index.jsp?vgnextchannel=bfa48ab43d6bb410VgnVCM100000171f5a0aRCRD&vgnextoid=035f6e4d59043810VgnVCM1000001d4a900aRCRD";"MONTSENY";"CALLE";"V";"21";"2";"A";"";"";"MADRID";"MADRID";"28038";"6";"NUMANCIA";"13";"PUENTE DE VALLECAS";"443701";"4472472";"40.40095823989181";"-3.663441976265768";"";"";"";"/contenido/entidadesYorganismos/TemplosOtrasReligiones"
11777645;"Iglesia Cristiana Reconcíliate con Dios";"Templo evangélico.";"";"";"Bus:  155.";"";"3";"http://www.madrid.es/sites/v/index.jsp?vgnextchannel=bfa48ab43d6bb410VgnVCM100000171f5a0aRCRD&vgnextoid=07cf832e34353810VgnVCM1000001d4a900aRCRD";"HAYA";"CALLE";"V";"16";"";"";"";"";"MADRID";"MADRID";"28044";"6";"BUENAVISTA";"11";"CARABANCHEL";"436522";"4468605";"40.365608004560805";"-3.7476502733606907";"";"";"";"/contenido/entidadesYorganismos/TemplosOtrasReligiones"
11769773;"Iglesia Cristiana Redimida de Dios";"Templo evangélico.";"";"";"Metro: Colonia Jardín (líneas 10, ML2 Y ML3).  Bus: 65.";"";"3";"http://www.madrid.es/sites/v/index.jsp?vgnextchannel=bfa48ab43d6bb410VgnVCM100000171f5a0aRCRD&vgnextoid=a2be103c47533810VgnVCM2000001f4a900aRCRD";"CLAUDIO SANCHEZ ALBORNOZ";"CALLE";"V";"4";"BAJO";"";"";"";"MADRID";"MADRID";"28024";"5";"CAMPAMENTO";"10";"LATINA";"434501";"4472114";"40.397058274873146";"-3.771807908257487";"";"";"";"/contenido/entidadesYorganismos/TemplosOtrasReligiones"
7063734;"Iglesia Cristiana Reformada";"Templo evangélico.";"";"";"Bus: 146";"";"3";"http://www.madrid.es/sites/v/index.jsp?vgnextchannel=bfa48ab43d6bb410VgnVCM100000171f5a0aRCRD&vgnextoid=dd257b05a8350410VgnVCM2000000c205a0aRCRD";"GENERAL ARANAZ";"CALLE";"V";"49";"";"";"";"";"MADRID";"MADRID";"28027";"4";"LA CONCEPCION";"15";"CIUDAD LINEAL";"445778";"4477208";"40.44376002642644";"-3.6393665537122235";"";"";"";"/contenido/entidadesYorganismos/TemplosOtrasReligiones"
11777765;"Iglesia Cristiana Roca Eterna";"Templo evangélico.";"";"";"Metro: Palos de la Frontera (línea 3), Atocha (línea 1).   Bus:   102, 247, 47, 55, 8, 27, 19, 45, 59, 6, 85, 86.   Cercanías Renfe: Atocha (líneas C1, C2, C3, C4, C4b, C5, C7 y C10).  Bicimad: Estaciones 168 (paseo Santa María de la Cabeza, 29), 120 (calle Palos de la Frontera, 27), 51 (Ronda de Atocha, 2).";"";"3";"http://www.madrid.es/sites/v/index.jsp?vgnextchannel=bfa48ab43d6bb410VgnVCM100000171f5a0aRCRD&vgnextoid=b8e6832e34353810VgnVCM1000001d4a900aRCRD";"DELICIAS";"CALLE";"V";"28";"";"";"";"";"MADRID";"MADRID";"28045";"6";"PALOS DE LA FRONTERA";"2";"ARGANZUELA";"441286";"4472824";"40.40396448534231";"-3.6919234970185357";"";"";"";"/contenido/entidadesYorganismos/TemplosOtrasReligiones"
7065892;"Iglesia Cristiana Santidad de Dios";"Templo evangélico.";"";"";"Metro:  Puerta del Ángel (línea 6).    Bus: 138.    Bicimad: Estación 216 (plaza Puerta del Ángel, 4).";"";"3";"http://www.madrid.es/sites/v/index.jsp?vgnextchannel=bfa48ab43d6bb410VgnVCM100000171f5a0aRCRD&vgnextoid=306150adce160410VgnVCM2000000c205a0aRCRD";"JUAN TORNERO";"CALLE";"V";"28";"";"";"";"";"MADRID";"MADRID";"28011";"2";"PUERTA DEL ANGEL";"10";"LATINA";"438371";"4473719";"40.41181709187266";"-3.726361443652059";"";"";"";"/contenido/entidadesYorganismos/TemplosOtrasReligiones"
12283700;"Iglesia Cristo Salvador Madrid";"Templo evangélico.";"";"";"Metro: Valdezarza (línea 7).";"";"3";"http://www.madrid.es/sites/v/index.jsp?vgnextchannel=bfa48ab43d6bb410VgnVCM100000171f5a0aRCRD&vgnextoid=abb675bef2d8d810VgnVCM1000001d4a900aRCRD";"VALLE DE CACHEMIRA";"CALLE";"V";"28";"BAJA";"";"";"";"MADRID";"MADRID";"28039";"4";"VALDEZARZA";"9";"MONCLOA-ARAVACA";"439515";"4479747";"40.466201838360924";"-3.713456156309851";"";"";"";"/contenido/entidadesYorganismos/TemplosOtrasReligiones"
12283667;"Iglesia Cuadrangular el Divino Maestro";"Templo evangélico.";"";"";"Bus:  6  Bicimad: Estación 387 (Isabelita Usera, 44)";"";"3";"http://www.madrid.es/sites/v/index.jsp?vgnextchannel=bfa48ab43d6bb410VgnVCM100000171f5a0aRCRD&vgnextoid=7d9c4aa015d8d810VgnVCM2000001f4a900aRCRD";"ISABELITA USERA";"CALLE";"V";"47";"";"";"";"";"MADRID";"MADRID";"28026";"7";"PRADOLONGO";"12";"USERA";"439943";"4470417";"40.38218107279785";"-3.7075254151837727";"";"";"";"/contenido/entidadesYorganismos/TemplosOtrasReligiones"
12283632;"Iglesia Cuadrangular Vida Nueva calle Monederos";"Templo evangélico.";"";"";"Metro: Usera (Línea 6)  Bus: 247, 47, 6, 78, 23, 18, 22, 59, 76, 79, 85, 86     Bicimad: Estación 213 (Calle Antonio López, 129)";"";"3";"http://www.madrid.es/sites/v/index.jsp?vgnextchannel=bfa48ab43d6bb410VgnVCM100000171f5a0aRCRD&vgnextoid=6b4463f953d8d810VgnVCM2000001f4a900aRCRD";"MONEDEROS";"CALLE";"V";"22";"";"";"";"";"MADRID";"MADRID";"28026";"5";"MOSCARDO";"12";"USERA";"440451";"4471016";"40.38761201553222";"-3.7015974057409506";"";"";"";"/contenido/entidadesYorganismos/TemplosOtrasReligiones"
11769970;"Iglesia Cuerpo de Cristo";"Templo evangélico.";"";"";"Metro: Oporto (líneas 5 y 6).  Bus: 34, 35, 118, 55.";"";"3";"http://www.madrid.es/sites/v/index.jsp?vgnextchannel=bfa48ab43d6bb410VgnVCM100000171f5a0aRCRD&vgnextoid=98d4e1c8cc533810VgnVCM2000001f4a900aRCRD";"JUAN FRANCISCO";"TRAVESIA";"V";"6";"";"";"";"";"MADRID";"MADRID";"28025";"5";"PUERTA BONITA";"11";"CARABANCHEL";"437861";"4470940";"40.38674603374035";"-3.7321057793446486";"";"";"";"/contenido/entidadesYorganismos/TemplosOtrasReligiones"
11773030;"Iglesia Cuerpo de Cristo General Serrano Orive";"Templo evangélico.";"";"";"Bus: 23";"";"3";"http://www.madrid.es/sites/v/index.jsp?vgnextchannel=bfa48ab43d6bb410VgnVCM100000171f5a0aRCRD&vgnextoid=fd1d3d647d043810VgnVCM1000001d4a900aRCRD";"GENERAL SERRANO ORIVE";"CALLE";"V";"1";"";"";"";"";"MADRID";"MADRID";"28019";"1";"COMILLAS";"11";"CARABANCHEL";"439833";"4471687";"40.393617973026636";"-3.70894464663887";"";"";"";"/contenido/entidadesYorganismos/TemplosOtrasReligiones"
11771778;"Iglesia Cuerpo de Cristo Santoña, 5";"Templo evangélico.";"";"";"Bus: 6, 60, 81";"";"3";"http://www.madrid.es/sites/v/index.jsp?vgnextchannel=bfa48ab43d6bb410VgnVCM100000171f5a0aRCRD&vgnextoid=31155fe4a5b33810VgnVCM2000001f4a900aRCRD";"SANTOÑA";"CALLE";"V";"5";"";"";"";"";"MADRID";"MADRID";"28026";"6";"ZOFIO";"12";"USERA";"439292";"4470382";"40.381824617567325";"-3.715193854889656";"";"";"";"/contenido/entidadesYorganismos/TemplosOtrasReligiones"
7064883;"Iglesia Cuerpo de Cristo, Don Pedro";"Templo evangélico";"";"";"Metro: La Latina (línea 5)  Bus: 60, SE712, 148, 3  Bicimad: Estación 38 (Carrera de San Francisco, 1)";"";"3";"http://www.madrid.es/sites/v/index.jsp?vgnextchannel=bfa48ab43d6bb410VgnVCM100000171f5a0aRCRD&vgnextoid=a8319bd56dc50410VgnVCM2000000c205a0aRCRD";"DON PEDRO";"CALLE";"V";"10";"";"";"";"";"MADRID";"MADRID";"28005";"1";"PALACIO";"1";"CENTRO";"439525";"4473691";"40.411650664950166";"-3.7127590125142076";"";"";"";"/contenido/entidadesYorganismos/TemplosOtrasReligiones"
11431563;"Iglesia Cuerpo de Cristo. Calle Avelino Fernández de la Poza";"Templo evangélico";"";"";"Bus: 24, 102";"";"3";"http://www.madrid.es/sites/v/index.jsp?vgnextchannel=bfa48ab43d6bb410VgnVCM100000171f5a0aRCRD&vgnextoid=53de8000baa7a710VgnVCM1000001d4a900aRCRD";"AVELINO FERNANDEZ DE LA POZA";"CALLE";"V";"4";"";"";"";"";"MADRID";"MADRID";"28053";"1";"ENTREVIAS";"13";"PUENTE DE VALLECAS";"442859";"4470671";"40.38467637366071";"-3.6732010597964244";"";"";"";"/contenido/entidadesYorganismos/TemplosOtrasReligiones"
7064917;"Iglesia de Cristo - Madrid";"Templo evangélico.";"";"";"Metro: Alvarado (línea 1).  Bus: 124, 128, 3, 64, 66, 43.  Bicimad: Estaciones 152 (avenida del General Perón frente al número 4), 205 (calle Navarra, 1).";"";"3";"http://www.madrid.es/sites/v/index.jsp?vgnextchannel=bfa48ab43d6bb410VgnVCM100000171f5a0aRCRD&vgnextoid=4fb3b607bec50410VgnVCM2000000c205a0aRCRD";"TERUEL";"CALLE";"V";"25";"";"";"";"";"MADRID";"MADRID";"28020";"2";"CUATRO CAMINOS";"6";"TETUAN";"440551";"4478101";"40.451446329396504";"-3.7010846337104173";"";"";"";"/contenido/entidadesYorganismos/TemplosOtrasReligiones"
12283706;"Iglesia de Dios Camino al Padre";"Templo evangélico.";"";"";"Bus:  34, 35  Metro: Vista Alegre (línea 5)";"";"3";"http://www.madrid.es/sites/v/index.jsp?vgnextchannel=bfa48ab43d6bb410VgnVCM100000171f5a0aRCRD&vgnextoid=cfe675bef2d8d810VgnVCM1000001d4a900aRCRD";"ALONDRA";"CALLE";"V";"35";"";"";"";"";"MADRID";"MADRID";"28025";"4";"VISTA ALEGRE";"11";"CARABANCHEL";"437369";"4471083";"40.38799626796444";"-3.737909899169063";"";"";"";"/contenido/entidadesYorganismos/TemplosOtrasReligiones"
11772810;"Iglesia de Dios de la Profecía";"Templo evangélico.";"";"";"Metro: Puente de Vallecas (línea 1).  Bus: 113, 141, 8, 10, 111, 136, 24, 310, 54, 57, 58.";"";"3";"http://www.madrid.es/sites/v/index.jsp?vgnextchannel=bfa48ab43d6bb410VgnVCM100000171f5a0aRCRD&vgnextoid=04bb6e4d59043810VgnVCM1000001d4a900aRCRD";"EMILIO ORTUÑO";"CALLE";"V";"19";"";"";"";"";"MADRID";"MADRID";"28038";"6";"NUMANCIA";"13";"PUENTE DE VALLECAS";"443528";"4472209";"40.39858161508181";"-3.6654538265600167";"";"";"";"/contenido/entidadesYorganismos/TemplosOtrasReligiones"
11745337;"Iglesia de Dios Harul";"Templo evangélico.";"";"";"Metro: Oporto (líneas 5 y 6).  Bus: 55.  Bicimad: Estación 359 (calle de El Toboso, 115).";"";"3";"http://www.madrid.es/sites/v/index.jsp?vgnextchannel=bfa48ab43d6bb410VgnVCM100000171f5a0aRCRD&vgnextoid=04865ecb8b782810VgnVCM1000001d4a900aRCRD";"MATILDE HERNANDEZ";"CALLE";"V";"31";"2";"B";"";"local 8";"MADRID";"MADRID";"28019";"3";"SAN ISIDRO";"11";"CARABANCHEL";"437718";"4471376";"40.39066340698624";"-3.733832375459816";"";"";"";"/contenido/entidadesYorganismos/TemplosOtrasReligiones"
11745353;"Iglesia de Dios Pentecostal Movimiento Internacional";"Templo evangélico.";"";"";"Metro: Villaverde alto (línea 3).  Bus: 79.     Cercanías Renfe: Villaverde alto (líneas C4, C4a, C4b, C5)";"";"3";"http://www.madrid.es/sites/v/index.jsp?vgnextchannel=bfa48ab43d6bb410VgnVCM100000171f5a0aRCRD&vgnextoid=37b75ecb8b782810VgnVCM1000001d4a900aRCRD";"GOMEZ ACEBO";"CALLEJON";"V";"14";"";"";"";"";"MADRID";"MADRID";"28021";"1";"VILLAVERDE ALTO C.H.";"17";"VILLAVERDE";"439834";"4466013";"40.34250052860725";"-3.7083992189259987";"";"";"";"/contenido/entidadesYorganismos/TemplosOtrasReligiones"
11771785;"Iglesia de Dios, Verbo de Dios";"Templo evangélico.";"";"";"Metro: Sierra de Guadalupe (línea 1).  Bus: 130, T31.  Cercanáis Renfe: Vallecas (líneas C2, C7 y Regional).";"";"3";"http://www.madrid.es/sites/v/index.jsp?vgnextchannel=bfa48ab43d6bb410VgnVCM100000171f5a0aRCRD&vgnextoid=06065fe4a5b33810VgnVCM2000001f4a900aRCRD";"PUERTO DE POZAZAL";"CALLE";"V";"25";"";"A";"";"";"MADRID";"MADRID";"28031";"1";"CASCO H.VALLECAS";"18";"VILLA DE VALLECAS";"446484";"4470075";"40.3795481034142";"-3.6304491509873005";"";"";"";"/contenido/entidadesYorganismos/TemplosOtrasReligiones"
10573493;"Iglesia de Jesucristo de los Santos de los Últimos Días. Templo de Madrid";"";"";"";"Metro: Pavones (línea 9).  Bus: 32, 20, 8, 30, 71, E4.  Bicimad: Estación 455 (Luis de Hoyos Sainz, 198).";"";"3";"http://www.madrid.es/sites/v/index.jsp?vgnextchannel=bfa48ab43d6bb410VgnVCM100000171f5a0aRCRD&vgnextoid=0625463a16550610VgnVCM1000001d4a900aRCRD";"TEMPLO";"CALLE";"V";"2";"";"";"";"";"MADRID";"MADRID";"28030";"1";"PAVONES";"14";"MORATALAZ";"446441";"4472451";"40.40094880979064";"-3.6311541768043045";"912 142 607";"";"";"/contenido/entidadesYorganismos/TemplosOtrasReligiones"
11771467;"Iglesia de los Discípulos de Cristo";"Templo evangélico.";"";"";"Metro: Avenida de América (líneas 4, 6 y 7).  Bus: 29, 52, 12, 72, 73, C1,   Bicimad: Estaciones 194 (calle Francisco Silvela, 86), 143 (calle Diego de León, 52).";"";"3";"http://www.madrid.es/sites/v/index.jsp?vgnextchannel=bfa48ab43d6bb410VgnVCM100000171f5a0aRCRD&vgnextoid=e671efa872b33810VgnVCM1000001d4a900aRCRD";"PRINCIPE DE VERGARA";"CALLE";"V";"92";"";"";"";"";"MADRID";"MADRID";"28006";"5";"LISTA";"4";"SALAMANCA";"442411";"4476448";"40.43669014117753";"-3.679001107245413";"";"";"";"/contenido/entidadesYorganismos/TemplosOtrasReligiones"
11745346;"Iglesia de Santidad Pentecostal";"Templo evangélico.";"";"";"Metro: La Elipa (línea 2).  Bus: 106, 113, 28.";"";"3";"http://www.madrid.es/sites/v/index.jsp?vgnextchannel=bfa48ab43d6bb410VgnVCM100000171f5a0aRCRD&vgnextoid=dc175ecb8b782810VgnVCM1000001d4a900aRCRD";"SERVANDO BATANERO";"CALLE";"V";"8";"";"";"";"Local";"MADRID";"MADRID";"28017";"1";"VENTAS";"15";"CIUDAD LINEAL";"444840";"4475599";"40.42920679348206";"-3.6502931839980235";"";"";"";"/contenido/entidadesYorganismos/TemplosOtrasReligiones"
11772557;"Iglesia de Santidad Pentecostal Tomás Redondo 1";"Templo evangélico.";"";"";"Bus:  T11.";"";"3";"http://www.madrid.es/sites/v/index.jsp?vgnextchannel=bfa48ab43d6bb410VgnVCM100000171f5a0aRCRD&vgnextoid=8884fec79ff33810VgnVCM1000001d4a900aRCRD";"TOMAS REDONDO";"CALLE";"V";"1";"4";"";"";"Local 2";"MADRID";"MADRID";"28033";"6";"VALDEFUENTES";"16";"HORTALEZA";"446516";"4480450";"40.47301639392714";"-3.6309383890620284";"";"";"";"/contenido/entidadesYorganismos/TemplosOtrasReligiones"
147971;"Iglesia de Scientology de España";"";"";"";"Metro: Sevilla (línea 2), Sol (línea 1, 2, 3).  Bus: 002, 51, M1, 53.   Cercanías Renfe: Sol (líneas C3, C3a y C4).   Bicimad: Estaciones 29 (calle Marqués de Cubas, 25), 28 (calle Alcalá, 27), 52 (plaza de Santa Ana, 10), 27 (calle Jesús, 1).  Aparcamiento: Cortes (46 y 104), Plaza de las Cortes.";"";"3";"http://www.madrid.es/sites/v/index.jsp?vgnextchannel=bfa48ab43d6bb410VgnVCM100000171f5a0aRCRD&vgnextoid=0606ac2e6481c010VgnVCM1000000b205a0aRCRD";"SANTA CATALINA";"CALLE";"V";"7";"";"";"";"";"MADRID";"MADRID";"28014";"3";"CORTES";"1";"CENTRO";"440802";"4474103";"40.41545025955645";"-3.6977486316222152";"912 092 170";"";"";"/contenido/entidadesYorganismos/TemplosOtrasReligiones"
11773049;"Iglesia de Una Esperanza";"Templo evangélico.";"";"";"Metro: Hospital 12 de Octubre (línea 3).  Bus: 123, 23, 78.";"";"3";"http://www.madrid.es/sites/v/index.jsp?vgnextchannel=bfa48ab43d6bb410VgnVCM100000171f5a0aRCRD&vgnextoid=8fde3d647d043810VgnVCM1000001d4a900aRCRD";"PERALES";"CAMINO";"V";"110";"";"";"";"";"MADRID";"MADRID";"28041";"3";"SAN FERMIN";"12";"USERA";"441500";"4469395";"40.373089513635435";"-3.689088695621236";"";"";"";"/contenido/entidadesYorganismos/TemplosOtrasReligiones"
11770060;"Iglesia del Evangelio Cuadrangular";"Templo evangélico.";"";"";"Bus: 6  Bicimad: 387 (Isabelita Usera, 44)";"";"3";"http://www.madrid.es/sites/v/index.jsp?vgnextchannel=bfa48ab43d6bb410VgnVCM100000171f5a0aRCRD&vgnextoid=9c81ab8023633810VgnVCM2000001f4a900aRCRD";"ISABELITA USERA";"CALLE";"V";"47";"";"";"";"";"MADRID";"MADRID";"28026";"7";"PRADOLONGO";"12";"USERA";"439943";"4470417";"40.38218107279785";"-3.7075254151837727";"";"";"";"/contenido/entidadesYorganismos/TemplosOtrasReligiones"
11773006;"Iglesia del Gran Despertar (Great Awakening Church)";"Templo evangélico.";"";"";"Metro: Tetuán (línea 1).  Bus: 124, 66.";"";"3";"http://www.madrid.es/sites/v/index.jsp?vgnextchannel=bfa48ab43d6bb410VgnVCM100000171f5a0aRCRD&vgnextoid=8b1b3d647d043810VgnVCM1000001d4a900aRCRD";"MARIA ZAYAS";"CALLE";"V";"15";"Baja";"";"";"";"MADRID";"MADRID";"28039";"6";"BERRUGUETE";"6";"TETUAN";"440518";"4479000";"40.45954045233268";"-3.701559520848318";"";"";"";"/contenido/entidadesYorganismos/TemplosOtrasReligiones"
11431015;"Iglesia del Rey Jesucristo";"Templo evangélico.";"";"";"Metro: Alto de Extremadura (línea 6).  Bus: 31, 33, 36, 39, 65.";"";"3";"http://www.madrid.es/sites/v/index.jsp?vgnextchannel=bfa48ab43d6bb410VgnVCM100000171f5a0aRCRD&vgnextoid=f086eafcd367a710VgnVCM1000001d4a900aRCRD";"GRANDEZA ESPA&amp;Ntilde;OLA";"CALLE";"V";"49";"";"";"";"Uno bis";"MADRID";"MADRID";"28011";"2";"PUERTA DEL ANGEL";"10";"LATINA";"437772";"4473629";"40.4109568893467";"-3.733414326558791";"";"";"";"/contenido/entidadesYorganismos/TemplosOtrasReligiones"
11770209;"Iglesia Dios es Amor Unión Cristiana Evangélica";"Templo evangélico.";"";"";"Metro: Almendrales (línea 3)  Bus: 247, 47  Cercanías Renfe: Doce de Octubre (línea C5)";"";"3";"http://www.madrid.es/sites/v/index.jsp?vgnextchannel=bfa48ab43d6bb410VgnVCM100000171f5a0aRCRD&vgnextoid=713752deb5633810VgnVCM2000001f4a900aRCRD";"SAN FROILAN";"CALLE";"V";"9";"";"";"";"y 11 - Local";"MADRID";"MADRID";"28026";"4";"ALMENDRALES";"12";"USERA";"440579";"4470254";"40.38076277245949";"-3.7000199485367538";"";"";"";"/contenido/entidadesYorganismos/TemplosOtrasReligiones"
18306;"Iglesia Ejército de Salvación Hermosilla";"Templo evangélico.";"";"";"Metro: Manuel Becerra (líneas, 2 y 6), O'Donnell (línea 6).  Bus: 143, 156, 2, 56, 71, C2, C1, 12";"";"3";"http://www.madrid.es/sites/v/index.jsp?vgnextchannel=bfa48ab43d6bb410VgnVCM100000171f5a0aRCRD&vgnextoid=8d9f6f065851c010VgnVCM2000000c205a0aRCRD";"HERMOSILLA";"CALLE";"V";"126";"";"";"";"";"MADRID";"MADRID";"28028";"3";"FUENTE DEL BERRO";"4";"SALAMANCA";"443347";"4475195";"40.4254631855093";"-3.6678489815151663";"";"";"";"/contenido/entidadesYorganismos/TemplosOtrasReligiones"
11026824;"Iglesia Ejército de Salvación Palomeras";"Templo evangélico.";"";"";"Metro: Miguel Hernández (línea 1).  Bus: 144, 54, 103, 143, 143, 58.";"";"3";"http://www.madrid.es/sites/v/index.jsp?vgnextchannel=bfa48ab43d6bb410VgnVCM100000171f5a0aRCRD&vgnextoid=68449283b726d610VgnVCM2000001f4a900aRCRD";"RAFAEL ALBERTI";"AVENIDA";"V";"18";"";"";"";"bis";"MADRID";"MADRID";"28038";"4";"PALOMERAS SURESTE";"13";"PUENTE DE VALLECAS";"445663";"4471069";"40.388453004338494";"-3.6402017057531606";"";"";"";"/contenido/entidadesYorganismos/TemplosOtrasReligiones"
11770164;"Iglesia Emanuel. Unión Cristiana Evangélica (U.C.E.)";"Templo evangélico.";"";"";"Metro: Pan Bendito (línea 11).  Bus: 47, 108, 118.";"";"3";"http://www.madrid.es/sites/v/index.jsp?vgnextchannel=bfa48ab43d6bb410VgnVCM100000171f5a0aRCRD&vgnextoid=b9e252deb5633810VgnVCM2000001f4a900aRCRD";"ANOCIBAR";"PLAZA";"V";"2";"2";"F";"";"";"MADRID";"MADRID";"28025";"5";"PUERTA BONITA";"11";"CARABANCHEL";"437473";"4469868";"40.37705519250898";"-3.7365663398250044";"";"";"";"/contenido/entidadesYorganismos/TemplosOtrasReligiones"
7065841;"Iglesia Evangélica Alianza de Amor";"Templo evangélico";"";"";"Bus: 116";"";"3";"http://www.madrid.es/sites/v/index.jsp?vgnextchannel=bfa48ab43d6bb410VgnVCM100000171f5a0aRCRD&vgnextoid=3f915ac33d160410VgnVCM2000000c205a0aRCRD";"ANTONIO GONZALEZ PORRAS";"CALLE";"V";"25";"";"";"";"";"MADRID";"MADRID";"28019";"2";"OPAÑEL";"11";"CARABANCHEL";"439074";"4471366";"40.3906699322105";"-3.7178522152667624";"";"";"";"/contenido/entidadesYorganismos/TemplosOtrasReligiones"
11777784;"Iglesia Evangélica Arca de Salvación";"Templo evangélico.";"";"";"Metro: Delicias (línea 3), Legazpi (líneas 3 y 6).   Bus:   148, 6, 78, 62.   Cercanías Renfe: Delicias (líneas C1, C10 y Regional).  Bicimad: 175 (calle Jaime el Conquistador, 30).";"";"3";"http://www.madrid.es/sites/v/index.jsp?vgnextchannel=bfa48ab43d6bb410VgnVCM100000171f5a0aRCRD&vgnextoid=72e8490e2c453810VgnVCM1000001d4a900aRCRD";"EUGENIO SELLES";"CALLE";"V";"1";"";"";"";"";"MADRID";"MADRID";"28045";"3";"CHOPERA";"2";"ARGANZUELA";"440711";"4471923";"40.39580823279452";"-3.698617401031242";"";"";"";"/contenido/entidadesYorganismos/TemplosOtrasReligiones"
12281349;"Iglesia Evangélica Arca de Salvación la Senda Anti";"Templo evangélico.";"";"";"Bus:  148, 6, 78, 62  Bicimad: Estación 175 (calle Jaime el Conquistador, 30)";"";"3";"http://www.madrid.es/sites/v/index.jsp?vgnextchannel=bfa48ab43d6bb410VgnVCM100000171f5a0aRCRD&vgnextoid=1766f4530c78d810VgnVCM2000001f4a900aRCRD";"EUGENIO SELLES";"CALLE";"V";"1";"";"";"";"";"MADRID";"MADRID";"28045";"3";"CHOPERA";"2";"ARGANZUELA";"440711";"4471923";"40.39580823279452";"-3.698617401031242";"";"";"";"/contenido/entidadesYorganismos/TemplosOtrasReligiones"
7065383;"Iglesia Evangélica Asociación Evangelización Mundial para Cristo";"Templo evangélico";"";"";"Bus: 167, 48, 4  Metro: San Blas (línea 7)";"";"3";"http://www.madrid.es/sites/v/index.jsp?vgnextchannel=bfa48ab43d6bb410VgnVCM100000171f5a0aRCRD&vgnextoid=2b96691af6d50410VgnVCM2000000c205a0aRCRD";"CANILLEJAS A VICALVARO";"AVENIDA";"V";"131";"Baja";"";"";"";"MADRID";"MADRID";"28022";"5";"ROSAS";"20";"SAN BLAS-CANILLEJAS";"448207";"4475321";"40.426919386996715";"-3.6105786335561914";"";"";"";"/contenido/entidadesYorganismos/TemplosOtrasReligiones"
11026948;"Iglesia Evangélica Avivamiento Emmanuel España";"Templo evangélico";"";"";"Metro: Oporto (línea 5 y 6).  Bus: 247.";"";"3";"http://www.madrid.es/sites/v/index.jsp?vgnextchannel=bfa48ab43d6bb410VgnVCM100000171f5a0aRCRD&vgnextoid=5e4b8afbee26d610VgnVCM2000001f4a900aRCRD";"ALVAREZ ABELLAN";"CALLE";"V";"17";"";"";"";"";"MADRID";"MADRID";"28025";"5";"PUERTA BONITA";"11";"CARABANCHEL";"437842";"4470768";"40.38519101985389";"-3.7323123187363367";"";"";"";"/contenido/entidadesYorganismos/TemplosOtrasReligiones"
7063848;"Iglesia Evangélica Bautista Barrio del Pilar";"Templo evangélico.";"";"";"Metro: Barrio del Pilar (línea 9).  Bus: 134, 137, 128, 132, 49, 83, 147.";"";"3";"http://www.madrid.es/sites/v/index.jsp?vgnextchannel=bfa48ab43d6bb410VgnVCM100000171f5a0aRCRD&vgnextoid=d7521ea949750410VgnVCM2000000c205a0aRCRD";"GINZO DE LIMIA";"CALLE";"V";"44";"";"";"";"";"MADRID";"MADRID";"28029";"5";"LA PAZ";"8";"FUENCARRAL-EL PARDO";"440400";"4481110";"40.47854647762778";"-3.7031462815424594";"";"";"";"/contenido/entidadesYorganismos/TemplosOtrasReligiones"
3385;"Iglesia Evangélica Bautista El Buen Pastor";"Templo evangélico";"";"";"Metro: Prosperidad (línea 4)  Bus: 9, 73";"";"3";"http://www.madrid.es/sites/v/index.jsp?vgnextchannel=bfa48ab43d6bb410VgnVCM100000171f5a0aRCRD&vgnextoid=27ff13db5b71c010VgnVCM1000000b205a0aRCRD";"GETAFE";"PLAZA";"V";"1";"";"";"";"";"MADRID";"MADRID";"28002";"2";"PROSPERIDAD";"5";"CHAMARTIN";"442995";"4477283";"40.444250240065735";"-3.6721867739655734";"";"";"";"/contenido/entidadesYorganismos/TemplosOtrasReligiones"
11772926;"Iglesia Evangélica Bautista Madrid - Vallecas";"Templo evangélico.";"";"";"Metro: Nueva Numancia (línea 1).  Bus: 136, 54, 57, 58.";"";"3";"http://www.madrid.es/sites/v/index.jsp?vgnextchannel=bfa48ab43d6bb410VgnVCM100000171f5a0aRCRD&vgnextoid=73b16e4d59043810VgnVCM1000001d4a900aRCRD";"SAN VIRGILIO";"CALLE";"V";"2";"";"";"";"y 4";"MADRID";"MADRID";"28038";"6";"NUMANCIA";"13";"PUENTE DE VALLECAS";"443718";"4471892";"40.39573062189441";"-3.6631919963225954";"";"";"";"/contenido/entidadesYorganismos/TemplosOtrasReligiones"
11770160;"Iglesia Evangélica Bautista Madrid-Usera";"Templo evangélico.";"";"";"Metro: Usera (línea 6).  Bus: 247, 47.  Bicimad: Estaciones 393 (Manuel Noya, 29), 387 (calle Isabelita Usera, 44).";"";"3";"http://www.madrid.es/sites/v/index.jsp?vgnextchannel=bfa48ab43d6bb410VgnVCM100000171f5a0aRCRD&vgnextoid=f08052deb5633810VgnVCM2000001f4a900aRCRD";"MADRIDEJOS";"CALLE";"V";"41";"";"";"";"";"MADRID";"MADRID";"28026";"7";"PRADOLONGO";"12";"USERA";"439749";"4470675";"40.384490607528356";"-3.709839281335438";"";"";"";"/contenido/entidadesYorganismos/TemplosOtrasReligiones"
11768893;"Iglesia Evangélica Bautista Villaverde";"Templo evangélico.";"";"";"Metro: Villaverde Bajo-Cruce (línea 3).  Bus: 123, 85.  Cercanías Renfe: Villaverde Bajo (líneas C3, C4 y C4b).";"";"3";"http://www.madrid.es/sites/v/index.jsp?vgnextchannel=bfa48ab43d6bb410VgnVCM100000171f5a0aRCRD&vgnextoid=d5d28f0261133810VgnVCM1000001d4a900aRCRD";"VILLAPALACIOS";"CALLE";"V";"28";"";"";"";"";"MADRID";"MADRID";"28021";"4";"LOS ROSALES";"17";"VILLAVERDE";"441476";"4466987";"40.3513909320076";"-3.689149100235942";"";"";"";"/contenido/entidadesYorganismos/TemplosOtrasReligiones"
11769744;"Iglesia Evangélica Bíblica Misionera";"Templo evangélico.";"";"";"Metro: Torre Arias (línea 5).  Bus: 105, 153.";"";"3";"http://www.madrid.es/sites/v/index.jsp?vgnextchannel=bfa48ab43d6bb410VgnVCM100000171f5a0aRCRD&vgnextoid=16bd103c47533810VgnVCM2000001f4a900aRCRD";"TALIA";"CALLE";"V";"26";"";"";"";"";"MADRID";"MADRID";"28022";"7";"CANILLEJAS";"20";"SAN BLAS-CANILLEJAS";"447803";"4477583";"40.44727187781195";"-3.6155234566793832";"";"";"";"/contenido/entidadesYorganismos/TemplosOtrasReligiones"
11027019;"Iglesia Evangélica Casa de la Misericordia";"Templo evangélico";"";"";"Metro: Oporto (líneas 5 y 6)  Bus: 55";"";"3";"http://www.madrid.es/sites/v/index.jsp?vgnextchannel=bfa48ab43d6bb410VgnVCM100000171f5a0aRCRD&vgnextoid=c191b97c8136d610VgnVCM2000001f4a900aRCRD";"SANTIAGO ESTEVEZ";"CALLE";"V";"29";"BAJO";"IZQUIERDA";"";"";"MADRID";"MADRID";"28019";"3";"SAN ISIDRO";"11";"CARABANCHEL";"437687";"4471420";"40.39105388398816";"-3.734197628694965";"";"";"";"/contenido/entidadesYorganismos/TemplosOtrasReligiones"
7065547;"Iglesia Evangélica Casa de Oración";"Templo evangélico";"";"";"Bus: 24, 57, 144  Renfe: Asamblea de Madrid - Entrevías";"";"3";"http://www.madrid.es/sites/v/index.jsp?vgnextchannel=bfa48ab43d6bb410VgnVCM100000171f5a0aRCRD&vgnextoid=75ab8fd21ad50410VgnVCM2000000c205a0aRCRD";"FELIPE DE DIEGO";"CALLE";"V";"3";"";"";"";"POSTERIOR";"MADRID";"MADRID";"28018";"3";"PALOMERAS BAJAS";"13";"PUENTE DE VALLECAS";"443719";"4470088";"40.37948258009744";"-3.6630104948262883";"";"";"";"/contenido/entidadesYorganismos/TemplosOtrasReligiones"
12281666;"Iglesia Evangélica Casa Fuerte";"Templo evangélico.";"";"";"Bus:  55  Metro: Oporto (líneas 5 y 6)";"";"3";"http://www.madrid.es/sites/v/index.jsp?vgnextchannel=bfa48ab43d6bb410VgnVCM100000171f5a0aRCRD&vgnextoid=69d1491c5688d810VgnVCM1000001d4a900aRCRD";"NICOLAS MORALES";"CALLE";"V";"47";"";"";"";"";"MADRID";"MADRID";"28019";"3";"SAN ISIDRO";"11";"CARABANCHEL";"437764";"4471391";"40.390798444391216";"-3.733294088738014";"";"";"";"/contenido/entidadesYorganismos/TemplosOtrasReligiones"
11772795;"Iglesia Evangélica Celebración Cristiana";"Templo evangélico.";"";"";"Metro: Alvarado (línea 1).  Bus: 44.";"";"3";"http://www.madrid.es/sites/v/index.jsp?vgnextchannel=bfa48ab43d6bb410VgnVCM100000171f5a0aRCRD&vgnextoid=1caa6e4d59043810VgnVCM1000001d4a900aRCRD";"ALMANSA";"CALLE";"V";"38";"";"";"";"Local";"MADRID";"MADRID";"28039";"1";"BELLAS VISTAS";"6";"TETUAN";"440111";"4477814";"40.44883033723469";"-3.706243344267466";"";"";"";"/contenido/entidadesYorganismos/TemplosOtrasReligiones"
11772727;"Iglesia Evangélica Celebración Cristiana San Sotero 5";"Templo evangélico.";"";"";"Metro: Suanzes (línea 5).  Bus: 105.";"";"3";"http://www.madrid.es/sites/v/index.jsp?vgnextchannel=bfa48ab43d6bb410VgnVCM100000171f5a0aRCRD&vgnextoid=52766cd533043810VgnVCM1000001d4a900aRCRD";"SAN SOTERO";"CALLE";"V";"5";"";"";"";"";"MADRID";"MADRID";"28037";"1";"SIMANCAS";"20";"SAN BLAS-CANILLEJAS";"447177";"4476499";"40.437464332261335";"-3.6228155135673554";"";"";"";"/contenido/entidadesYorganismos/TemplosOtrasReligiones"
11744852;"Iglesia Evangélica Centro de Misiones Kairos";"Templo evangélico.";"";"";"Metro: Oporto (líneas 5 y 6).  Bus: 108, 81, 34, 35";"";"3";"http://www.madrid.es/sites/v/index.jsp?vgnextchannel=bfa48ab43d6bb410VgnVCM100000171f5a0aRCRD&vgnextoid=45fb509625282810VgnVCM1000001d4a900aRCRD";"CASTRO DE ORO";"CALLE";"V";"7";"";"";"";"";"MADRID";"MADRID";"28019";"2";"OPAÑEL";"11";"CARABANCHEL";"438091";"4471209";"40.38918327681501";"-3.7294229863667314";"";"";"";"/contenido/entidadesYorganismos/TemplosOtrasReligiones"
7065574;"Iglesia Evangélica China Española";"Templo evangélico.";"";"";"Metro: Alvarado (línea 1).  Bus: 124, 128, 3, 64, 66.";"";"3";"http://www.madrid.es/sites/v/index.jsp?vgnextchannel=bfa48ab43d6bb410VgnVCM100000171f5a0aRCRD&vgnextoid=5ff28fd21ad50410VgnVCM2000000c205a0aRCRD";"CAROLINAS";"CALLE";"V";"10";"";"";"";"";"MADRID";"MADRID";"28039";"1";"BELLAS VISTAS";"6";"TETUAN";"440229";"4478081";"40.4512456642724";"-3.704882718952069";"";"";"";"/contenido/entidadesYorganismos/TemplosOtrasReligiones"
12283870;"Iglesia Evangélica China Madrid Sur";"Templo evangélico.";"";"";"Bus:  54, 57, 58, 136  Metro: Nueva Numancia (línea 1)  Bicimad: Estación 431 (Puerto del Canfranc, 18)";"";"3";"http://www.madrid.es/sites/v/index.jsp?vgnextchannel=bfa48ab43d6bb410VgnVCM100000171f5a0aRCRD&vgnextoid=8125f14e28d8d810VgnVCM1000001d4a900aRCRD";"ALGUACIL";"CALLEJON";"V";"8";"";"";"";"";"MADRID";"MADRID";"28038";"6";"NUMANCIA";"13";"PUENTE DE VALLECAS";"443731";"4471927";"40.396051231721266";"-3.6630390125010006";"";"";"";"/contenido/entidadesYorganismos/TemplosOtrasReligiones"
11772699;"Iglesia Evangélica Comunidad de Fe";"Templo evangélico.";"";"";"Metro: Plaza de Castilla (líneas 1, 9 y 10).  Bus: 5, 66, 107, 129, 174, 70, T62, 124, 147, 176, 175, 178, 177, 134, 67, 135.  Bicimad: Estaciones 208 (paseo de la Castellana, 216), 209 (paseo Castellana (Fundación Canal)).";"";"3";"http://www.madrid.es/sites/v/index.jsp?vgnextchannel=bfa48ab43d6bb410VgnVCM100000171f5a0aRCRD&vgnextoid=cf256cd533043810VgnVCM1000001d4a900aRCRD";"ENRIQUE LARRETA";"CALLE";"V";"9";"BAJO";"";"";"";"MADRID";"MADRID";"28036";"6";"CASTILLA";"5";"CHAMARTIN";"441788";"4479890";"40.467647940628325";"-3.6866551216026346";"";"";"";"/contenido/entidadesYorganismos/TemplosOtrasReligiones"
11745332;"Iglesia Evangélica Comunidad de la Paz";"Templo evangélico.";"";"";"Metro: Oporto (líneas 5 y 6)  Bus: 55";"";"3";"http://www.madrid.es/sites/v/index.jsp?vgnextchannel=bfa48ab43d6bb410VgnVCM100000171f5a0aRCRD&vgnextoid=31455ecb8b782810VgnVCM1000001d4a900aRCRD";"MATILDE HERNANDEZ";"CALLE";"V";"31";"BAJO";"B";"";"";"MADRID";"MADRID";"28019";"3";"SAN ISIDRO";"11";"CARABANCHEL";"437718";"4471376";"40.39066340698624";"-3.733832375459816";"";"";"";"/contenido/entidadesYorganismos/TemplosOtrasReligiones"
7063679;"Iglesia Evangélica Cristo Vive";"Templo evangélico.";"";"";"Metro: Pinar del Rey (línea 8).  Bus: 87, 72, 9.  Bicimad: Estación 524 (glorieta Luis Rosales sin número).";"";"3";"http://www.madrid.es/sites/v/index.jsp?vgnextchannel=bfa48ab43d6bb410VgnVCM100000171f5a0aRCRD&vgnextoid=2224216f16350410VgnVCM2000000c205a0aRCRD";"GRAN VIA DE HORTALEZA";"AVENIDA";"V";"30";"";"";"";"";"MADRID";"MADRID";"28043";"3";"CANILLAS";"16";"HORTALEZA";"444577";"4479753";"40.46660577055004";"-3.6537495353492995";"";"";"";"/contenido/entidadesYorganismos/TemplosOtrasReligiones"
11025954;"Iglesia Evangélica de Habla Inglesa en Madrid";"Templo evangélico.";"";"";"Metro: Vicente Aleixandre (línea 6).   Bus: C1, C2.";"";"3";"http://www.madrid.es/sites/v/index.jsp?vgnextchannel=bfa48ab43d6bb410VgnVCM100000171f5a0aRCRD&vgnextoid=3ab50d28e4e5d610VgnVCM2000001f4a900aRCRD";"VIÑA";"CALLE";"V";"3";"";"";"";"";"MADRID";"MADRID";"28003";"6";"VALLEHERMOSO";"7";"CHAMBERI";"439057";"4477288";"40.444012178441184";"-3.7186194926544465";"";"";"";"/contenido/entidadesYorganismos/TemplosOtrasReligiones"
11773020;"Iglesia Evangélica de Hermanos Camino de Vida";"Templo evangélico.";"";"";"Metro: Valdezarza (línea 7), Francos Rodríguez (línea 7).  Bus: 128, 44.";"";"3";"http://www.madrid.es/sites/v/index.jsp?vgnextchannel=bfa48ab43d6bb410VgnVCM100000171f5a0aRCRD&vgnextoid=ce7c3d647d043810VgnVCM1000001d4a900aRCRD";"OFELIA NIETO";"CALLE";"V";"57";"";"";"";"";"MADRID";"MADRID";"28039";"4";"VALDEZARZA";"9";"MONCLOA-ARAVACA";"439834";"4479232";"40.461586004949886";"-3.709651032535349";"";"";"";"/contenido/entidadesYorganismos/TemplosOtrasReligiones"
7065594;"Iglesia Evangélica de Hermanos El Shaddai";"Templo evangélico.";"";"";"Metro: Francos Rodríguez (línea 7).  Bus: 127, 44.";"";"3";"http://www.madrid.es/sites/v/index.jsp?vgnextchannel=bfa48ab43d6bb410VgnVCM100000171f5a0aRCRD&vgnextoid=352afe5dfad50410VgnVCM2000000c205a0aRCRD";"MARIA PEDRAZA";"CALLE";"V";"11";"";"";"";"";"MADRID";"MADRID";"28039";"1";"BELLAS VISTAS";"6";"TETUAN";"439849";"4478318";"40.453348645022764";"-3.7093869921748412";"";"";"";"/contenido/entidadesYorganismos/TemplosOtrasReligiones"
11028295;"Iglesia Evangélica de Hermanos en Aluche - Madrid";"Templo evangélico";"";"";"Metro: Empalme (línea 5)  Bus: 131, 36, H";"";"3";"http://www.madrid.es/sites/v/index.jsp?vgnextchannel=bfa48ab43d6bb410VgnVCM100000171f5a0aRCRD&vgnextoid=a02643cf28c6d610VgnVCM1000001d4a900aRCRD";"TEMBLEQUE";"CALLE";"V";"140";"";"";"";"";"MADRID";"MADRID";"28024";"4";"ALUCHE";"10";"LATINA";"434986";"4471537";"40.39189873720004";"-3.7660307873771934";"";"";"";"/contenido/entidadesYorganismos/TemplosOtrasReligiones"
11769877;"Iglesia Evangélica de Hermanos en Carabanchel";"Templo evangélico.";"";"";"Metro: Vista Alegre (línea 5).  Bicimad: Estación 376 (calle del Pinzón, 1A).";"";"3";"http://www.madrid.es/sites/v/index.jsp?vgnextchannel=bfa48ab43d6bb410VgnVCM100000171f5a0aRCRD&vgnextoid=fa59e1c8cc533810VgnVCM2000001f4a900aRCRD";"PINZON";"CALLE";"V";"16";"";"";"";"";"MADRID";"MADRID";"28025";"4";"VISTA ALEGRE";"11";"CARABANCHEL";"437179";"4471282";"40.38977130974361";"-3.740167780086258";"";"";"";"/contenido/entidadesYorganismos/TemplosOtrasReligiones"
11431772;"Iglesia Evangélica de Hermanos en Madrid calle Trafalgar";"Templo evangélico.";"";"";"Metro: Iglesia (línea 1), Quevedo (línea 2).  Bus: 3, 16, 61, 149.  Bicimad: Estación 126 (calle del General Álvarez de Castro, 1).";"";"3";"http://www.madrid.es/sites/v/index.jsp?vgnextchannel=bfa48ab43d6bb410VgnVCM100000171f5a0aRCRD&vgnextoid=ed53eadaeea7a710VgnVCM1000001d4a900aRCRD";"TRAFALGAR";"CALLE";"V";"32";"BAJA A";"";"";"";"MADRID";"MADRID";"28010";"3";"TRAFALGAR";"7";"CHAMBERI";"440522";"4476132";"40.43371124396547";"-3.701241599331296";"";"";"";"/contenido/entidadesYorganismos/TemplosOtrasReligiones"
11431776;"Iglesia Evangélica de Hermanos en Madrid. Calle Duque de Sesto";"Templo evangélico.";"";"";"Metro: Príncipe de Vergara (líneas 2 y 9), Goya (líneas 2 y 4).  Bus:  146, 15, 152, 2, 28, 43, 29, 52.  Bicimad: Estaciones 97 (avenida de Menéndez Pelayo, 3), 85 (avenida de Menéndez Pelayo, 9), 98 (plaza de Felipe II), 98 (plaza de Felipe II), 61 (calle O'Donell, 28).";"";"3";"http://www.madrid.es/sites/v/index.jsp?vgnextchannel=bfa48ab43d6bb410VgnVCM100000171f5a0aRCRD&vgnextoid=3104eadaeea7a710VgnVCM1000001d4a900aRCRD";"DUQUE DE SESTO";"CALLE";"V";"6";"";"";"";"";"MADRID";"MADRID";"28009";"2";"GOYA";"4";"SALAMANCA";"442459";"4474875";"40.422519073596874";"-3.6782871144773264";"";"";"";"/contenido/entidadesYorganismos/TemplosOtrasReligiones"
11768913;"Iglesia Evangélica de la Resurrección I.E.E. Butrón 20";"Templo evangélico.";"";"";"Metro: Las Rosas (línea 2), Avenida de Guadalajara (línea 2).  Bus: 153, 38, 4, 140.";"";"3";"http://www.madrid.es/sites/v/index.jsp?vgnextchannel=bfa48ab43d6bb410VgnVCM100000171f5a0aRCRD&vgnextoid=a0258f0261133810VgnVCM1000001d4a900aRCRD";"BUTRON";"CALLE";"V";"20";"";"";"";"";"MADRID";"MADRID";"28022";"5";"ROSAS";"20";"SAN BLAS-CANILLEJAS";"448377";"4475092";"40.42486808943805";"-3.6085501605352426";"";"";"";"/contenido/entidadesYorganismos/TemplosOtrasReligiones"
7065598;"Iglesia Evangélica del Nazareno";"Templo evangélico.";"";"";"Metro: Abrantes (línea 11), Opañel (línea 6).  Bus: 247, 118.";"";"3";"http://www.madrid.es/sites/v/index.jsp?vgnextchannel=bfa48ab43d6bb410VgnVCM100000171f5a0aRCRD&vgnextoid=ef5dfe5dfad50410VgnVCM2000000c205a0aRCRD";"PELICANO";"CALLE";"V";"26";"";"";"";"";"MADRID";"MADRID";"28025";"7";"ABRANTES";"11";"CARABANCHEL";"438184";"4470600";"40.38370140121481";"-3.7282699674878703";"";"";"";"/contenido/entidadesYorganismos/TemplosOtrasReligiones"
11769005;"Iglesia Evangélica El Hogar Cristiano";"Templo evangélico.";"";"";"Metro: Las Rosas (línea 2), Estadio Metropolitano (línea 7).  Bus: 38.";"";"3";"http://www.madrid.es/sites/v/index.jsp?vgnextchannel=bfa48ab43d6bb410VgnVCM100000171f5a0aRCRD&vgnextoid=8632914953133810VgnVCM2000001f4a900aRCRD";"ESTOCOLMO";"CALLE";"V";"43";"2";"B";"";"";"MADRID";"MADRID";"28022";"5";"ROSAS";"20";"SAN BLAS-CANILLEJAS";"449079";"4475455";"40.42817382661681";"-3.600304793330195";"";"";"";"/contenido/entidadesYorganismos/TemplosOtrasReligiones"
11771496;"Iglesia Evangélica Emanuel Asambleas de Dios Javier de Miguel";"Templo evangélico.";"";"";"Bus: 310, 136";"";"3";"http://www.madrid.es/sites/v/index.jsp?vgnextchannel=bfa48ab43d6bb410VgnVCM100000171f5a0aRCRD&vgnextoid=8263efa872b33810VgnVCM1000001d4a900aRCRD";"JAVIER DE MIGUEL";"CALLE";"V";"117";"";"";"";"";"MADRID";"MADRID";"28018";"3";"PALOMERAS BAJAS";"13";"PUENTE DE VALLECAS";"444350";"4470700";"40.3850404361087";"-3.6556390256259577";"";"";"";"/contenido/entidadesYorganismos/TemplosOtrasReligiones"
11028306;"Iglesia Evangélica Emaús";"Templo evangélico";"";"";"Bus: 77, 167";"";"3";"http://www.madrid.es/sites/v/index.jsp?vgnextchannel=bfa48ab43d6bb410VgnVCM100000171f5a0aRCRD&vgnextoid=1de643cf28c6d610VgnVCM1000001d4a900aRCRD";"AGUAVIVA";"CALLE";"V";"6";"";"";"";"";"MADRID";"MADRID";"28022";"6";"REJAS";"20";"SAN BLAS-CANILLEJAS";"451951";"4477716";"40.4487149362724";"-3.5666134456579752";"";"";"";"/contenido/entidadesYorganismos/TemplosOtrasReligiones"
7063733;"Iglesia Evangélica Encuentro con Dios";"Templo evangélico";"";"";"Metro: Vinateros (línea 9).  Bus: 71, 113, 30, 32.";"";"3";"http://www.madrid.es/sites/v/index.jsp?vgnextchannel=bfa48ab43d6bb410VgnVCM100000171f5a0aRCRD&vgnextoid=f0fe7b05a8350410VgnVCM2000000c205a0aRCRD";"JOSE DEL PRADO Y PALACIO";"CALLE";"V";"1";"";"";"";"local 2";"MADRID";"MADRID";"28030";"4";"MEDIA LEGUA";"14";"MORATALAZ";"444521";"4473461";"40.409918616524486";"-3.6538664449213627";"";"";"";"/contenido/entidadesYorganismos/TemplosOtrasReligiones"
7065928;"Iglesia Evangélica Española";"";"";"";"Metro:  Puerta de Toledo (línea 5).  Bus:  148, 3, 60, 002, 17, 18, 23, 31, 50, 65.  Bicimad: Estaciones 38 (carrera de San Francisco, 1), 37 (plaza de San Francisco, 5), 45 (glorieta de la Puerta de Toledo, 1).";"";"3";"http://www.madrid.es/sites/v/index.jsp?vgnextchannel=bfa48ab43d6bb410VgnVCM100000171f5a0aRCRD&vgnextoid=003ff181df160410VgnVCM2000000c205a0aRCRD";"CALATRAVA";"CALLE";"V";"25";"";"";"";"";"MADRID";"MADRID";"28005";"1";"PALACIO";"1";"CENTRO";"439581";"4473423";"40.40923676813966";"-3.7120737849312566";"";"";"";"/contenido/entidadesYorganismos/TemplosOtrasReligiones"
7065000;"Iglesia Evangélica Española Noviciado 5";"Templo evangélico.";"";"";"Metro: Noviciado (línea 2).  Bus: 002, 147, 3.  Bicimad: Estación 15 (calle San Vicente Ferrer, 64).";"";"3";"http://www.madrid.es/sites/v/index.jsp?vgnextchannel=bfa48ab43d6bb410VgnVCM100000171f5a0aRCRD&vgnextoid=3c33c91fc0d50410VgnVCM2000000c205a0aRCRD";"NOVICIADO";"CALLE";"V";"5";"";"";"";"";"MADRID";"MADRID";"28015";"5";"UNIVERSIDAD";"1";"CENTRO";"439932";"4475235";"40.425585219802336";"-3.708110408802556";"";"";"";"/contenido/entidadesYorganismos/TemplosOtrasReligiones"
11778152;"Iglesia Evangélica Evangelizando las Naciones";"Templo evangélico.";"";"";"Bus:   100, 20, 30, 8";"";"3";"http://www.madrid.es/sites/v/index.jsp?vgnextchannel=bfa48ab43d6bb410VgnVCM100000171f5a0aRCRD&vgnextoid=b3bf37f775553810VgnVCM1000001d4a900aRCRD";"CORREGIDOR ALONSO DE TOBAR";"CALLE";"V";"15";"";"";"";"Local 36";"MADRID";"MADRID";"28030";"5";"FONTARRON";"14";"MORATALAZ";"444970";"4472792";"40.40392260868519";"-3.64851106336521";"";"";"";"/contenido/entidadesYorganismos/TemplosOtrasReligiones"
11770241;"Iglesia Evangélica Federación Asambleas de Dios de España";"Templo evangélico.";"";"";"Metro: Ciudad Líneal (línea 5).  Bus: 104, 77.";"";"3";"http://www.madrid.es/sites/v/index.jsp?vgnextchannel=bfa48ab43d6bb410VgnVCM100000171f5a0aRCRD&vgnextoid=b871659298633810VgnVCM2000001f4a900aRCRD";"ALCALA";"CALLE";"V";"459";"SÓTANO";"";"";"";"MADRID";"MADRID";"28027";"8";"EL SALVADOR";"20";"SAN BLAS-CANILLEJAS";"446214";"4476685";"40.439073872427564";"-3.634185577349754";"";"";"";"/contenido/entidadesYorganismos/TemplosOtrasReligiones"
11028330;"Iglesia Evangélica Fe, Esperanza y Amor";"Templo evangélico.";"";"";"Metro: García Noblejas (línea 7), Simancas (línea 7).  Bus: 28.";"";"3";"http://www.madrid.es/sites/v/index.jsp?vgnextchannel=bfa48ab43d6bb410VgnVCM100000171f5a0aRCRD&vgnextoid=49da03ce1ec6d610VgnVCM1000001d4a900aRCRD";"PATRIARCA SAN JOSE";"CALLE";"V";"9";"";"BAJO";"";"";"MADRID";"MADRID";"28037";"1";"SIMANCAS";"20";"SAN BLAS-CANILLEJAS";"446717";"4475735";"40.43055108462239";"-3.628173673450934";"";"";"";"/contenido/entidadesYorganismos/TemplosOtrasReligiones"
11773044;"Iglesia Evangélica Filadelfia Albuñuelas 18";"Templo evangélico.";"";"";"Metro: San Fermín-Orcasur (línea 3).  Bus: 128, 44.  Cercanías Renfe: Orcasitas (línea C5).";"";"3";"http://www.madrid.es/sites/v/index.jsp?vgnextchannel=bfa48ab43d6bb410VgnVCM100000171f5a0aRCRD&vgnextoid=763e3d647d043810VgnVCM1000001d4a900aRCRD";"ALBUÑUELAS";"CALLE";"V";"18";"";"";"";"";"MADRID";"MADRID";"28041";"2";"ORCASUR";"12";"USERA";"440599";"4468614";"40.36598624149444";"-3.6996276043947613";"";"";"";"/contenido/entidadesYorganismos/TemplosOtrasReligiones"
11772537;"Iglesia Evangélica Filadelfia Aldaya 41, 42 y 43";"Templo evangélico.";"";"";"Metro: Parque de Santa María (línea 4).  Bus: 9, 107.";"";"3";"http://www.madrid.es/sites/v/index.jsp?vgnextchannel=bfa48ab43d6bb410VgnVCM100000171f5a0aRCRD&vgnextoid=6424fec79ff33810VgnVCM1000001d4a900aRCRD";"ALDAYA";"CALLE";"V";"";"";"";"";"41, 42, y 43";"MADRID";"MADRID";"28033";"4";"PINAR DEL REY";"16";"HORTALEZA";"445069";"4480978";"40.477672230575884";"-3.6480512564009726";"";"";"";"/contenido/entidadesYorganismos/TemplosOtrasReligiones"
11744843;"Iglesia Evangélica Filadelfia Antonio González Porras 21";"Templo evangélico.";"";"";"Metro: Urgel (línea 5), Plaza Elíptica (líneas 6 y 11).  Bus: 116.";"";"3";"http://www.madrid.es/sites/v/index.jsp?vgnextchannel=bfa48ab43d6bb410VgnVCM100000171f5a0aRCRD&vgnextoid=c7867177f1282810VgnVCM1000001d4a900aRCRD";"ANTONIO GONZALEZ PORRAS";"CALLE";"V";"21";"";"";"";"";"MADRID";"MADRID";"28019";"2";"OPAÑEL";"11";"CARABANCHEL";"439091";"4471357";"40.390589205529665";"-3.7176498792496906";"";"";"";"/contenido/entidadesYorganismos/TemplosOtrasReligiones"
12285440;"Iglesia Evangélica Filadelfia Armengot";"Templo evangélico.";"";"";"Metro: Marqués de Vadillo (línea 5).  Bus: 118, 119, 34, 35.";"";"3";"http://www.madrid.es/sites/v/index.jsp?vgnextchannel=bfa48ab43d6bb410VgnVCM100000171f5a0aRCRD&vgnextoid=b9d70082481ad810VgnVCM1000001d4a900aRCRD";"ARMENGOT";"CALLE";"V";"0";"SEMISOTANO";"";"";"";"MADRID";"MADRID";"28019";"3";"SAN ISIDRO";"11";"CARABANCHEL";"439040";"4472035";"40.3966950743045";"-3.718322260359562";"";"";"";"/contenido/entidadesYorganismos/TemplosOtrasReligiones"
11772486;"Iglesia Evangélica Filadelfia Avenida Guadalajara 37";"Templo evangélico.";"";"";"Metro: Alsacia (línea 2).  Bus:  106, 140, 159, 4.";"";"3";"http://www.madrid.es/sites/v/index.jsp?vgnextchannel=bfa48ab43d6bb410VgnVCM100000171f5a0aRCRD&vgnextoid=c99ffec79ff33810VgnVCM1000001d4a900aRCRD";"GUADALAJARA";"AVENIDA";"V";"37";"";"";"";"LOCAL 9";"MADRID";"MADRID";"28032";"4";"ARCOS";"20";"SAN BLAS-CANILLEJAS";"447426";"4474561";"40.42002369011433";"-3.6197188348913105";"";"";"";"/contenido/entidadesYorganismos/TemplosOtrasReligiones"
11771433;"Iglesia Evangélica Filadelfia calle Luis Cernuda";"Templo evangélico.";"";"";"Metro: Barrio de la Concepción (línea 7).  Bus: 122, 53, 21.  Bicimad: Estación 231 (calle Derechos Humanos, 12).  Aparcamiento: Verdaguer y García (44).";"";"3";"http://www.madrid.es/sites/v/index.jsp?vgnextchannel=bfa48ab43d6bb410VgnVCM100000171f5a0aRCRD&vgnextoid=e9aaefa872b33810VgnVCM1000001d4a900aRCRD";"LUIS CERNUDA";"CALLE";"V";"";"";"";"";"LOCAL 2, FINCA 3";"MADRID";"MADRID";"28027";"5";"SAN PASCUAL";"15";"CIUDAD LINEAL";"444618";"4476811";"40.440110358334735";"-3.653005712125586";"";"";"";"/contenido/entidadesYorganismos/TemplosOtrasReligiones"
7065980;"Iglesia Evangélica Filadelfia calle Oso 19";"Templo evanglélico.";"";"";"Metro: La Latina (línea 5), Tirso de Molina (línea 1).  Bus: M1.  Bicimad: Estación 44 (cale Mesón de Paredes, 35).";"";"3";"http://www.madrid.es/sites/v/index.jsp?vgnextchannel=bfa48ab43d6bb410VgnVCM100000171f5a0aRCRD&vgnextoid=474204a5d0260410VgnVCM2000000c205a0aRCRD";"OSO";"CALLE";"V";"19";"Bajo";"";"";"";"MADRID";"MADRID";"28012";"2";"EMBAJADORES";"1";"CENTRO";"440161";"4473442";"40.409453044063135";"-3.7052440230775514";"";"";"";"/contenido/entidadesYorganismos/TemplosOtrasReligiones"
11770095;"Iglesia Evangélica Filadelfia Cerro de los Ángeles 32";"Templo evangélico.";"";"";"Bus: 78, 6, 60, 81.  Bicimad: Estaciones 391 (calle Rafaela Ybarra, 22), 390 (calle de la Avena, 10).";"";"3";"http://www.madrid.es/sites/v/index.jsp?vgnextchannel=bfa48ab43d6bb410VgnVCM100000171f5a0aRCRD&vgnextoid=ce0c52deb5633810VgnVCM2000001f4a900aRCRD";"CERRO DE LOS ANGELES";"AVENIDA";"V";"32";"";"";"";"";"MADRID";"MADRID";"28026";"6";"ZOFIO";"12";"USERA";"439502";"4470040";"40.37875284587766";"-3.7126889160076697";"";"";"";"/contenido/entidadesYorganismos/TemplosOtrasReligiones"
11028343;"Iglesia Evangélica Filadelfia del Centro";"Templo evangélico";"";"";"Metro: La Latina (línea 5)  Bus: 002, 17, 18, 23, 35, 60, SE712  Bicimad: Estación 39 (Plaza de la Cebada, 36)  Aparcamiento: Mercado de la Cebada (501), Plaza de la Cebada sin número";"";"3";"http://www.madrid.es/sites/v/index.jsp?vgnextchannel=bfa48ab43d6bb410VgnVCM100000171f5a0aRCRD&vgnextoid=60dc03ce1ec6d610VgnVCM1000001d4a900aRCRD";"RODRIGO DE GUEVARA";"CALLE";"V";"2";"";"";"";"";"MADRID";"MADRID";"28005";"2";"EMBAJADORES";"1";"CENTRO";"439849";"4473429";"40.40931307515139";"-3.7089216905673084";"";"";"";"/contenido/entidadesYorganismos/TemplosOtrasReligiones"
11744885;"Iglesia Evangélica Filadelfia Elvira Barrios 4";"Templo evangélico.";"";"";"Metro: Carpetana (línea 6).  Bus: 17, 25.";"";"3";"http://www.madrid.es/sites/v/index.jsp?vgnextchannel=bfa48ab43d6bb410VgnVCM100000171f5a0aRCRD&vgnextoid=0c3d509625282810VgnVCM1000001d4a900aRCRD";"ELVIRA BARRIOS";"CALLE";"V";"4";"";"";"";"";"MADRID";"MADRID";"28019";"3";"SAN ISIDRO";"11";"CARABANCHEL";"437535";"4471937";"40.3957003972249";"-3.7360404509749086";"";"";"";"/contenido/entidadesYorganismos/TemplosOtrasReligiones"
11744888;"Iglesia Evangélica Filadelfia Fernando González 15";"Templo evangélico.";"";"";"Metro: Urgel (línea 5)  Bus: 118, 19, 34, 35";"";"3";"http://www.madrid.es/sites/v/index.jsp?vgnextchannel=bfa48ab43d6bb410VgnVCM100000171f5a0aRCRD&vgnextoid=7aad509625282810VgnVCM1000001d4a900aRCRD";"FERNANDO GONZALEZ";"CALLE";"V";"15";"";"";"";"";"MADRID";"MADRID";"28019";"2";"OPAÑEL";"11";"CARABANCHEL";"438805";"4471494";"40.39180701085305";"-3.72103086312969";"";"";"";"/contenido/entidadesYorganismos/TemplosOtrasReligiones"
11778201;"Iglesia Evangélica Filadelfia García Llamas 41";"Templo evangélico.";"";"";"Bus:   102, 24.    Cercanías Renfe:   Asambla de Madrid Entrevías  (líneas C2, C7 y Regional).";"";"3";"http://www.madrid.es/sites/v/index.jsp?vgnextchannel=bfa48ab43d6bb410VgnVCM100000171f5a0aRCRD&vgnextoid=778901d196553810VgnVCM1000001d4a900aRCRD";"GARCIA LLAMAS";"CALLE";"V";"41";"";"";"";"";"MADRID";"MADRID";"28053";"2";"SAN DIEGO";"13";"PUENTE DE VALLECAS";"443141";"4470742";"40.38533512440142";"-3.6698802897236034";"";"";"";"/contenido/entidadesYorganismos/TemplosOtrasReligiones"
11745508;"Iglesia Evangélica Filadelfia Getafe 25";"Templo evangélico.";"";"";"Metro: Villaverde Alto (línea 3).  Bus: 79.     Cercanías Renfe: Villaverde Alto (líneas C4, C4a y C5).";"";"3";"http://www.madrid.es/sites/v/index.jsp?vgnextchannel=bfa48ab43d6bb410VgnVCM100000171f5a0aRCRD&vgnextoid=42acb83607c82810VgnVCM1000001d4a900aRCRD";"GETAFE";"CALLE";"V";"25";"";"";"";"";"MADRID";"MADRID";"28021";"1";"VILLAVERDE ALTO C.H.";"17";"VILLAVERDE";"439863";"4466067";"40.34299224985532";"-3.7080605588776208";"";"";"";"/contenido/entidadesYorganismos/TemplosOtrasReligiones"
11431457;"Iglesia Evangélica Filadelfia Guadalquivir 1";"Templo evangélico.";"";"";"Metro: República Argentina (línea 6).  Bus: 17, C2, C1, 16, 19.  Bicimad: Estación 137 (plaza de la República Argentina, 6).";"";"3";"http://www.madrid.es/sites/v/index.jsp?vgnextchannel=bfa48ab43d6bb410VgnVCM100000171f5a0aRCRD&vgnextoid=1745b5d56867a710VgnVCM1000001d4a900aRCRD";"GUADALQUIVIR";"CALLE";"V";"1";"2";"";"";"";"MADRID";"MADRID";"28002";"1";"EL VISO";"5";"CHAMARTIN";"441883";"4477507";"40.44619399938698";"-3.6853246238036528";"";"";"";"/contenido/entidadesYorganismos/TemplosOtrasReligiones"
11431601;"Iglesia Evangélica Filadelfia Guillermo Pingarron 9";"Templo evangélico.";"";"";"Metro: Alto del Arenal (línea 1).  Bus: 10, 57.";"";"3";"http://www.madrid.es/sites/v/index.jsp?vgnextchannel=bfa48ab43d6bb410VgnVCM100000171f5a0aRCRD&vgnextoid=9e138000baa7a710VgnVCM1000001d4a900aRCRD";"GUILLERMO PINGARRON";"CALLE";"V";"9";"BAJO EXTERIOR";"";"";"";"MADRID";"MADRID";"28018";"5";"PORTAZGO";"13";"PUENTE DE VALLECAS";"445024";"4470956";"40.387393475080934";"-3.6477186323226545";"";"";"";"/contenido/entidadesYorganismos/TemplosOtrasReligiones"
11030099;"Iglesia Evangélica Filadelfia Higinio Rodríguez 62";"Templo evangélico.";"";"";"Bus:  144, 57, 103, 310.   Cercanías Renfe: Asamblea de Madrid Entrevías (líneas C2, C7 y Regional).";"";"3";"http://www.madrid.es/sites/v/index.jsp?vgnextchannel=bfa48ab43d6bb410VgnVCM100000171f5a0aRCRD&vgnextoid=06a2be0e48e6d610VgnVCM2000001f4a900aRCRD";"HIGINIO RODRIGUEZ";"CALLE";"V";"62";"";"";"";"";"MADRID";"MADRID";"28018";"3";"PALOMERAS BAJAS";"13";"PUENTE DE VALLECAS";"443787";"4470891";"40.38672257682575";"-3.6622858627113515";"";"";"";"/contenido/entidadesYorganismos/TemplosOtrasReligiones"
11770121;"Iglesia Evangélica Filadelfia Isabelita Usera 59";"Templo evangélico.";"";"";"Bus:  6.";"";"3";"http://www.madrid.es/sites/v/index.jsp?vgnextchannel=bfa48ab43d6bb410VgnVCM100000171f5a0aRCRD&vgnextoid=48ae52deb5633810VgnVCM2000001f4a900aRCRD";"ISABELITA USERA";"CALLE";"V";"59";"";"";"";"";"MADRID";"MADRID";"28026";"7";"PRADOLONGO";"12";"USERA";"439953";"4470342";"40.38150656323228";"-3.7074073830087357";"";"";"";"/contenido/entidadesYorganismos/TemplosOtrasReligiones"
11770131;"Iglesia Evangélica Filadelfia Jaspe 56";"Templo evangélico.";"";"";"Bus:    78.";"";"3";"http://www.madrid.es/sites/v/index.jsp?vgnextchannel=bfa48ab43d6bb410VgnVCM100000171f5a0aRCRD&vgnextoid=8a4f52deb5633810VgnVCM2000001f4a900aRCRD";"JASPE";"CALLE";"V";"56";"";"";"";"Local 4";"MADRID";"MADRID";"28026";"7";"PRADOLONGO";"12";"USERA";"440015";"4470152";"40.37979944135075";"-3.7066539512199044";"";"";"";"/contenido/entidadesYorganismos/TemplosOtrasReligiones"
11769234;"Iglesia Evangélica Filadelfia Lucano 17";"Templo evangélico.";"";"";"Bus:  140, 28, 48.    Bicimad: Estación 517 (calle San Mariano, 58).";"";"3";"http://www.madrid.es/sites/v/index.jsp?vgnextchannel=bfa48ab43d6bb410VgnVCM100000171f5a0aRCRD&vgnextoid=7fa5914953133810VgnVCM2000001f4a900aRCRD";"LUCANO";"CALLE";"V";"17";"";"";"";"";"MADRID";"MADRID";"28022";"7";"CANILLEJAS";"20";"SAN BLAS-CANILLEJAS";"448227";"4476717";"40.43949152296494";"-3.610456424036562";"";"";"";"/contenido/entidadesYorganismos/TemplosOtrasReligiones"
11771501;"Iglesia Evangélica Filadelfia Luis de Hoyos Sainz";"Templo evangélico.";"";"";"Metro: Artilleros (línea 9).  Bus: 32, 30.";"";"3";"http://www.madrid.es/sites/v/index.jsp?vgnextchannel=bfa48ab43d6bb410VgnVCM100000171f5a0aRCRD&vgnextoid=93f3efa872b33810VgnVCM1000001d4a900aRCRD";"LUIS DE HOYOS SAINZ";"CALLE";"V";"";"";"";"";"SIN NÚMERO, 2, LOCAL 3";"MADRID";"MADRID";"28030";"6";"VINATEROS";"14";"MORATALAZ";"445775";"4472922";"40.4051469811212";"-3.6390384001046554";"";"";"";"/contenido/entidadesYorganismos/TemplosOtrasReligiones"
11772879;"Iglesia Evangélica Filadelfia Luis Marín 2";"Templo evangélico.";"";"";"Metro: Miguel Hernández (línea 1).  Bus: 142, 144, 54.";"";"3";"http://www.madrid.es/sites/v/index.jsp?vgnextchannel=bfa48ab43d6bb410VgnVCM100000171f5a0aRCRD&vgnextoid=79ad6e4d59043810VgnVCM1000001d4a900aRCRD";"LUIS MARIN";"CALLE";"V";"2";"";"";"";"";"MADRID";"MADRID";"28038";"4";"PALOMERAS SURESTE";"13";"PUENTE DE VALLECAS";"445751";"4471579";"40.39305380200769";"-3.6392029649922164";"";"";"";"/contenido/entidadesYorganismos/TemplosOtrasReligiones"
11772569;"Iglesia Evangélica Filadelfia Manresa 48";"Templo evangélico.";"";"";"Metro: Fuencarral (línea 10).  Bus: 124.";"";"3";"http://www.madrid.es/sites/v/index.jsp?vgnextchannel=bfa48ab43d6bb410VgnVCM100000171f5a0aRCRD&vgnextoid=c806fec79ff33810VgnVCM1000001d4a900aRCRD";"MANRESA";"CALLE";"V";"48";"";"";"";"posterior";"MADRID";"MADRID";"28034";"6";"VALVERDE";"8";"FUENCARRAL-EL PARDO";"441239";"4482605";"40.49206894232612";"-3.6933865159345056";"";"";"";"/contenido/entidadesYorganismos/TemplosOtrasReligiones"
11778287;"Iglesia Evangélica Filadelfia Mejorana 27";"Templo evangélico.";"";"";"Bus:   24, 102.";"";"3";"http://www.madrid.es/sites/v/index.jsp?vgnextchannel=bfa48ab43d6bb410VgnVCM100000171f5a0aRCRD&vgnextoid=54c88512b8553810VgnVCM1000001d4a900aRCRD";"MEJORANA";"CALLE";"V";"27";"";"";"";"";"MADRID";"MADRID";"28053";"1";"ENTREVIAS";"13";"PUENTE DE VALLECAS";"442878";"4470553";"40.383613937181266";"-3.672967700382854";"";"";"";"/contenido/entidadesYorganismos/TemplosOtrasReligiones"
11769478;"Iglesia Evangélica Filadelfia Nicolasa Gómez 39";"Templo evangélico.";"";"";"Metro: Torre Arias (línea 5).  Bus: 28, 48, 140, 165, 153.";"";"3";"http://www.madrid.es/sites/v/index.jsp?vgnextchannel=bfa48ab43d6bb410VgnVCM100000171f5a0aRCRD&vgnextoid=4219af6138133810VgnVCM2000001f4a900aRCRD";"NICOLASA GOMEZ";"CALLE";"V";"39";"";"";"";"";"MADRID";"MADRID";"28022";"7";"CANILLEJAS";"20";"SAN BLAS-CANILLEJAS";"447974";"4476941";"40.441499522158246";"-3.6134562575008045";"";"";"";"/contenido/entidadesYorganismos/TemplosOtrasReligiones"
11772577;"Iglesia Evangélica Filadelfia Nuestra Señora de Valverde 108";"Templo evangélico.";"";"";"Metro: Fuencarral (línea 10).  Bus: 137, 66.";"";"3";"http://www.madrid.es/sites/v/index.jsp?vgnextchannel=bfa48ab43d6bb410VgnVCM100000171f5a0aRCRD&vgnextoid=3ad6fec79ff33810VgnVCM1000001d4a900aRCRD";"NUESTRA SE&amp;Ntilde;ORA DE VALVERDE";"CALLE";"V";"108";"";"";"";"";"MADRID";"MADRID";"28034";"6";"VALVERDE";"8";"FUENCARRAL-EL PARDO";"441775";"4483135";"40.49688491376127";"-3.6871152560912925";"";"";"";"/contenido/entidadesYorganismos/TemplosOtrasReligiones"
12144599;"Iglesia Evangélica Filadelfia Paseo Extremadura 179";"Templo evangélico.";"";"";"Metro: Lucero (línea 6)  Bus: 36, 39, 65, 31";"";"3";"http://www.madrid.es/sites/v/index.jsp?vgnextchannel=bfa48ab43d6bb410VgnVCM100000171f5a0aRCRD&vgnextoid=dd12b47b0808b810VgnVCM2000001f4a900aRCRD";"EXTREMADURA";"PASEO";"V";"179";"";"";"";"";"MADRID";"MADRID";"28011";"3";"LUCERO";"10";"LATINA";"436818";"4473256";"40.40753170377432";"-3.744625537533622";"";"";"";"/contenido/entidadesYorganismos/TemplosOtrasReligiones"
11769883;"Iglesia Evangélica Filadelfia plaza Rendición de Breda";"Templo evangélico.";"";"";"Metro: Pan Bendito (línea 11).  Bus: 108, 47, 118.";"";"3";"http://www.madrid.es/sites/v/index.jsp?vgnextchannel=bfa48ab43d6bb410VgnVCM100000171f5a0aRCRD&vgnextoid=1db9e1c8cc533810VgnVCM2000001f4a900aRCRD";"RENDICION DE BREDA";"PLAZA";"V";"2";"";"";"";"";"MADRID";"MADRID";"28025";"7";"ABRANTES";"11";"CARABANCHEL";"437885";"4469894";"40.377321699099916";"-3.731724453244233";"";"";"";"/contenido/entidadesYorganismos/TemplosOtrasReligiones"
11028338;"Iglesia Evangélica Filadelfia Portugalete 29";"Templo evangélico.";"";"";"Metro: García Noblejas (línea 7).  Bus: 28, 38, 4, 48, 70, 109.  Bicimad: Estación 484 (calle Luis Campos).";"";"3";"http://www.madrid.es/sites/v/index.jsp?vgnextchannel=bfa48ab43d6bb410VgnVCM100000171f5a0aRCRD&vgnextoid=975b03ce1ec6d610VgnVCM1000001d4a900aRCRD";"PORTUGALETE";"CALLE";"V";"29";"";"";"";"";"MADRID";"MADRID";"28017";"2";"PUEBLO NUEVO";"15";"CIUDAD LINEAL";"446247";"4475366";"40.427201283919715";"-3.6336813603346316";"";"";"";"/contenido/entidadesYorganismos/TemplosOtrasReligiones"
11778017;"Iglesia Evangélica Filadelfia Quart de Poblet 41";"Templo evangélico.";"";"";"Metro: Laguna (línea 6).   Bus:   25, 31.   Cercanías Renfe:  Laguna (linea C5).";"";"3";"http://www.madrid.es/sites/v/index.jsp?vgnextchannel=bfa48ab43d6bb410VgnVCM100000171f5a0aRCRD&vgnextoid=41f8a62150553810VgnVCM1000001d4a900aRCRD";"CUART DE POBLET";"CALLE";"V";"41";"";"";"";"";"MADRID";"MADRID";"28047";"3";"LUCERO";"10";"LATINA";"436536";"4472149";"40.397530422468876";"-3.7478320658195923";"";"";"";"/contenido/entidadesYorganismos/TemplosOtrasReligiones"
11777548;"Iglesia Evangélica Filadelfia Rafael Finat 3";"Templo evangélico.";"";"";"Metro: Aluche (línea 5).  Bus: 114, 101.     Cercanías Renfe: Maestra Justa Freire - Polideportivo Aluche (antigua estación de Fanjul) (línea C5), Aluche (línea C5).";"";"3";"http://www.madrid.es/sites/v/index.jsp?vgnextchannel=bfa48ab43d6bb410VgnVCM100000171f5a0aRCRD&vgnextoid=309b832e34353810VgnVCM1000001d4a900aRCRD";"RAFAEL FINAT";"CALLE";"V";"3";"bajo";"";"";"";"MADRID";"MADRID";"28044";"7";"LAS AGUILAS";"10";"LATINA";"435117";"4470618";"40.38362980952332";"-3.7644040244201715";"";"";"";"/contenido/entidadesYorganismos/TemplosOtrasReligiones"
11028550;"Iglesia Evangélica Filadelfia San Telesforo 13";"Templo evangélico.";"";"";"Metro: La Almudena (línea 2), García Noblejas (línea 7).    Bus: 109.";"";"3";"http://www.madrid.es/sites/v/index.jsp?vgnextchannel=bfa48ab43d6bb410VgnVCM100000171f5a0aRCRD&vgnextoid=6129fadc26d6d610VgnVCM1000001d4a900aRCRD";"SAN TELESFORO";"CALLE";"V";"13";"";"";"";"";"MADRID";"MADRID";"28017";"2";"PUEBLO NUEVO";"15";"CIUDAD LINEAL";"446094";"4475144";"40.42519222607221";"-3.63546130603136";"";"";"";"/contenido/entidadesYorganismos/TemplosOtrasReligiones"
11771789;"Iglesia Evangélica Filadelfia Sierra de Engarceran 7";"Templo evangélico.";"";"";"Metro: Villa de Vallecas (línea 1).  Bus: 103, 142.";"";"3";"http://www.madrid.es/sites/v/index.jsp?vgnextchannel=bfa48ab43d6bb410VgnVCM100000171f5a0aRCRD&vgnextoid=19865fe4a5b33810VgnVCM2000001f4a900aRCRD";"SIERRA ENGARCERAN";"CALLE";"V";"7";"";"";"";"";"MADRID";"MADRID";"28031";"1";"CASCO H.VALLECAS";"18";"VILLA DE VALLECAS";"447031";"4469694";"40.37615336882075";"-3.6239721321364655";"";"";"";"/contenido/entidadesYorganismos/TemplosOtrasReligiones"
12144625;"Iglesia Evangélica Filadelfia Villalobos 11";"Templo evangélico.";"";"";"Bus: 10, 144, 310, 57";"";"3";"http://www.madrid.es/sites/v/index.jsp?vgnextchannel=bfa48ab43d6bb410VgnVCM100000171f5a0aRCRD&vgnextoid=ffa3b47b0808b810VgnVCM2000001f4a900aRCRD";"VILLALOBOS";"CALLE";"V";"11";"";"";"";"";"MADRID";"MADRID";"28018";"4";"PALOMERAS SURESTE";"13";"PUENTE DE VALLECAS";"445077";"4470354";"40.381966779984396";"-3.647037080630487";"";"";"";"/contenido/entidadesYorganismos/TemplosOtrasReligiones"
7065792;"Iglesia Evangélica Fuente de la Vida, Asambleas de Dios";"Templo evangélico";"";"";"Metro: Portazgo (línea 1)  Bus: 24,111, 310";"";"3";"http://www.madrid.es/sites/v/index.jsp?vgnextchannel=bfa48ab43d6bb410VgnVCM100000171f5a0aRCRD&vgnextoid=e9e95ac33d160410VgnVCM2000000c205a0aRCRD";"SIERRA CARBONERA";"CALLE";"V";"31";"";"";"";"";"MADRID";"MADRID";"28053";"3";"PALOMERAS BAJAS";"13";"PUENTE DE VALLECAS";"443649";"4471505";"40.392247405436166";"-3.6639668234577245";"";"";"";"/contenido/entidadesYorganismos/TemplosOtrasReligiones"
11772565;"Iglesia Evangélica Fuente de Vida Asambleas de Dios calle Ginzo de Limia";"Templo evangélico.";"";"";"Metro: Herrera Oria (línea 9).  Bus: 134, 49, 127, 133, 67, 124.";"";"3";"http://www.madrid.es/sites/v/index.jsp?vgnextchannel=bfa48ab43d6bb410VgnVCM100000171f5a0aRCRD&vgnextoid=5015fec79ff33810VgnVCM1000001d4a900aRCRD";"GINZO DE LIMIA";"CALLE";"V";"55";"";"";"";"LOCAL";"MADRID";"MADRID";"28034";"4";"EL PILAR";"8";"FUENCARRAL-EL PARDO";"439902";"4481811";"40.48482265617191";"-3.70908725025374";"";"";"";"/contenido/entidadesYorganismos/TemplosOtrasReligiones"
11028542;"Iglesia Evangélica fuente de vida Asambleas de Dios San Norberto";"Templo evangélico.";"";"";"Metro: San Cristobal (línea 3).";"";"3";"http://www.madrid.es/sites/v/index.jsp?vgnextchannel=bfa48ab43d6bb410VgnVCM100000171f5a0aRCRD&vgnextoid=1367af9c53d6d610VgnVCM1000001d4a900aRCRD";"SAN NORBERTO";"CALLE";"V";"16";"";"";"";"";"MADRID";"MADRID";"28021";"1";"VILLAVERDE ALTO C.H.";"17";"VILLAVERDE";"440854";"4465982";"40.34229348965932";"-3.696383819893457";"";"";"";"/contenido/entidadesYorganismos/TemplosOtrasReligiones"
11777831;"Iglesia Evangélica Gran Rey";"Templo evangélico.";"";"";"Metro: Legazpi (líneas 3 y 6).   Bus:   156, 180, T32, 148, 62, 123, 22, 79, 45, 8, 18, 6, 78, 19, 247, 47, 59, 76, 85, 86.    Bicimad:   Estación 177 (calle Bolivar, 3).";"";"3";"http://www.madrid.es/sites/v/index.jsp?vgnextchannel=bfa48ab43d6bb410VgnVCM100000171f5a0aRCRD&vgnextoid=8eca490e2c453810VgnVCM1000001d4a900aRCRD";"MAESTRO ARBOS";"CALLE";"V";"5";"";"";"";"";"MADRID";"MADRID";"28045";"4";"LEGAZPI";"2";"ARGANZUELA";"441027";"4471294";"40.390162579463414";"-3.694838317655381";"";"";"";"/contenido/entidadesYorganismos/TemplosOtrasReligiones"
11777691;"Iglesia Evangélica la Casa del Padre";"Templo evangélico.";"";"";"Metro: Carabanchel Alto (línea 11).";"";"3";"http://www.madrid.es/sites/v/index.jsp?vgnextchannel=bfa48ab43d6bb410VgnVCM100000171f5a0aRCRD&vgnextoid=47b0832e34353810VgnVCM1000001d4a900aRCRD";"HAYA";"CALLE";"V";"5";"";"";"";"";"MADRID";"MADRID";"28044";"6";"BUENAVISTA";"11";"CARABANCHEL";"436561";"4468841";"40.36773909619671";"-3.747206101955897";"";"";"";"/contenido/entidadesYorganismos/TemplosOtrasReligiones"
11777774;"Iglesia Evangélica La Roca";"Templo evangélico.";"";"";"Metro: Palos de la Frontera (línea 3), Atocha (línea 1).   Bus:   127, 247, 47, 55, 19, 45, 86, 6, 102, 8.   Cercanías Renfe: Atocha (líneas C1, C2, C3, C4, C4a, C4b, C5, C7, C10).  Bicimad: Estaciones 168 (paseo Santa María de la Cabeza, 29), 120 (calle Palos de la Frontera, 27), 51 (Ronda de Atocha, 2).";"";"3";"http://www.madrid.es/sites/v/index.jsp?vgnextchannel=bfa48ab43d6bb410VgnVCM100000171f5a0aRCRD&vgnextoid=2027832e34353810VgnVCM1000001d4a900aRCRD";"DELICIAS";"PASEO";"V";"28";"";"";"";"";"MADRID";"MADRID";"28045";"6";"PALOS DE MOGUER";"2";"ARGANZUELA";"441138";"4472926";"40.404866930326506";"-3.6936814974298464";"";"";"";"/contenido/entidadesYorganismos/TemplosOtrasReligiones"
11778176;"Iglesia Evangélica Luterana Española";"Templo evangélico.";"";"";"Bus:   15, 215, 2, 143, 156, 30, 56    Bicimad:   Estación 63 (Calle Ibiza, 62).";"";"3";"http://www.madrid.es/sites/v/index.jsp?vgnextchannel=bfa48ab43d6bb410VgnVCM100000171f5a0aRCRD&vgnextoid=337437f775553810VgnVCM1000001d4a900aRCRD";"ANTONIO ARIAS";"CALLE";"V";"5";"4";"B";"";"";"MADRID";"MADRID";"28009";"4";"IBIZA";"3";"RETIRO";"443039";"4474313";"40.41749583325093";"-3.6713993230086466";"";"";"";"/contenido/entidadesYorganismos/TemplosOtrasReligiones"
11745530;"Iglesia Evangélica Luz del Mundo Cristo el Salvado";"Templo evangélico.";"";"";"Metro: Villaverde Alto (línea 3).  Bus: 79.     Cercanías Renfe: Villaverde Alto (líneas C4, C4a y C5).";"";"3";"http://www.madrid.es/sites/v/index.jsp?vgnextchannel=bfa48ab43d6bb410VgnVCM100000171f5a0aRCRD&vgnextoid=975fb83607c82810VgnVCM1000001d4a900aRCRD";"SAN ERASMO";"CALLE";"V";"16";"";"";"";"";"MADRID";"MADRID";"28021";"1";"VILLAVERDE ALTO C.H.";"17";"VILLAVERDE";"439974";"4465503";"40.33791682003422";"-3.7066954895515116";"";"";"";"/contenido/entidadesYorganismos/TemplosOtrasReligiones"
11028410;"Iglesia Evangélica Manantial de Vida";"Templo evangélico.";"";"";"Metro: Plaza Elíptica (líneas 6 y 11).    Bus: 6, 60, 78, 81";"";"3";"http://www.madrid.es/sites/v/index.jsp?vgnextchannel=bfa48ab43d6bb410VgnVCM100000171f5a0aRCRD&vgnextoid=fef303ce1ec6d610VgnVCM1000001d4a900aRCRD";"CERRO DE LOS ANGELES";"AVENIDA";"V";"10";"1";"B";"";"";"MADRID";"MADRID";"28026";"6";"ZOFIO";"12";"USERA";"439475";"4470174";"40.379960391322925";"-3.7130159457712084";"";"";"";"/contenido/entidadesYorganismos/TemplosOtrasReligiones"
11778289;"Iglesia Evangélica Miguel de la Roca 6";"Templo evangélico.";"";"";"Bus:   24, 102.";"";"3";"http://www.madrid.es/sites/v/index.jsp?vgnextchannel=bfa48ab43d6bb410VgnVCM100000171f5a0aRCRD&vgnextoid=bf2b8512b8553810VgnVCM1000001d4a900aRCRD";"MIGUEL DE LA ROCA";"CALLE";"V";"6";"";"";"";"";"MADRID";"MADRID";"28053";"1";"ENTREVIAS";"13";"PUENTE DE VALLECAS";"442887";"4470556";"40.383642670524296";"-3.672860306212846";"";"";"";"/contenido/entidadesYorganismos/TemplosOtrasReligiones"
11769870;"Iglesia Evangélica Ministerio Belem";"Templo evangélico.";"";"";"Metro: Abrantes (línea 11).  Bus: 247, 118.";"";"3";"http://www.madrid.es/sites/v/index.jsp?vgnextchannel=bfa48ab43d6bb410VgnVCM100000171f5a0aRCRD&vgnextoid=eb58e1c8cc533810VgnVCM2000001f4a900aRCRD";"OROPENDOLA";"CALLE";"V";"26";"";"";"";"";"MADRID";"MADRID";"28025";"5";"PUERTA BONITA";"11";"CARABANCHEL";"437805";"4470435";"40.38218662221814";"-3.7327181507119738";"";"";"";"/contenido/entidadesYorganismos/TemplosOtrasReligiones"
11028415;"Iglesia Evangélica Ministerio Pasión por Cristo";"Templo evangélico";"";"";"Metro: San Francisco (línea 11)  Bus: 108, 118, 121, 131, 47";"";"3";"http://www.madrid.es/sites/v/index.jsp?vgnextchannel=bfa48ab43d6bb410VgnVCM100000171f5a0aRCRD&vgnextoid=bd0703ce1ec6d610VgnVCM1000001d4a900aRCRD";"REUS";"CALLE";"V";"8";"";"";"";"";"MADRID";"MADRID";"28044";"6";"BUENAVISTA";"11";"CARABANCHEL";"436673";"4469269";"40.37160136859314";"-3.7459391632325407";"";"";"";"/contenido/entidadesYorganismos/TemplosOtrasReligiones"
11771438;"Iglesia Evangélica Movimiento Misionero Mundial";"Templo evangélico.";"";"";"Metro: Ciudad Lineal (línea 5) / Pueblo Nuevo (líneas 5, 7)  Bus: 109, 38,113, 104, 4, 77, 48, 70  Bicimad: Estación 477 (calle Misterios, 1)";"";"3";"http://www.madrid.es/sites/v/index.jsp?vgnextchannel=bfa48ab43d6bb410VgnVCM100000171f5a0aRCRD&vgnextoid=246cefa872b33810VgnVCM1000001d4a900aRCRD";"GERMAN PEREZ CARRASCO";"CALLE";"V";"92";"";"";"";"Local";"MADRID";"MADRID";"28027";"3";"QUINTANA";"15";"CIUDAD LINEAL";"445679";"4476534";"40.437683474255266";"-3.640483215376134";"";"";"";"/contenido/entidadesYorganismos/TemplosOtrasReligiones"
7063724;"Iglesia Evangélica Nueva Vida";"Templo evangélico.";"";"";"Metro: Ciudad Lineal (línea 5).  Bus: 104, 77.";"";"3";"http://www.madrid.es/sites/v/index.jsp?vgnextchannel=bfa48ab43d6bb410VgnVCM100000171f5a0aRCRD&vgnextoid=4996e44317350410VgnVCM2000000c205a0aRCRD";"ARGOS";"CALLE";"V";"13";"";"";"";"";"MADRID";"MADRID";"28037";"1";"SIMANCAS";"20";"SAN BLAS-CANILLEJAS";"446148";"4476431";"40.436783183089666";"-3.63493385381463";"";"";"";"/contenido/entidadesYorganismos/TemplosOtrasReligiones"
7064948;"Iglesia Evangélica Pentecostal Amistad Cristiana";"Templo evangélico";"";"";"Metro: Canal (línea 2, 7), Quevedo (2)  Bus: 2, 12  Bicimad: Estación 245 (calle Galileo, 63)";"";"3";"http://www.madrid.es/sites/v/index.jsp?vgnextchannel=bfa48ab43d6bb410VgnVCM100000171f5a0aRCRD&vgnextoid=64f10ac0dfc50410VgnVCM2000000c205a0aRCRD";"VALLEHERMOSO";"CALLE";"V";"70";"";"";"";"";"MADRID";"MADRID";"28015";"2";"ARAPILES";"7";"CHAMBERI";"439929";"4476531";"40.437260988671255";"-3.7082736874595725";"";"";"";"/contenido/entidadesYorganismos/TemplosOtrasReligiones"
18304;"Iglesia Evangélica Pentecostal de Madrid";"Templo evangélico.";"";"";"Metro: Marqués de Vadillo (línea 5).  Bus: 23, 116.  Bicimad: Estación 354 (calle Jacinto Verdaguer, 12).";"";"3";"http://www.madrid.es/sites/v/index.jsp?vgnextchannel=bfa48ab43d6bb410VgnVCM100000171f5a0aRCRD&vgnextoid=a2cf6f065851c010VgnVCM2000000c205a0aRCRD";"FERNANDO DIAZ DE MENDOZA";"CALLE";"V";"3";"";"";"";"";"MADRID";"MADRID";"28019";"1";"COMILLAS";"11";"CARABANCHEL";"439488";"4471762";"40.39426618909509";"-3.7130157660880254";"";"";"";"/contenido/entidadesYorganismos/TemplosOtrasReligiones"
11028417;"Iglesia Evangélica Pentecostal Misión 1909";"Templo evangélico";"";"";"Metro: Urgel (línea 5)  Bus: 118, 119, 34, 35";"";"3";"http://www.madrid.es/sites/v/index.jsp?vgnextchannel=bfa48ab43d6bb410VgnVCM100000171f5a0aRCRD&vgnextoid=26e703ce1ec6d610VgnVCM1000001d4a900aRCRD";"VIRGEN DE BELEN";"CALLE";"V";"42";"BAJO";"";"";"";"MADRID";"MADRID";"28019";"2";"OPAÑEL";"11";"CARABANCHEL";"438781";"4471349";"40.390490853232684";"-3.721308792690415";"";"";"";"/contenido/entidadesYorganismos/TemplosOtrasReligiones"
7063715;"Iglesia Evangélica Pentecostal Salem";"";"";"";"Bus: 155";"";"3";"http://www.madrid.es/sites/v/index.jsp?vgnextchannel=bfa48ab43d6bb410VgnVCM100000171f5a0aRCRD&vgnextoid=6fb1e44317350410VgnVCM2000000c205a0aRCRD";"CIDRO";"CALLE";"V";"8";"";"";"";"";"MADRID";"MADRID";"28044";"6";"BUENAVISTA";"11";"CARABANCHEL";"436652";"4468857";"40.36788858345182";"-3.7461415702308978";"";"";"";"/contenido/entidadesYorganismos/TemplosOtrasReligiones"
11770233;"Iglesia Evangélica Presbiteriana de España";"Templo evangélico.";"";"";"Metro: Ventas (líneas 2 y 5).  Bus: 106, 110, 146, 21, 210, 38, 53, 12, 74";"";"3";"http://www.madrid.es/sites/v/index.jsp?vgnextchannel=bfa48ab43d6bb410VgnVCM100000171f5a0aRCRD&vgnextoid=ced0659298633810VgnVCM2000001f4a900aRCRD";"DOCTOR GOMEZ ULLA";"CALLE";"V";"26";"";"";"";"";"MADRID";"MADRID";"28028";"4";"GUINDALERA";"4";"SALAMANCA";"443440";"4475866";"40.43151152640136";"-3.6668128579486754";"";"";"";"/contenido/entidadesYorganismos/TemplosOtrasReligiones"
7065603;"Iglesia Evangélica Pueblo Nuevo";"Templo evangélico.";"";"";"Metro: Vicálvaro (línea 9), San Cipriano (línea 9).  Bus: 100, 159, 106, 4, E3, E5, 130.";"";"3";"http://www.madrid.es/sites/v/index.jsp?vgnextchannel=bfa48ab43d6bb410VgnVCM100000171f5a0aRCRD&vgnextoid=d6adfe5dfad50410VgnVCM2000000c205a0aRCRD";"VILLACARLOS";"CALLE";"V";"14";"";"";"";"";"MADRID";"MADRID";"28032";"1";"CASCO H.VICALVARO";"19";"VICALVARO";"448561";"4472995";"40.40598778349582";"-3.6062164541990582";"";"";"";"/contenido/entidadesYorganismos/TemplosOtrasReligiones"
11028554;"Iglesia Evangélica Servidores de Vida";"Templo evangélico.";"";"";"Metro: Vista Alegre (línea 5).  Bus: 34, 35.";"";"3";"http://www.madrid.es/sites/v/index.jsp?vgnextchannel=bfa48ab43d6bb410VgnVCM100000171f5a0aRCRD&vgnextoid=9069fadc26d6d610VgnVCM1000001d4a900aRCRD";"CASTROJERIZ";"CALLE";"V";"8";"";"";"";"";"MADRID";"MADRID";"28025";"4";"VISTA ALEGRE";"11";"CARABANCHEL";"437276";"4471003";"40.387266618692394";"-3.738996818463832";"";"";"";"/contenido/entidadesYorganismos/TemplosOtrasReligiones"
11770228;"Iglesia Evangélica Sinaí";"Templo evangélico.";"";"";"Metro: Plaza Elíptica (líneas 6 y 11).  Bus: 6, 60, 81.  Bicimad: 391 (Calle Rafaela Ybarra, 22)";"";"3";"http://www.madrid.es/sites/v/index.jsp?vgnextchannel=bfa48ab43d6bb410VgnVCM100000171f5a0aRCRD&vgnextoid=9c2e659298633810VgnVCM2000001f4a900aRCRD";"SILVIO ABAD";"CALLE";"V";"76";"";"";"";"";"MADRID";"MADRID";"28026";"6";"ZOFIO";"12";"USERA";"439582";"4470275";"40.38087966202685";"-3.7117610976737634";"";"";"";"/contenido/entidadesYorganismos/TemplosOtrasReligiones"
11770251;"Iglesia Evangélica Spanish Council of Assemblies of God";"Templo evangélico.";"";"";"Metro: Ciudad Líneal (línea 5).  Bus: 48, 70, 104, 109, 113, 4, 77.";"";"3";"http://www.madrid.es/sites/v/index.jsp?vgnextchannel=bfa48ab43d6bb410VgnVCM100000171f5a0aRCRD&vgnextoid=2494659298633810VgnVCM2000001f4a900aRCRD";"ARTURO SORIA";"CALLE";"V";"18";"BAJO";"D";"";"";"MADRID";"MADRID";"28027";"3";"QUINTANA";"15";"CIUDAD LINEAL";"445797";"4476765";"40.43977112521045";"-3.639101549206394";"";"";"";"/contenido/entidadesYorganismos/TemplosOtrasReligiones"
7065918;"Iglesia evangélica Templo de Dios. Calle Marquesa de Argüeso";"Templo evangélico";"";"";"Metro: Urgel (línea 5)  Bus: 34, 35, 118, 119";"";"3";"http://www.madrid.es/sites/v/index.jsp?vgnextchannel=bfa48ab43d6bb410VgnVCM100000171f5a0aRCRD&vgnextoid=c70bf181df160410VgnVCM2000000c205a0aRCRD";"MARQUESA DE ARGÜESO";"CALLE";"V";"22";"";"";"";"";"MADRID";"MADRID";"28019";"2";"OPAÑEL";"11";"CARABANCHEL";"438567";"4471460";"40.39147886800535";"-3.723833493100166";"";"";"";"/contenido/entidadesYorganismos/TemplosOtrasReligiones"
7065706;"Iglesia Evangélica Vino Nuevo el Rey Jesús";"Templo evangélico.";"";"";"Metro: Plaza de España (líneas 3 y 10)., Príncipe Pío (líneas 6, 10 y Ramal).  Bus: 138, 25, 39, 46, 62, 75, C2.  Bicimad: Estación 116a (calle Princesa, 5).  Cercanías Renfe: Príncipe Pío (líneas C1, C7, C10 y Regional).";"";"3";"http://www.madrid.es/sites/v/index.jsp?vgnextchannel=bfa48ab43d6bb410VgnVCM100000171f5a0aRCRD&vgnextoid=61a794d12cd50410VgnVCM2000000c205a0aRCRD";"CADARSO";"CALLE";"V";"6";"1";"B";"";"";"MADRID";"MADRID";"28008";"2";"ARGUELLES";"9";"MONCLOA-ARAVACA";"439401";"4474823";"40.421834986222606";"-3.7143270076698696";"";"";"";"/contenido/entidadesYorganismos/TemplosOtrasReligiones"
11745355;"Iglesia Hillsong España";"Templo evangélico.";"";"";"Metro: Estrecho (línea 1).  Bus: 3, 5, 43.     Bicimad: Estaciones 152 (avenida del General Perón, 4), 154 (calle Orense, 36).";"";"3";"http://www.madrid.es/sites/v/index.jsp?vgnextchannel=bfa48ab43d6bb410VgnVCM100000171f5a0aRCRD&vgnextoid=c048d69d1fb82810VgnVCM1000001d4a900aRCRD";"FORTUNATA Y JACINTA";"CALLE";"V";"17";"";"";"";"";"MADRID";"MADRID";"28020";"2";"CUATRO CAMINOS";"6";"TETUAN";"440836";"4478414";"40.45428823014499";"-3.6977468863800387";"";"";"";"/contenido/entidadesYorganismos/TemplosOtrasReligiones"
12283712;"Iglesia Jesucristo Ancla de la Fe";"Templo evangélico.";"";"";"Bus:  85, 86, 123, 23, 78  Metro: San Fermín, Orcasur (línea 3)  Bicimad: Estación 383 (Avenida de la Perla, 35)";"";"3";"http://www.madrid.es/sites/v/index.jsp?vgnextchannel=bfa48ab43d6bb410VgnVCM100000171f5a0aRCRD&vgnextoid=84c775bef2d8d810VgnVCM1000001d4a900aRCRD";"POPULAR MADRILEÑA";"CALLE";"V";"30";"";"";"";"";"MADRID";"MADRID";"28041";"3";"SAN FERMIN";"12";"USERA";"441152";"4469103";"40.37043280067995";"-3.693161393981559";"";"";"";"/contenido/entidadesYorganismos/TemplosOtrasReligiones"
11028547;"Iglesia Jesús es el Maestro";"Templo evangélico";"";"";"Metro: Fuencarral (línea 10)   Bus: 66, 137, SE704";"";"3";"http://www.madrid.es/sites/v/index.jsp?vgnextchannel=bfa48ab43d6bb410VgnVCM100000171f5a0aRCRD&vgnextoid=bfe8fadc26d6d610VgnVCM1000001d4a900aRCRD";"DIVINA PASTORA";"CALLE";"V";"9";"";"";"";"";"MADRID";"MADRID";"28034";"6";"VALVERDE";"8";"FUENCARRAL-EL PARDO";"441555";"4482835";"40.49416121234154";"-3.689676736162009";"";"";"";"/contenido/entidadesYorganismos/TemplosOtrasReligiones"
11778179;"Iglesia Libertad Cristiana";"Templo evangélico.";"";"";"Metro:  Ventilla (Línea 9).   Bus:   177, 42";"";"3";"http://www.madrid.es/sites/v/index.jsp?vgnextchannel=bfa48ab43d6bb410VgnVCM100000171f5a0aRCRD&vgnextoid=014737f775553810VgnVCM1000001d4a900aRCRD";"SAN LEOPOLDO";"CALLE";"V";"66";"";"";"";"Esquina calle Geranios, 6";"MADRID";"MADRID";"28029";"4";"ALMENARA";"6";"TETUAN";"441149";"4480229";"40.470659247687244";"-3.6942309959894644";"";"";"";"/contenido/entidadesYorganismos/TemplosOtrasReligiones"
7064624;"Iglesia Libre de los Hermanos en Cristo";"Templo evangelico.";"";"";"Metro: Lucero (línea 6).  Bus: 36, 39, 65, 31.";"";"3";"http://www.madrid.es/sites/v/index.jsp?vgnextchannel=bfa48ab43d6bb410VgnVCM100000171f5a0aRCRD&vgnextoid=a5cc5bddd0950410VgnVCM1000000b205a0aRCRD";"EXTREMADURA";"PASEO";"V";"179";"";"";"";"";"MADRID";"MADRID";"28011";"3";"LUCERO";"10";"LATINA";"436818";"4473256";"40.40753170377432";"-3.744625537533622";"";"";"";"/contenido/entidadesYorganismos/TemplosOtrasReligiones"
11431597;"Iglesia Ministerio Denuedo";"Templo evangélico.";"";"";"Metro: Abrantes (línea 11), Opañel (línea 6).  Bus: 247, 118.";"";"3";"http://www.madrid.es/sites/v/index.jsp?vgnextchannel=bfa48ab43d6bb410VgnVCM100000171f5a0aRCRD&vgnextoid=5db28000baa7a710VgnVCM1000001d4a900aRCRD";"MINEROS";"CALLE";"V";"12";"1";"";"";"";"MADRID";"MADRID";"28025";"7";"ABRANTES";"11";"CARABANCHEL";"438153";"4470510";"40.38288913614371";"-3.7286284347044356";"";"";"";"/contenido/entidadesYorganismos/TemplosOtrasReligiones"
11769853;"Iglesia Misión Apostólica Mundial";"Templo evangélico.";"";"";"Metro: Oporto (líneas 5 y 6).  Bus: 34, 35.";"";"3";"http://www.madrid.es/sites/v/index.jsp?vgnextchannel=bfa48ab43d6bb410VgnVCM100000171f5a0aRCRD&vgnextoid=a576103c47533810VgnVCM2000001f4a900aRCRD";"ALEJANDRO MORAN";"CALLE";"V";"3";"";"";"";"";"MADRID";"MADRID";"28025";"5";"PUERTA BONITA";"11";"CARABANCHEL";"437755";"4470971";"40.387011290888786";"-3.733352216029725";"";"";"";"/contenido/entidadesYorganismos/TemplosOtrasReligiones"
7063835;"Iglesia Misionera Asamblea Cristiana Río Ulla 14";"Templo evangélico.";"";"";"Metro: Pueblo Nuevo (líneas 5 y 7).  Bus: 109, 113, 38.";"";"3";"http://www.madrid.es/sites/v/index.jsp?vgnextchannel=bfa48ab43d6bb410VgnVCM100000171f5a0aRCRD&vgnextoid=bd9c1ea949750410VgnVCM2000000c205a0aRCRD";"RIO ULLA";"CALLE";"V";"14";"";"";"";"";"MADRID";"MADRID";"28017";"2";"PUEBLO NUEVO";"15";"CIUDAD LINEAL";"445484";"4476145";"40.43416644534178";"-3.642738285902067";"";"";"";"/contenido/entidadesYorganismos/TemplosOtrasReligiones"
11732437;"Iglesia Misionera Pentecostal de Cristo";"Templo evangélico";"";"";"Metro: Tribunal (línea 1, 10) / Alonso Martínez (línea 4, 5, 10)  Bus: 149, 40, 37  Bicimad: Estación 54 (calle Barceló, 7)  Aparcamiento: (Barceló (69), calle Barceló, sin número / Arquitecto Ribera (Barceló) (17), calle Barceló, 2)";"";"3";"http://www.madrid.es/sites/v/index.jsp?vgnextchannel=bfa48ab43d6bb410VgnVCM100000171f5a0aRCRD&vgnextoid=25936ec47c7f1810VgnVCM2000001f4a900aRCRD";"BENEFICENCIA";"CALLE";"V";"18";"";"";"";"3";"MADRID";"MADRID";"28004";"4";"JUSTICIA";"1";"CENTRO";"440734";"4475314";"40.42635538209311";"-3.6986664775671785";"";"";"";"/contenido/entidadesYorganismos/TemplosOtrasReligiones"
11777555;"Iglesia Nueva Generación";"Templo evangélico";"";"";"Bus:   155.";"";"3";"http://www.madrid.es/sites/v/index.jsp?vgnextchannel=bfa48ab43d6bb410VgnVCM100000171f5a0aRCRD&vgnextoid=5f5c832e34353810VgnVCM1000001d4a900aRCRD";"CIDRO";"CALLE";"V";"18";"1";"A";"";"";"MADRID";"MADRID";"28044";"6";"BUENAVISTA";"11";"CARABANCHEL";"436613";"4468639";"40.365916133593274";"-3.746573746167614";"";"";"";"/contenido/entidadesYorganismos/TemplosOtrasReligiones"
7065996;"Iglesia Nueva-Apostólica en España";"Templo evangélico";"";"";"Metro: Arturo Soria (línea 4)    Bus: 11, 70, 120, 122";"";"3";"http://www.madrid.es/sites/v/index.jsp?vgnextchannel=bfa48ab43d6bb410VgnVCM100000171f5a0aRCRD&vgnextoid=429604a5d0260410VgnVCM2000000c205a0aRCRD";"BELISANA";"CALLE";"V";"16";"";"";"";"";"MADRID";"MADRID";"28043";"7";"COLINA";"15";"CIUDAD LINEAL";"444423";"4478824";"40.45823205513727";"-3.6554909202158035";"";"";"";"/contenido/entidadesYorganismos/TemplosOtrasReligiones"
7064568;"Iglesia Peniel Comunidad Cristiana";"Templo evangélico.";"";"";"Metro: García Noblejas (línea 7).  Bus: 28.";"";"3";"http://www.madrid.es/sites/v/index.jsp?vgnextchannel=bfa48ab43d6bb410VgnVCM100000171f5a0aRCRD&vgnextoid=f5e7efba3c850410VgnVCM1000000b205a0aRCRD";"MIGUEL FLETA";"CALLE";"V";"11";"";"";"";"";"MADRID";"MADRID";"28037";"1";"SIMANCAS";"20";"SAN BLAS-CANILLEJAS";"446447";"4475886";"40.431899018146865";"-3.6313654079426474";"";"";"";"/contenido/entidadesYorganismos/TemplosOtrasReligiones"
11770271;"Iglesia Pentecostal Dios es Amor";"Templo evangélico.";"";"";"Metro: Ciudad Líneal (línea 5).  Bus: 109, 113, 38.  Bicimad: Estación 477 (Misterios, 1), 482 (Campuzano, 1).";"";"3";"http://www.madrid.es/sites/v/index.jsp?vgnextchannel=bfa48ab43d6bb410VgnVCM100000171f5a0aRCRD&vgnextoid=ee35659298633810VgnVCM2000001f4a900aRCRD";"ELFO";"CALLE";"V";"158";"";"";"";"";"MADRID";"MADRID";"28027";"3";"QUINTANA";"15";"CIUDAD LINEAL";"445576";"4476533";"40.43766452292309";"-3.6416912216853277";"";"";"";"/contenido/entidadesYorganismos/TemplosOtrasReligiones"
11770206;"Iglesia Pentecostal Unida de España";"Templo evangélico.";"";"";"Metro: Tetuán (línea 1).  Bus: 124, 66, 11  Bicimad: Estación 207 (Calle Azucenas, 1)";"";"3";"http://www.madrid.es/sites/v/index.jsp?vgnextchannel=bfa48ab43d6bb410VgnVCM100000171f5a0aRCRD&vgnextoid=318552deb5633810VgnVCM2000001f4a900aRCRD";"ROBLE";"CALLE";"V";"22";"";"";"";"";"MADRID";"MADRID";"28020";"3";"CASTILLEJOS";"6";"TETUAN";"440910";"4479254";"40.461863237585234";"-3.696957749137178";"";"";"";"/contenido/entidadesYorganismos/TemplosOtrasReligiones"
11745460;"Iglesia Pentecostal Unida de España Pedro Villar 2";"Templo evangélico.";"";"";"Metro: Valdeacederas (línea 1), Tetuán (línea 1).  Bus: 124, 66, 49.     Bicimad: Estación 207 (calle Azucenas, 1).";"";"3";"http://www.madrid.es/sites/v/index.jsp?vgnextchannel=bfa48ab43d6bb410VgnVCM100000171f5a0aRCRD&vgnextoid=9043d69d1fb82810VgnVCM1000001d4a900aRCRD";"PEDRO VILLAR";"CALLE";"V";"2";"";"";"";"";"MADRID";"MADRID";"28020";"3";"CASTILLEJOS";"6";"TETUAN";"440916";"4479343";"40.462666965791996";"-3.6968917477788623";"";"";"";"/contenido/entidadesYorganismos/TemplosOtrasReligiones"
11744858;"Iglesia Pentecostal Unida en Europa";"Templo evangélico.";"";"";"Metro: Oporto (líneas 5 y 7).  Bus: 118, 34, 35.";"";"3";"http://www.madrid.es/sites/v/index.jsp?vgnextchannel=bfa48ab43d6bb410VgnVCM100000171f5a0aRCRD&vgnextoid=093c509625282810VgnVCM1000001d4a900aRCRD";"CUCLILLO";"CALLE";"V";"5";"";"";"";"";"MADRID";"MADRID";"28019";"3";"SAN ISIDRO";"11";"CARABANCHEL";"437963";"4471358";"40.39051783514915";"-3.730942583215076";"";"";"";"/contenido/entidadesYorganismos/TemplosOtrasReligiones"
11777515;"Iglesia Pentecostal Unida en Europa Alar del Rey";"Templo evangélico.";"";"";"Bus: 105, 115, 166  Bicimad: Estación 566 (Avenida de Logroño, 315).";"";"3";"http://www.madrid.es/sites/v/index.jsp?vgnextchannel=bfa48ab43d6bb410VgnVCM100000171f5a0aRCRD&vgnextoid=bc58832e34353810VgnVCM1000001d4a900aRCRD";"ALAR DEL REY";"CALLE";"V";"15";"";"";"";"Local 7";"MADRID";"MADRID";"28042";"4";"TIMON";"21";"BARAJAS";"450553";"4480189";"40.470917522489586";"-3.5833015096292464";"";"";"";"/contenido/entidadesYorganismos/TemplosOtrasReligiones"
7065794;"Iglesia Pentecostal Unida en Europa Rodríguez Espinosa";"";"";"";"Metro: Portazgo (línea 1).  Bus: 10, 57.";"";"3";"http://www.madrid.es/sites/v/index.jsp?vgnextchannel=bfa48ab43d6bb410VgnVCM100000171f5a0aRCRD&vgnextoid=ac0a5ac33d160410VgnVCM2000000c205a0aRCRD";"RODRIGUEZ ESPINOSA";"CALLE";"V";"7";"";"";"";"";"MADRID";"MADRID";"28053";"3";"PALOMERAS BAJAS";"13";"PUENTE DE VALLECAS";"443767";"4471456";"40.39181099596366";"-3.6625705381418894";"";"";"";"/contenido/entidadesYorganismos/TemplosOtrasReligiones"
11028400;"Iglesia Presbiteriana Coreana";"Templo evangélico.";"";"";"Metro: Quitana (línea 5).  Bus: 113.  Bicimad: Estación 232 (calle Jose María de Pereda, 1).";"";"3";"http://www.madrid.es/sites/v/index.jsp?vgnextchannel=bfa48ab43d6bb410VgnVCM100000171f5a0aRCRD&vgnextoid=345103ce1ec6d610VgnVCM1000001d4a900aRCRD";"JOSE MARIA PEREDA";"CALLE";"V";"28";"";"";"";"";"MADRID";"MADRID";"28017";"1";"VENTAS";"15";"CIUDAD LINEAL";"445020";"4475787";"40.43091133149372";"-3.648186676834555";"";"";"";"/contenido/entidadesYorganismos/TemplosOtrasReligiones"
11772388;"Iglesia Presbiteriana Coreana Sarang";"Templo evangélico.";"";"";"Metro: Villa de Valelcas (línea 1).  Bus:  103, 142, 54, 58, 143.   Cercanías Renfe: Vallecas (líneas C2, C7 y Regional).";"";"3";"http://www.madrid.es/sites/v/index.jsp?vgnextchannel=bfa48ab43d6bb410VgnVCM100000171f5a0aRCRD&vgnextoid=bbfefec79ff33810VgnVCM1000001d4a900aRCRD";"VILLACAMPA";"CALLE";"V";"4";"";"";"";"y 6";"MADRID";"MADRID";"28031";"1";"CASCO H.VALLECAS";"18";"VILLA DE VALLECAS";"447111";"4470116";"40.37996165811028";"-3.6230621112736663";"";"";"";"/contenido/entidadesYorganismos/TemplosOtrasReligiones"
12283644;"Iglesia Presbiteriana Renovada de Madrid";"Templo evangélico.";"";"";"Metro: Urgel (línea 5)  Bicimad: Estación 356 (Calle Portalegre, 7)";"";"3";"http://www.madrid.es/sites/v/index.jsp?vgnextchannel=bfa48ab43d6bb410VgnVCM100000171f5a0aRCRD&vgnextoid=e72663f953d8d810VgnVCM2000001f4a900aRCRD";"ALEJANDRO SANCHEZ";"CALLE";"V";"43";"";"";"";"Local 30";"MADRID";"MADRID";"28019";"2";"OPAÑEL";"11";"CARABANCHEL";"438660";"4471324";"40.39026390599229";"-3.7227241389411314";"";"";"";"/contenido/entidadesYorganismos/TemplosOtrasReligiones"
11778211;"Iglesia Recolectora de Jesús";"Templo evangélico.";"";"";"Metro:  Nueva Numancia (línea 1).   Bus:   24, 10, 111, 310.       Bicimad: Estación 227 (calle Arroyo del Olivar, 6).";"";"3";"http://www.madrid.es/sites/v/index.jsp?vgnextchannel=bfa48ab43d6bb410VgnVCM100000171f5a0aRCRD&vgnextoid=9b5b01d196553810VgnVCM1000001d4a900aRCRD";"LUIS LOPEZ";"CALLE";"V";"5";"";"";"";"";"MADRID";"MADRID";"28053";"2";"SAN DIEGO";"13";"PUENTE DE VALLECAS";"443285";"4471544";"40.39257082161804";"-3.668253737993157";"";"";"";"/contenido/entidadesYorganismos/TemplosOtrasReligiones"
11772813;"Iglesia Salvación de Dios";"Templo evangélico.";"";"";"Metro: Menendez Pelayo (línea 1).  Bus: 10, 14, 26, 32, C2  Bicimad: Estación 281 (Paseo Reina Cristina, 6)";"";"3";"http://www.madrid.es/sites/v/index.jsp?vgnextchannel=bfa48ab43d6bb410VgnVCM100000171f5a0aRCRD&vgnextoid=784c6e4d59043810VgnVCM1000001d4a900aRCRD";"REINA CRISTINA";"PASEO";"V";"22";"Baja";"";"";"";"MADRID";"MADRID";"28014";"1";"PACIFICO";"3";"RETIRO";"442188";"4473148";"40.4069410130592";"-3.681330516528051";"";"";"";"/contenido/entidadesYorganismos/TemplosOtrasReligiones"
12281737;"Iglesia Verbo de Vida Madrid";"Templo evangélico.";"";"";"Bus:  108  Bicimad: Estación 369 (Plaza de la Parroquia , 20)";"";"3";"http://www.madrid.es/sites/v/index.jsp?vgnextchannel=bfa48ab43d6bb410VgnVCM100000171f5a0aRCRD&vgnextoid=5973491c5688d810VgnVCM1000001d4a900aRCRD";"TEOBALDO";"CALLE";"V";"1";"";"";"";"";"MADRID";"MADRID";"28025";"5";"PUERTA BONITA";"11";"CARABANCHEL";"436974";"4470091";"40.37902746760061";"-3.742468340913193";"";"";"";"/contenido/entidadesYorganismos/TemplosOtrasReligiones"
7065052;"Iglesia Vida Nueva para las Naciones";"Templo evangélico.";"";"";"Metro: Ascao (línea 7), La Almudena (línea 2).  Bus: 109.  Bicimad: Estación 215 (calle Gutierre de Cetina, 77).";"";"3";"http://www.madrid.es/sites/v/index.jsp?vgnextchannel=bfa48ab43d6bb410VgnVCM100000171f5a0aRCRD&vgnextoid=db313ddd32d50410VgnVCM2000000c205a0aRCRD";"BERASTEGUI";"CALLE";"V";"49";"";"";"";"Local";"MADRID";"MADRID";"28017";"2";"PUEBLO NUEVO";"15";"CIUDAD LINEAL";"445660";"4475379";"40.42727582925555";"-3.640605162273815";"";"";"";"/contenido/entidadesYorganismos/TemplosOtrasReligiones"
11431568;"Iglesia Vidapasionada";"Templo evangélico.";"";"";"Metro: Sol (líneas 1, 2, 3).  Bus: M1, M2, 2  Renfe: Cercanías C3, C4, C4a, C4b  Bicimad: Estación 33 (Calle Carretas, 8).";"";"3";"http://www.madrid.es/sites/v/index.jsp?vgnextchannel=bfa48ab43d6bb410VgnVCM100000171f5a0aRCRD&vgnextoid=c7908000baa7a710VgnVCM1000001d4a900aRCRD";"PUERTA DEL SOL";"PLAZA";"V";"4";"5";"D";"";"";"MADRID";"MADRID";"28013";"6";"SOL";"1";"CENTRO";"440388";"4474237";"40.416626724640494";"-3.702647059429";"";"";"";"/contenido/entidadesYorganismos/TemplosOtrasReligiones"
11431571;"Imagen y Comunicación Protestante (I+CP)";"Templo evangélico.";"";"";"Bus: 87  Bicimad: Estación 541 (Avda. Gran Vía de Hortaleza, 68)";"";"3";"http://www.madrid.es/sites/v/index.jsp?vgnextchannel=bfa48ab43d6bb410VgnVCM100000171f5a0aRCRD&vgnextoid=f5418000baa7a710VgnVCM1000001d4a900aRCRD";"PABLO SERRANO";"CALLE";"V";"9";"";"";"";"Posterior";"MADRID";"MADRID";"28043";"4";"PINAR DEL REY";"16";"HORTALEZA";"445195";"4480070";"40.4695091940147";"-3.6464921220644464";"";"";"";"/contenido/entidadesYorganismos/TemplosOtrasReligiones"
11026103;"Immanuel Baptist Church";"Templo evangélico.";"";"";"Bus: 11, 114, 115, 200, 122, 53.";"";"3";"http://www.madrid.es/sites/v/index.jsp?vgnextchannel=bfa48ab43d6bb410VgnVCM100000171f5a0aRCRD&vgnextoid=0b8db608d026d610VgnVCM2000001f4a900aRCRD";"HERNANDEZ DE TEJADA";"CALLE";"V";"4";"";"";"";"";"MADRID";"MADRID";"28027";"5";"SAN PASCUAL";"15";"CIUDAD LINEAL";"444755";"4477556";"40.44683079932284";"-3.6514595783618526";"";"";"";"/contenido/entidadesYorganismos/TemplosOtrasReligiones"
11431642;"International Church of Jesuschrist Pedro Barreda";"Templo evangélico.";"";"";"Metro: Alvarado (línea 1).  Bus: 127, 44.";"";"3";"http://www.madrid.es/sites/v/index.jsp?vgnextchannel=bfa48ab43d6bb410VgnVCM100000171f5a0aRCRD&vgnextoid=cd448000baa7a710VgnVCM1000001d4a900aRCRD";"PEDRO BARREDA";"CALLE";"V";"7";"Baja";"";"";"";"MADRID";"MADRID";"28039";"1";"BELLAS VISTAS";"6";"TETUAN";"440045";"4477915";"40.4497359607109";"-3.7070326771930344";"";"";"";"/contenido/entidadesYorganismos/TemplosOtrasReligiones"
12281308;"International Church Paseo de la Florida";"Templo evangélico.";"";"";"Metro: Príncipe Pío (Líneas 6, 10 y Ramal)   Bus:   41, 46, 75, 33, 138, 25, 39, 62, C2    Cercanías Renfe:   Príncipe Pío (C1)";"";"3";"http://www.madrid.es/sites/v/index.jsp?vgnextchannel=bfa48ab43d6bb410VgnVCM100000171f5a0aRCRD&vgnextoid=1d03f4530c78d810VgnVCM2000001f4a900aRCRD";"FLORIDA";"PASEO";"V";"2";"";"";"";"Cinesa Príncipe Pío";"MADRID";"MADRID";"28008";"1";"CASA DE CAMPO";"9";"MONCLOA-ARAVACA";"438873";"4474740";"40.42104912150731";"-3.7205417760154664";"";"";"";"/contenido/entidadesYorganismos/TemplosOtrasReligiones"
11772695;"IP-Sacra Metrópolis ortodoxa de España y Portugal";"Templo evangélico.";"";"";"Metro: Colombia (líneas 8, 9)  Bus:  11, 40, 7, 87, 52";"";"3";"http://www.madrid.es/sites/v/index.jsp?vgnextchannel=bfa48ab43d6bb410VgnVCM100000171f5a0aRCRD&vgnextoid=5be36cd533043810VgnVCM1000001d4a900aRCRD";"NICARAGUA";"CALLE";"V";"12";"";"";"";"";"MADRID";"MADRID";"28016";"4";"HISPANOAMERICA";"5";"CHAMARTIN";"442946";"4478760";"40.45755529500435";"-3.672894912820636";"";"";"";"/contenido/entidadesYorganismos/TemplosOtrasReligiones"
11026113;"Jesús es el maestro";"Templo evangélico.";"";"";"Metro: Fuencarral (línea 10).  Bus: 66, 137";"";"3";"http://www.madrid.es/sites/v/index.jsp?vgnextchannel=bfa48ab43d6bb410VgnVCM100000171f5a0aRCRD&vgnextoid=082eb608d026d610VgnVCM2000001f4a900aRCRD";"DIVINA PASTORA";"CALLE";"V";"9";"";"";"";"";"MADRID";"MADRID";"28034";"6";"VALVERDE";"8";"FUENCARRAL-EL PARDO";"441555";"4482835";"40.49416121234154";"-3.689676736162009";"";"";"";"/contenido/entidadesYorganismos/TemplosOtrasReligiones"
12283697;"Kaleo Internacional Madrid";"Templo evangélico.";"";"";"Bus:  49  Metro: Valdeacederas (línea 1)  Bicimad: Estación 297 (Calle Simancas, 2)";"";"3";"http://www.madrid.es/sites/v/index.jsp?vgnextchannel=bfa48ab43d6bb410VgnVCM100000171f5a0aRCRD&vgnextoid=4b2675bef2d8d810VgnVCM1000001d4a900aRCRD";"FRANCISCO CABO";"CALLE";"V";"16";"baja";"";"";"";"MADRID";"MADRID";"28029";"4";"ALMENARA";"6";"TETUAN";"441011";"4479770";"40.46651977411647";"-3.6958098024113943";"";"";"";"/contenido/entidadesYorganismos/TemplosOtrasReligiones"
12281450;"Ministerio Bautista Internacional Madrid";"Templo evangélico.";"";"";"Metro: Ascao (línea 7)  Bus: 28     Bicimad: Estación 491 (calle Esteban Collantes, 63)";"";"3";"http://www.madrid.es/sites/v/index.jsp?vgnextchannel=bfa48ab43d6bb410VgnVCM100000171f5a0aRCRD&vgnextoid=6f3862ec2188d810VgnVCM1000001d4a900aRCRD";"ASCAO";"CALLE";"V";"62";"";"";"";"";"MADRID";"MADRID";"28017";"2";"PUEBLO NUEVO";"15";"CIUDAD LINEAL";"445899";"4475833";"40.43138416943838";"-3.637828569222944";"";"";"";"/contenido/entidadesYorganismos/TemplosOtrasReligiones"
11745341;"Ministerio Internacional el Buen Samaritano";"Templo evangélico.";"";"";"Bus: 103, 111, 144, 24     Bicimad: Estación 423 (Avenida de Entrevías, 56)  Cercanías Renfe: Asamblea de Madrid (líneas C2, C3a, C7";"";"3";"http://www.madrid.es/sites/v/index.jsp?vgnextchannel=bfa48ab43d6bb410VgnVCM100000171f5a0aRCRD&vgnextoid=88c65ecb8b782810VgnVCM1000001d4a900aRCRD";"CARLOS AURIOLES";"CALLE";"V";"42";"1";"DERECHA";"";"";"MADRID";"MADRID";"28018";"2";"SAN DIEGO";"13";"PUENTE DE VALLECAS";"443360";"4470366";"40.381959523033444";"-3.6672746083164753";"";"";"";"/contenido/entidadesYorganismos/TemplosOtrasReligiones"
12281462;"Ministerio Nuevo Hombre";"Templo evangélico.";"";"";"Metro: Cuzco (línea 10)  Bus: 126, 5, 149, 147, 27, 40,   Bicimad: Estación 238 (calle San Germán, 5)  Aparcamiento: Avda. Brasil (entre General Yag&amp;uuml;e y Pedro Texeira. 18)";"";"3";"http://www.madrid.es/sites/v/index.jsp?vgnextchannel=bfa48ab43d6bb410VgnVCM100000171f5a0aRCRD&vgnextoid=631b62ec2188d810VgnVCM1000001d4a900aRCRD";"SAN GERMAN";"CALLE";"V";"10";"";"";"";"";"MADRID";"MADRID";"28020";"3";"CASTILLEJOS";"6";"TETUAN";"441275";"4478650";"40.45644142185909";"-3.69260143029374";"";"";"";"/contenido/entidadesYorganismos/TemplosOtrasReligiones"
11773041;"Ministerio pastoral y misionero por amor a su Cruz";"Templo evangélico.";"";"";"Bus:  177, 49.";"";"3";"http://www.madrid.es/sites/v/index.jsp?vgnextchannel=bfa48ab43d6bb410VgnVCM100000171f5a0aRCRD&vgnextoid=53fd3d647d043810VgnVCM1000001d4a900aRCRD";"SORGO";"CALLE";"V";"56";"";"";"";"";"MADRID";"MADRID";"28029";"5";"VALDEACEDERAS";"6";"TETUAN";"440145";"4479945";"40.468031042847564";"-3.7060431427322893";"";"";"";"/contenido/entidadesYorganismos/TemplosOtrasReligiones"
12283609;"Ministerio Reconciliación y Restauración Yo Soy";"Templo evangélico";"";"";"Metro: Vista Alegre (línea 5)  Bus: 55";"";"3";"http://www.madrid.es/sites/v/index.jsp?vgnextchannel=bfa48ab43d6bb410VgnVCM100000171f5a0aRCRD&vgnextoid=10bd63f953d8d810VgnVCM2000001f4a900aRCRD";"TUCAN";"CALLE";"V";"1";"";"";"";"Local 4";"MADRID";"MADRID";"28025";"4";"VISTA ALEGRE";"11";"CARABANCHEL";"437379";"4471334";"40.39025255838031";"-3.7378161137088908";"";"";"";"/contenido/entidadesYorganismos/TemplosOtrasReligiones"
12283656;"Ministerio Roka Pasión por las Almas";"Templo evangélico.";"";"";"Bus: 116, 121, 131, 155";"";"3";"http://www.madrid.es/sites/v/index.jsp?vgnextchannel=bfa48ab43d6bb410VgnVCM100000171f5a0aRCRD&vgnextoid=623a4aa015d8d810VgnVCM2000001f4a900aRCRD";"POBLADOS";"AVENIDA";"V";"133";"9";"17";"";"";"MADRID";"MADRID";"28025";"7";"ABRANTES";"11";"CARABANCHEL";"438259";"4469475";"40.373576610158565";"-3.7272697213952637";"";"";"";"/contenido/entidadesYorganismos/TemplosOtrasReligiones"
11778146;"Misión Carismática Internacional";"Templo evangélico.";"";"";"Metro: Las Tablas (línea ML1).   Bus:   150, 174.    Cercanías Renfe:   Fuente de la Mora (líneas C1, C2 y C10).";"";"3";"http://www.madrid.es/sites/v/index.jsp?vgnextchannel=bfa48ab43d6bb410VgnVCM100000171f5a0aRCRD&vgnextoid=a62a37f775553810VgnVCM1000001d4a900aRCRD";"RABANAL DEL CAMINO";"CALLE";"V";"9";"";"6-1";"";"";"MADRID";"MADRID";"28050";"6";"VALVERDE";"8";"FUENCARRAL-EL PARDO";"442916";"4484407";"40.50842533620422";"-3.6737581285053764";"";"";"";"/contenido/entidadesYorganismos/TemplosOtrasReligiones"
11745535;"Misión Evangélica Urbana";"Templo evangélico.";"";"";"Bus: M1  Metro: Tirso de Molina (Línea 1)  Bicimad: Estación 43 (Calle Lavapiés, 34)";"";"3";"http://www.madrid.es/sites/v/index.jsp?vgnextchannel=bfa48ab43d6bb410VgnVCM100000171f5a0aRCRD&vgnextoid=cad1b83607c82810VgnVCM1000001d4a900aRCRD";"CALVARIO";"CALLE";"V";"12";"";"";"";"";"MADRID";"MADRID";"28012";"2";"EMBAJADORES";"1";"CENTRO";"440415";"4473663";"40.41145685017254";"-3.702266928516734";"";"";"";"/contenido/entidadesYorganismos/TemplosOtrasReligiones"
11431636;"Movimiento Misionero Mundial";"Templo evangélico.";"";"";"Bus:   102, 24.   Cercanías Renfe: Asamblea de Madrid Entrevías (líneas C2, C3a, C7 y Regional).";"";"3";"http://www.madrid.es/sites/v/index.jsp?vgnextchannel=bfa48ab43d6bb410VgnVCM100000171f5a0aRCRD&vgnextoid=92148000baa7a710VgnVCM1000001d4a900aRCRD";"PUERTO DE BALBARAN";"CALLE";"V";"1";"";"";"";"Nave 15";"MADRID";"MADRID";"28053";"2";"SAN DIEGO";"13";"PUENTE DE VALLECAS";"443101";"4470776";"40.38563584770177";"-3.6703623065428563";"";"";"";"/contenido/entidadesYorganismos/TemplosOtrasReligiones"
11770282;"Movimiento Misionero Mundial calle Germán Pérez Carrasco 92";"Templo evangélico.";"";"";"Metro: Ciudad Líneal (línea 5).  Bus: 109, 113, 38, 104, 4, 77, 48, 70.";"";"3";"http://www.madrid.es/sites/v/index.jsp?vgnextchannel=bfa48ab43d6bb410VgnVCM100000171f5a0aRCRD&vgnextoid=a078c6398a633810VgnVCM2000001f4a900aRCRD";"GERMAN PEREZ CARRASCO";"CALLE";"V";"92";"";"";"";"";"MADRID";"MADRID";"28027";"3";"QUINTANA";"15";"CIUDAD LINEAL";"445679";"4476534";"40.437683474255266";"-3.640483215376134";"";"";"";"/contenido/entidadesYorganismos/TemplosOtrasReligiones"
11771462;"Movimiento Misionero Mundial Sambara 167";"Templo evangélico.";"";"";"Metro: Ciudad Líneal (línea 5).  Bus: 109, 113, 38.";"";"3";"http://www.madrid.es/sites/v/index.jsp?vgnextchannel=bfa48ab43d6bb410VgnVCM100000171f5a0aRCRD&vgnextoid=d250efa872b33810VgnVCM1000001d4a900aRCRD";"SAMBARA";"CALLE";"V";"167";"";"";"";"";"MADRID";"MADRID";"28027";"3";"QUINTANA";"15";"CIUDAD LINEAL";"445616";"4476627";"40.43851402923929";"-3.6412284927425222";"";"";"";"/contenido/entidadesYorganismos/TemplosOtrasReligiones"
12284604;"Nuevas Fronteras Madrid";"Templo evangélico.";"";"";"Metro: Valdezarza (línea 7).  Bus: 126, 128";"";"3";"http://www.madrid.es/sites/v/index.jsp?vgnextchannel=bfa48ab43d6bb410VgnVCM100000171f5a0aRCRD&vgnextoid=916d37f2adc9d810VgnVCM2000001f4a900aRCRD";"VALLE DE CACHEMIRA";"CALLE";"V";"28";"SEMISOTANO";"";"";"";"MADRID";"MADRID";"28039";"4";"VALDEZARZA";"9";"MONCLOA-ARAVACA";"439515";"4479747";"40.466201838360924";"-3.713456156309851";"";"";"";"/contenido/entidadesYorganismos/TemplosOtrasReligiones"
12283932;"Orden Religiosa Comunidad Apostólica Misionera";"Templo evangélico.";"";"";"Bus: 108, 118";"";"3";"http://www.madrid.es/sites/v/index.jsp?vgnextchannel=bfa48ab43d6bb410VgnVCM100000171f5a0aRCRD&vgnextoid=5a0be7978dd8d810VgnVCM1000001d4a900aRCRD";"SECOYA";"CALLE";"V";"18";"3";"";"";"";"MADRID";"MADRID";"28044";"6";"BUENAVISTA";"11";"CARABANCHEL";"436762";"4469033";"40.36948386820239";"-3.744863153558721";"";"";"";"/contenido/entidadesYorganismos/TemplosOtrasReligiones"
3742;"Primera Iglesia Evangélica Bautista de Madrid";"Templo evangélico";"";"";"Metro: Palos de la Frontera (línea 3)  Bus: 8, 47, 55, 102, 247, 19, 59, 6, 85, 86, E1, 27  Renfe: Atocha Renfe  BICIMAD: Estación 273 (calle Delicias, 45)";"";"3";"http://www.madrid.es/sites/v/index.jsp?vgnextchannel=bfa48ab43d6bb410VgnVCM100000171f5a0aRCRD&vgnextoid=ede51e79ee71c010VgnVCM1000000b205a0aRCRD";"GENERAL LACY";"CALLE";"V";"18";"";"";"";"";"MADRID";"MADRID";"28045";"6";"PALOS DE LA FRONTERA";"2";"ARGANZUELA";"441371";"4472783";"40.40359707134785";"-3.6909181560446576";"";"";"";"/contenido/entidadesYorganismos/TemplosOtrasReligiones"
11772738;"Punto de Encuentro Calle Resina";"Templo evangélico.";"";"";"Bus: 79.";"";"3";"http://www.madrid.es/sites/v/index.jsp?vgnextchannel=bfa48ab43d6bb410VgnVCM100000171f5a0aRCRD&vgnextoid=9af66cd533043810VgnVCM1000001d4a900aRCRD";"RESINA";"CALLE";"V";"13";"1";"";"";"Nave 1.1";"MADRID";"MADRID";"28021";"1";"VILLAVERDE ALTO C.H.";"17";"VILLAVERDE";"440712";"4465270";"40.33587371620533";"-3.697986972585755";"";"";"";"/contenido/entidadesYorganismos/TemplosOtrasReligiones"
12283893;"Real Life Calle Alcorisa";"Templo evangélico.";"";"";"Bus:  73  Metro: Canillas (línea 4)";"";"3";"http://www.madrid.es/sites/v/index.jsp?vgnextchannel=bfa48ab43d6bb410VgnVCM100000171f5a0aRCRD&vgnextoid=e9ad508ccbd8d810VgnVCM1000001d4a900aRCRD";"ALCORISA";"CALLE";"V";"77";"1";"B";"";"";"MADRID";"MADRID";"28043";"3";"CANILLAS";"16";"HORTALEZA";"445691";"4479459";"40.464034233509025";"-3.6405898943267125";"";"";"";"/contenido/entidadesYorganismos/TemplosOtrasReligiones"
11768931;"Sociedad Bíblica de España";"Templo evangélico.";"";"";"Metro: Palos de la Frontera (Línea 3)  Bus: 102, 8  Bicimad: Estación 273 (Calle Delicias, 45)";"";"3";"http://www.madrid.es/sites/v/index.jsp?vgnextchannel=bfa48ab43d6bb410VgnVCM100000171f5a0aRCRD&vgnextoid=46b58f0261133810VgnVCM1000001d4a900aRCRD";"GENERAL LACY";"CALLE";"V";"7";"";"";"";"";"MADRID";"MADRID";"28045";"6";"PALOS DE LA FRONTERA";"2";"ARGANZUELA";"441405";"4472778";"40.403559497921776";"-3.6905269925378845";"";"";"";"/contenido/entidadesYorganismos/TemplosOtrasReligiones"
7064921;"Templo Evangélico Comunidad de Oración";"Templo evangélico.";"";"";"Metro: El Carmen (línea 5)  Bus: 106, 146, 38";"";"3";"http://www.madrid.es/sites/v/index.jsp?vgnextchannel=bfa48ab43d6bb410VgnVCM100000171f5a0aRCRD&vgnextoid=646b0ac0dfc50410VgnVCM2000000c205a0aRCRD";"BENIDORM";"CALLE";"V";"17";"";"";"";"";"MADRID";"MADRID";"28017";"1";"VENTAS";"15";"CIUDAD LINEAL";"444444";"4475817";"40.43113872141274";"-3.6549797237044177";"";"";"";"/contenido/entidadesYorganismos/TemplosOtrasReligiones"
189403;"Testigos Cristianos de Jehová. Avenida de Moratalaz";"";"";"";"Metro: Artilleros (línea 9)  Bus: 32  Bicimad: Estación 219 (Camino de Vinateros, 108)";"";"3";"http://www.madrid.es/sites/v/index.jsp?vgnextchannel=bfa48ab43d6bb410VgnVCM100000171f5a0aRCRD&vgnextoid=3104784e0cc4f010VgnVCM2000000c205a0aRCRD";"MORATALAZ";"AVENIDA";"V";"143";"Bajo";"12";"";"Acceso por la parte posterior";"MADRID";"MADRID";"28030";"3";"MARROQUINA";"14";"MORATALAZ";"445011";"4473146";"40.40711568603655";"-3.6480628737257152";"914 377 284";"";"";"/contenido/entidadesYorganismos/TemplosOtrasReligiones"
189353;"Testigos Cristianos de Jehová. Calle Arroyo";"";"";"";"Metro: Ventilla (línea 9)  Bus: 49, 177  Bicimad: 302 (Paseo de la Dirección, frente 297)";"";"3";"http://www.madrid.es/sites/v/index.jsp?vgnextchannel=bfa48ab43d6bb410VgnVCM100000171f5a0aRCRD&vgnextoid=a823784e0cc4f010VgnVCM2000000c205a0aRCRD";"ARROYO";"CALLE";"V";"23";"BAJO";"";"";"";"MADRID";"MADRID";"28029";"5";"VALDEACEDERAS";"6";"TETUAN";"440445";"4480138";"40.469794127035556";"-3.7025193184957064";"913 140 296";"";"";"/contenido/entidadesYorganismos/TemplosOtrasReligiones"
189354;"Testigos Cristianos de Jehová. Calle Artistas";"";"";"";"Metro: Cuatro Caminos (líneas 1, 2, 6)  Bus: 149, C2, C1, 66, 124  Bicimad: Estación 133 (calle Raimundo Fernández Villaverde, 33)  Aparcamiento: Hernani (29), calle Hernani (entre calle Orense y Comandante Zorita) / Condesa de Gavia (10), Plaza Condesa de Gavia";"";"3";"http://www.madrid.es/sites/v/index.jsp?vgnextchannel=bfa48ab43d6bb410VgnVCM100000171f5a0aRCRD&vgnextoid=0e33784e0cc4f010VgnVCM2000000c205a0aRCRD";"ARTISTAS";"CALLE";"V";"22";"BAJO";"A";"";"";"MADRID";"MADRID";"28020";"2";"CUATRO CAMINOS";"6";"TETUAN";"440510";"4477640";"40.447294684873555";"-3.701520258171222";"915 337 233";"";"";"/contenido/entidadesYorganismos/TemplosOtrasReligiones"
5713730;"Testigos Cristianos de Jehová. Calle Carrascales";"";"";"";"Metro: Usera (línea 6)  Bus: 6  Bicimad: 387 (Isabelita Usera, 44)";"";"3";"http://www.madrid.es/sites/v/index.jsp?vgnextchannel=bfa48ab43d6bb410VgnVCM100000171f5a0aRCRD&vgnextoid=13c13b49d7619210VgnVCM2000000c205a0aRCRD";"CARRASCALES";"CALLE";"V";"12";"BAJA";"1 derecha";"";"";"MADRID";"MADRID";"28026";"7";"PRADOLONGO";"12";"USERA";"439885";"4470346";"40.381535936539606";"-3.708201599323736";"914 768 456";"";"";"/contenido/entidadesYorganismos/TemplosOtrasReligiones"
189389;"Testigos Cristianos de Jehová. Calle Chantada";"";"";"";"Metro: Peñagrande (línea 7)  Bus: 42, SE727  Bicimad: 599 (Calle La Cabrera, sn)";"";"3";"http://www.madrid.es/sites/v/index.jsp?vgnextchannel=bfa48ab43d6bb410VgnVCM100000171f5a0aRCRD&vgnextoid=f493784e0cc4f010VgnVCM2000000c205a0aRCRD";"CHANTADA";"CALLE";"V";"41";"";"Bajo 6";"";"Acceso por la parte posterior";"MADRID";"MADRID";"28035";"3";"PEÑA GRANDE";"8";"FUENCARRAL-EL PARDO";"439327";"4480509";"40.47305139608296";"-3.7157508107264734";"913 737 210";"";"";"/contenido/entidadesYorganismos/TemplosOtrasReligiones"
189398;"Testigos Cristianos de Jehová. Calle Doctor Gómez Ulla";"";"";"";"Metro: Manuel Becerra (líneas 2, 6)  Bus: 106, 110, 146, 21, 210, 38, 53, 12, 43, 56, C2, E5";"";"3";"http://www.madrid.es/sites/v/index.jsp?vgnextchannel=bfa48ab43d6bb410VgnVCM100000171f5a0aRCRD&vgnextoid=11c3784e0cc4f010VgnVCM2000000c205a0aRCRD";"DOCTOR GOMEZ ULLA";"CALLE";"V";"16";"BAJA";"IZQUIERDA";"";"";"MADRID";"MADRID";"28028";"4";"GUINDALERA";"4";"SALAMANCA";"443379";"4475698";"40.42999707318414";"-3.6675214075362943";"917 253 649";"";"";"/contenido/entidadesYorganismos/TemplosOtrasReligiones"
189402;"Testigos Cristianos de Jehová. Calle Guamo";"";"";"";"Metro: San Lorenzo (línea 4)  Bus: 72, T11  Bicimad: 545 (Zapatoca, 8)";"";"3";"http://www.madrid.es/sites/v/index.jsp?vgnextchannel=bfa48ab43d6bb410VgnVCM100000171f5a0aRCRD&vgnextoid=dbe3784e0cc4f010VgnVCM2000000c205a0aRCRD";"GUAMO";"CALLE";"V";"2";"Baja";"1 bis";"";"";"MADRID";"MADRID";"28033";"4";"PINAR DEL REY";"16";"HORTALEZA";"446342";"4480387";"40.472431527863144";"-3.6329821222955134";"917 644 305";"";"";"/contenido/entidadesYorganismos/TemplosOtrasReligiones"
189356;"Testigos Cristianos de Jehová. Calle Hilario Sangrador";"";"";"";"Bus: 31, 33, 36, 39, 65    Metro: Alto de Extremadura (línea 6)";"";"3";"http://www.madrid.es/sites/v/index.jsp?vgnextchannel=bfa48ab43d6bb410VgnVCM100000171f5a0aRCRD&vgnextoid=1673784e0cc4f010VgnVCM2000000c205a0aRCRD";"HILARIO SANGRADOR";"CALLE";"V";"8";"BAJA";"IZQUIERDA";"";"";"MADRID";"MADRID";"28011";"3";"LUCERO";"10";"LATINA";"436999";"4473304";"40.40797022799052";"-3.7424877835210677";"914 794 301";"";"";"/contenido/entidadesYorganismos/TemplosOtrasReligiones"
189404;"Testigos Cristianos de Jehová. Calle Jacobinia";"";"";"";"Bus: 121, 131, 139    Metro: Carabanchel Alto (línea 11)    Bicimad: 382-2 (Parque Eugenia de Montijo, 2)";"";"3";"http://www.madrid.es/sites/v/index.jsp?vgnextchannel=bfa48ab43d6bb410VgnVCM100000171f5a0aRCRD&vgnextoid=9614784e0cc4f010VgnVCM2000000c205a0aRCRD";"JACOBINIA";"CALLE";"V";"70";"";"";"";"";"MADRID";"MADRID";"28047";"4";"VISTA ALEGRE";"11";"CARABANCHEL";"436009";"4469937";"40.3775703380589";"-3.7538174378707603";"914 622 474";"";"";"/contenido/entidadesYorganismos/TemplosOtrasReligiones"
5713929;"Testigos Cristianos de Jehová. Calle Las Pedroñeras";"";"";"";"Bus: 104, 171, T11";"";"3";"http://www.madrid.es/sites/v/index.jsp?vgnextchannel=bfa48ab43d6bb410VgnVCM100000171f5a0aRCRD&vgnextoid=2ae45159bd619210VgnVCM2000000c205a0aRCRD";"LAS PEDROÑERAS";"CALLE";"V";"46";"BAJO";"LOCAL";"";"";"MADRID";"MADRID";"28043";"3";"CANILLAS";"16";"HORTALEZA";"446518";"4479828";"40.46741456342943";"-3.6308642589257762";"917 597 002";"";"";"/contenido/entidadesYorganismos/TemplosOtrasReligiones"
5713667;"Testigos Cristianos de Jehová. Calle Luis Ruiz";"";"";"";"Metro: García Noblejas (línea 7)  Bus: 28";"";"3";"http://www.madrid.es/sites/v/index.jsp?vgnextchannel=bfa48ab43d6bb410VgnVCM100000171f5a0aRCRD&vgnextoid=c9a65068d6619210VgnVCM2000000c205a0aRCRD";"LUIS RUIZ";"CALLE";"V";"75";"";"PUERTA 19";"";"";"MADRID";"MADRID";"28017";"2";"PUEBLO NUEVO";"15";"CIUDAD LINEAL";"446046";"4475461";"40.42803987997734";"-3.6360539773826583";"913 759 717";"";"";"/contenido/entidadesYorganismos/TemplosOtrasReligiones"
189415;"Testigos Cristianos de Jehová. Calle Marcudos";"";"";"";"Metro: Usera (línea 6)  Bus: 23, 6, 78, 247, 47  Bicimad: 213 (Calle de Antonio López, 129)";"";"3";"http://www.madrid.es/sites/v/index.jsp?vgnextchannel=bfa48ab43d6bb410VgnVCM100000171f5a0aRCRD&vgnextoid=1c64784e0cc4f010VgnVCM2000000c205a0aRCRD";"MARCUDOS";"CALLE";"V";"4";"BAJO";"3";"";"";"MADRID";"MADRID";"28026";"5";"MOSCARDO";"12";"USERA";"440442";"4471118";"40.3885347411647";"-3.7017137262011612";"917 921 135";"";"";"/contenido/entidadesYorganismos/TemplosOtrasReligiones"
189957;"Testigos Cristianos de Jehová. Calle Martín de Vargas";"";"";"";"Metro: Embajadores (línea 3), Acacias (línea 5)  Bus: 148, 60, 78  Renfe: Embajadores (C5)  Bicimad: Estación 121 (Paseo de Santa María de la Cabeza, 58)";"";"3";"http://www.madrid.es/sites/v/index.jsp?vgnextchannel=bfa48ab43d6bb410VgnVCM100000171f5a0aRCRD&vgnextoid=d0ea6dd8f677f010VgnVCM2000000c205a0aRCRD";"MARTIN DE VARGAS";"CALLE";"V";"26";"BAJA";"B derecha";"";"";"MADRID";"MADRID";"28005";"2";"ACACIAS";"2";"ARGANZUELA";"440453";"4472665";"40.40247522766419";"-3.7017248282067485";"915 176 543";"";"";"/contenido/entidadesYorganismos/TemplosOtrasReligiones"
11432584;"Testigos Cristianos de Jehová. Calle Martín Martínez";"";"";"";"Metro: Alfonso XIII (línea 4)  Bus: 73, 9";"";"3";"http://www.madrid.es/sites/v/index.jsp?vgnextchannel=bfa48ab43d6bb410VgnVCM100000171f5a0aRCRD&vgnextoid=d9fe71649908a710VgnVCM1000001d4a900aRCRD";"MARTIN MARTINEZ";"CALLE";"V";"4";"BAJO";"2";"";"";"MADRID";"MADRID";"28002";"3";"CIUDAD JARDIN";"5";"CHAMARTIN";"442958";"4477570";"40.446837359952966";"-3.6726508650238014";"914 169 439";"";"";"/contenido/entidadesYorganismos/TemplosOtrasReligiones"
189410;"Testigos Cristianos de Jehová. Calle Puerto de Pozazal";"";"";"";"Bus: 130, T31    Renfe: Vallecas (C2)    Metro: Sierra de Guadalupe (línea 1)";"";"3";"http://www.madrid.es/sites/v/index.jsp?vgnextchannel=bfa48ab43d6bb410VgnVCM100000171f5a0aRCRD&vgnextoid=458e813cbcc4f010VgnVCM1000000b205a0aRCRD";"PUERTO DE POZAZAL";"CALLE";"V";"1";"";"C";"";"";"MADRID";"MADRID";"28031";"1";"CASCO H.VALLECAS";"18";"VILLA DE VALLECAS";"446602";"4470060";"40.37941646005946";"-3.6290466363105374";"911 386 417";"";"";"/contenido/entidadesYorganismos/TemplosOtrasReligiones"
189966;"Testigos Cristianos de Jehová. Calle San Moisés";"";"";"";"Bus: 57, 103, 111, 144  Renfe: Asamblea de Madrid, Entrevías (C2)";"";"3";"http://www.madrid.es/sites/v/index.jsp?vgnextchannel=bfa48ab43d6bb410VgnVCM100000171f5a0aRCRD&vgnextoid=e73b6dd8f677f010VgnVCM2000000c205a0aRCRD";"SAN MOISES";"CALLE";"V";"39";"BAJA";"B";"";"";"MADRID";"MADRID";"28018";"2";"SAN DIEGO";"13";"PUENTE DE VALLECAS";"443504";"4470379";"40.3820872643415";"-3.665571993347034";"915 157 133";"";"";"/contenido/entidadesYorganismos/TemplosOtrasReligiones"
189351;"Testigos Cristianos de Jehová. Calle Venancio Martín";"";"";"";"Metro: Nueva Numancia (línea 1)  Bus: 141  Bicimad: Estación 226 (Camino de Valderribas, 94)";"";"3";"http://www.madrid.es/sites/v/index.jsp?vgnextchannel=bfa48ab43d6bb410VgnVCM100000171f5a0aRCRD&vgnextoid=2903784e0cc4f010VgnVCM2000000c205a0aRCRD";"VENANCIO MARTIN";"CALLE";"V";"19";"BAJA";"2";"";"";"MADRID";"MADRID";"28038";"6";"NUMANCIA";"13";"PUENTE DE VALLECAS";"443866";"4472138";"40.39795693468528";"-3.6614640804740857";"914 399 065";"";"";"/contenido/entidadesYorganismos/TemplosOtrasReligiones"
11745450;"The Korea Assemblies of God Full Gospel Madrid Som";"Templo evangélico.";"";"";"Metro: Cuatro Caminos (líneas 1, 2 y 6)  Bus: 149, C2     Bicimad: Estación 133 (calle Raimundo Fernández Villaverde, 33)";"";"3";"http://www.madrid.es/sites/v/index.jsp?vgnextchannel=bfa48ab43d6bb410VgnVCM100000171f5a0aRCRD&vgnextoid=37a2d69d1fb82810VgnVCM1000001d4a900aRCRD";"HERNANI";"CALLE";"V";"34";"";"";"";"Local 4";"MADRID";"MADRID";"28020";"2";"CUATRO CAMINOS";"6";"TETUAN";"440586";"4477736";"40.448161490124384";"-3.7006356397364564";"";"";"";"/contenido/entidadesYorganismos/TemplosOtrasReligiones"
11744837;"Unión de Iglesias Cristianas Adventistas del 7.º día. Alejandro Sánchez 49";"Templo evangélico.";"";"";"Metro: Urgel (línea 5).  Bus: 118.  Bicimad: Estaciones 356 (calle Portalegre, 7), 353 (calle Mercedes Arteaga, 21).";"";"3";"http://www.madrid.es/sites/v/index.jsp?vgnextchannel=bfa48ab43d6bb410VgnVCM100000171f5a0aRCRD&vgnextoid=ddec7177f1282810VgnVCM1000001d4a900aRCRD";"ALEJANDRO SANCHEZ";"CALLE";"V";"49";"";"";"";"";"MADRID";"MADRID";"28019";"2";"OPAÑEL";"11";"CARABANCHEL";"438715";"4471312";"40.39015896044393";"-3.7220735760780994";"";"";"";"/contenido/entidadesYorganismos/TemplosOtrasReligiones"
11431653;"Unión de Iglesias Cristianas Adventistas del 7º día Doctor Bellido 13";"Templo evangélico.";"";"";"Bus:  103, 11, 144.   Cercanías Renfe: Asamblea de Madrid Entrevías (líneas C2 y C7).  Bicimad: Estación 418 (calle Puerto de Arlaban, 83).";"";"3";"http://www.madrid.es/sites/v/index.jsp?vgnextchannel=bfa48ab43d6bb410VgnVCM100000171f5a0aRCRD&vgnextoid=e0f48000baa7a710VgnVCM1000001d4a900aRCRD";"DOCTOR BELLIDO";"CALLE";"V";"13";"";"LOCAL";"";"";"MADRID";"MADRID";"28018";"2";"SAN DIEGO";"13";"PUENTE DE VALLECAS";"443352";"4470675";"40.384743037956014";"-3.667388786715533";"";"";"";"/contenido/entidadesYorganismos/TemplosOtrasReligiones"
7064614;"Unión de Iglesias Cristianas Adventistas del 7º día. Alenza, 6";"";"";"";"Metro: Rios Rosas (línea 1), Cuatro Caminos (líneas 1, 2 y 6).  Bus: 45, 12, 149, 3, 37.  Bicimad: Estación 130 (calle Santa Engracia, 127).";"";"3";"http://www.madrid.es/sites/v/index.jsp?vgnextchannel=bfa48ab43d6bb410VgnVCM100000171f5a0aRCRD&vgnextoid=5c77b8d07d850410VgnVCM1000000b205a0aRCRD";"ALENZA";"CALLE";"V";"6";"";"";"";"";"MADRID";"MADRID";"28003";"5";"RIOS ROSAS";"7";"CHAMBERI";"440594";"4477227";"40.443575443757055";"-3.700489559324882";"";"";"";"/contenido/entidadesYorganismos/TemplosOtrasReligiones"
11768905;"Unión de Iglesias Cristianas Adventistas del 7º día. Austria 2";"Templo evangélico.";"";"";"Metro: Las Rosas (línea 2).  Bus: 153, 38.";"";"3";"http://www.madrid.es/sites/v/index.jsp?vgnextchannel=bfa48ab43d6bb410VgnVCM100000171f5a0aRCRD&vgnextoid=44f38f0261133810VgnVCM1000001d4a900aRCRD";"AUSTRIA";"CALLE";"V";"2";"";"";"";"";"MADRID";"MADRID";"28022";"5";"ROSAS";"20";"SAN BLAS-CANILLEJAS";"448422";"4475079";"40.424745913913924";"-3.6080217648238966";"";"";"";"/contenido/entidadesYorganismos/TemplosOtrasReligiones"
7065947;"Unión de Iglesias Cristianas Adventistas del 7º día. Calle Hermanos Gómez 32";"Templo evangélico.";"";"";"Metro: Quintana (línea 5), La Elipa (línea 2).  Bus: 106, 113 ,28.  Bicimad: Estación 232 (calle José María de Pereda, 1).";"";"3";"http://www.madrid.es/sites/v/index.jsp?vgnextchannel=bfa48ab43d6bb410VgnVCM100000171f5a0aRCRD&vgnextoid=c944f181df160410VgnVCM2000000c205a0aRCRD";"HERMANOS GOMEZ";"CALLE";"V";"32";"";"";"";"";"MADRID";"MADRID";"28017";"1";"VENTAS";"15";"CIUDAD LINEAL";"444879";"4475715";"40.43025079764197";"-3.649838033163314";"";"";"";"/contenido/entidadesYorganismos/TemplosOtrasReligiones"
11778015;"Unión de Iglesias Cristianas Adventistas del 7º día. Calle Los Yébenes 255";"Templo evangélico.";"";"";"Metro: Eugenia de Montijo (línea 5).   Bus:   31.";"";"3";"http://www.madrid.es/sites/v/index.jsp?vgnextchannel=bfa48ab43d6bb410VgnVCM100000171f5a0aRCRD&vgnextoid=9988a62150553810VgnVCM1000001d4a900aRCRD";"LOS YEBENES";"CALLE";"V";"255";"";"";"";"";"MADRID";"MADRID";"28047";"4";"ALUCHE";"10";"LATINA";"436212";"4471257";"40.38947474678948";"-3.751562379802795";"";"";"";"/contenido/entidadesYorganismos/TemplosOtrasReligiones"
11744860;"Unión de Iglesias Cristianas Adventistas del 7º día. Doctor Zofío 4";"Templo evangélico.";"";"";"Metro: Carpetana (línea 6).  Bus: 17, 25.     Bicimad: Estación 359 (calle El Toboso, 115).";"";"3";"http://www.madrid.es/sites/v/index.jsp?vgnextchannel=bfa48ab43d6bb410VgnVCM100000171f5a0aRCRD&vgnextoid=d07c509625282810VgnVCM1000001d4a900aRCRD";"DOCTOR ZOFIO";"CALLE";"V";"4";"";"";"";"";"MADRID";"MADRID";"28019";"3";"SAN ISIDRO";"11";"CARABANCHEL";"437355";"4471841";"40.3948228497844";"-3.738156333879843";"";"";"";"/contenido/entidadesYorganismos/TemplosOtrasReligiones"
11745509;"Unión de Mujeres Evangélicas";"Templo evangélico.";"";"";"Bus: 87  Bicimad: Estación 541 (Avda. Gran Vía de Hortaleza, 68)";"";"3";"http://www.madrid.es/sites/v/index.jsp?vgnextchannel=bfa48ab43d6bb410VgnVCM100000171f5a0aRCRD&vgnextoid=003db83607c82810VgnVCM1000001d4a900aRCRD";"PABLO SERRANO";"CALLE";"V";"9";"";"";"";"Posterior";"MADRID";"MADRID";"28043";"4";"PINAR DEL REY";"16";"HORTALEZA";"445195";"4480070";"40.4695091940147";"-3.6464921220644464";"";"";"";"/contenido/entidadesYorganismos/TemplosOtrasReligiones"
11773010;"Yoido Full Gospel Madrid Church";"Templo evangélico.";"";"";"Metro: Valdezarza (línea 7), Francos Rodríguez (línea 7).  Bus: 128, 44.";"";"3";"http://www.madrid.es/sites/v/index.jsp?vgnextchannel=bfa48ab43d6bb410VgnVCM100000171f5a0aRCRD&vgnextoid=398b3d647d043810VgnVCM1000001d4a900aRCRD";"OFELIA NIETO";"CALLE";"V";"43";"Bajo";"";"";"";"MADRID";"MADRID";"28039";"4";"VALDEZARZA";"9";"MONCLOA-ARAVACA";"439837";"4479117";"40.46055142835657";"-3.709604761566092";"";"";"";"/contenido/entidadesYorganismos/TemplosOtrasReligiones"
12283594;"Zona de Madrid de la Iglesia Evangélica de Filadelfia Orcasur";"Templo evangélico.";"";"";"Bus: 116, 76     Cercanías Renfe: Orcasitas (línea C5)";"";"3";"http://www.madrid.es/sites/v/index.jsp?vgnextchannel=bfa48ab43d6bb410VgnVCM100000171f5a0aRCRD&vgnextoid=42630cc351d8d810VgnVCM2000001f4a900aRCRD";"ORCASUR";"AVENIDA";"V";"";"";"";"";"";"MADRID";"MADRID";"28041";"2";"ORCASUR";"12";"USERA";"440524";"4469103";"40.37038369702176";"-3.700562736556573";"";"";"";"/contenido/entidadesYorganismos/TemplosOtrasReligiones"
11431454;"'Iglesia de Cristo (I.E.E.)";"Templo evangélico";"";"";"Metro: Cuatro Caminos (líneas 1, 2, 6)  Bus: 37, 149, 3, 45  Bicimad: Estación 132 (calle Santa Engracia, 168)";"";"3";"http://www.madrid.es/sites/v/index.jsp?vgnextchannel=bfa48ab43d6bb410VgnVCM100000171f5a0aRCRD&vgnextoid=b1d4b5d56867a710VgnVCM1000001d4a900aRCRD";"BRAVO MURILLO";"CALLE";"V";"85";"";"";"";"";"MADRID";"MADRID";"28003";"6";"VALLEHERMOSO";"7";"CHAMBERI";"440280";"4477381";"40.44493824188452";"-3.70421024880097";"";"";"";"/contenido/entidadesYorganismos/TemplosOtrasReligiones"

