PK;NOMBRE;DESCRIPCION-ENTIDAD;HORARIO;EQUIPAMIENTO;TRANSPORTE;DESCRIPCION;ACCESIBILIDAD;CONTENT-URL;NOMBRE-VIA;CLASE-VIAL;TIPO-NUM;NUM;PLANTA;PUERTA;ESCALERAS;ORIENTACION;LOCALIDAD;PROVINCIA;CODIGO-POSTAL;COD-BARRIO;BARRIO;COD-DISTRITO;DISTRITO;COORDENADA-X;COORDENADA-Y;LATITUD;LONGITUD;TELEFONO;FAX;EMAIL;TIPO
7191232;"Ángeles Urbanos Hortaleza, centro ocupacional para personas con discapacidad intelectual";"";"";"Centro ocupacional para personas con discapacidad intelectual.";"Metro: Canillas (línea 4)  Bus: 73, 120";"";"3";"http://www.madrid.es/sites/v/index.jsp?vgnextchannel=bfa48ab43d6bb410VgnVCM100000171f5a0aRCRD&vgnextoid=b9848f0794072410VgnVCM1000000b205a0aRCRD";"JOSE ALVAREZ DE TOLEDO";"CALLE";"V";"6";"Baja";"";"";"";"MADRID";"MADRID";"28043";"2";"PIOVERA";"16";"HORTALEZA";"446656";"4479258";"40.4622896632514";"-3.6291868399298917";"911 558 200";"";"";"/contenido/entidadesYorganismos/CentrosAtencionSocialPersonasDiscapacidad/CentrosOcupacionalesPersonasDiscapacidad"
11156077;"APAM Centro de rehabilitación";"";"";"Centro de rehabilitación para personas con discapacidad física.";"Metro: Alvarado (línea 1)  Bus: 5, 149, 43, 124, 128, 3, 64, 66";"";"3";"http://www.madrid.es/sites/v/index.jsp?vgnextchannel=bfa48ab43d6bb410VgnVCM100000171f5a0aRCRD&vgnextoid=f96bbc18998c0710VgnVCM2000001f4a900aRCRD";"JAEN";"CALLE";"V";"32";"";"";"";"";"MADRID";"MADRID";"28020";"2";"CUATRO CAMINOS";"6";"TETUAN";"440616";"4477972";"40.45028920491589";"-3.7002985278627993";"915 333 722";"";"";"/contenido/entidadesYorganismos/CentrosAtencionSocialPersonasDiscapacidad"
10613790;"APFMPS, Residencia, centro de día y centro ocupacional Instituto Doctor Quintero Lumbreras";"";"";"Residencia, centro de día y centro ocupacional para personas con discapacidad intelectual.";"Bus: 712, 713, 714, 716";"";"1";"http://www.madrid.es/sites/v/index.jsp?vgnextchannel=bfa48ab43d6bb410VgnVCM100000171f5a0aRCRD&vgnextoid=11dc2ab96da61610VgnVCM1000001d4a900aRCRD";"COLMENAR VIEJO";"CARRETERA";"V";"13.6";"";"";"";"";"MADRID";"MADRID";"28049";"";"";"";"DISTRITO";"439552";"4490491";"40.56299317375062";"-3.7140517146418874";"917 345 138";"";"";"/contenido/entidadesYorganismos/CentrosAtencionSocialPersonasDiscapacidad/CentrosOcupacionalesPersonasDiscapacidad"
1417;"ATENPACE Centro de rehabilitación para jóvenes y adultos paralíticos cerebrales";"";"";"Centro de rehabilitación para personas con discapacidad física.";"Metro: Peñagrande, Avenida de la Ilustración (línea 7)   Bus: 64, 83, 133";"";"3";"http://www.madrid.es/sites/v/index.jsp?vgnextchannel=bfa48ab43d6bb410VgnVCM100000171f5a0aRCRD&vgnextoid=f25376172d71c010VgnVCM1000000b205a0aRCRD";"ISLAS MARQUESAS";"CALLE";"V";"27";"";"";"";"";"MADRID";"MADRID";"28035";"3";"PEÑA GRANDE";"8";"FUENCARRAL-EL PARDO";"438435";"4480885";"40.47636911532918";"-3.7263082350685446";"913 167 446";"";"";"/contenido/entidadesYorganismos/CentrosAtencionSocialPersonasDiscapacidad/CentrosDiasPersonasDiscapacidad"
7827523;"Alicia Koplowitz Centro de día y centro residencial de Esclerosis Múltiple de la Comunidad de Madrid";"";"";"Centro residencial y centro de día para personas con discapacidad física.";"Metro: Valdebernardo (línea 9)  Bus: 71, 130, E4  Bicimad: Estación 465 (Cordel de Pavones, 48)";"";"1";"http://www.madrid.es/sites/v/index.jsp?vgnextchannel=bfa48ab43d6bb410VgnVCM100000171f5a0aRCRD&vgnextoid=7e9f7c8c2e9ca410VgnVCM2000000c205a0aRCRD";"JOSE PRAT";"BULEVAR";"V";"40";"";"";"";"";"MADRID";"MADRID";"28032";"2";"VALDEBERNARDO";"19";"VICALVARO";"447406";"4471911";"40.3961484554016";"-3.619735666015524";"913 016 560";"";"";"/contenido/entidadesYorganismos/CentrosAtencionSocialPersonasDiscapacidad/CentrosDiasPersonasDiscapacidad"
11917;"Aluche, centro ocupacional para personas con discapacidad intelectual";"";"";"Centro ocupacional para personas con discapacidad intelectual.";"Bus: 17, 34, 39, 117, 138, 139  Renfe: Las Águilas (C5)  Metro: Aluche (línea 5)";"";"3";"http://www.madrid.es/sites/v/index.jsp?vgnextchannel=bfa48ab43d6bb410VgnVCM100000171f5a0aRCRD&vgnextoid=f72466051361c010VgnVCM1000000b205a0aRCRD";"RAFAEL FINAT";"CALLE";"V";"48";"";"";"";"";"MADRID";"MADRID";"28044";"7";"LAS AGUILAS";"10";"LATINA";"434507";"4470025";"40.378239183007324";"-3.771529019692818";"917 062 921";"";"";"/contenido/entidadesYorganismos/CentrosAtencionSocialPersonasDiscapacidad/CentrosOcupacionalesPersonasDiscapacidad"
11155083;"Amafe, Centro de día";"";"";"Centro de día para personas con enfermedad mental crónica.";"Metro: Ventas (línea 2, 5)    Bus: 106, 110, 146, 21, 210, 38, 53, 12";"";"3";"http://www.madrid.es/sites/v/index.jsp?vgnextchannel=bfa48ab43d6bb410VgnVCM100000171f5a0aRCRD&vgnextoid=c924648cbfeb0710VgnVCM2000001f4a900aRCRD";"RUIZ PERELLO";"CALLE";"V";"7";"";"";"";"";"MADRID";"MADRID";"28028";"4";"GUINDALERA";"4";"SALAMANCA";"443446";"4475699";"40.430014220483805";"-3.6667355853404433";"913 612 768";"";"";"/contenido/entidadesYorganismos/CentrosAtencionSocialPersonasDiscapacidad/CentrosDiasPersonasDiscapacidad"
35013;"Amanecer, Centro ocupacional para personas con discapacidad intelectual";"";"";"Centro ocupacional para personas con discapacidad intelectual.";"Metro: Prosperidad (línea 4), Cruz del Rayo (línea 9)  Bus: 73, 9  Bicimad: Estación 146 (calle María Francisca, 1)";"";"3";"http://www.madrid.es/sites/v/index.jsp?vgnextchannel=bfa48ab43d6bb410VgnVCM100000171f5a0aRCRD&vgnextoid=e087b3e42751c010VgnVCM2000000c205a0aRCRD";"MATILDE DIEZ";"CALLE";"V";"8";"";"";"";"";"MADRID";"MADRID";"28002";"3";"CIUDAD JARDIN";"5";"CHAMARTIN";"442860";"4477466";"40.44588922720919";"-3.673799864511205";"914 133 419";"";"";"/contenido/entidadesYorganismos/CentrosAtencionSocialPersonasDiscapacidad/CentrosOcupacionalesPersonasDiscapacidad"
34541;"Aprocor I, Taller centro ocupacional";"";"";"Centro ocupacional para personas con discapacidad intelectual";"Bus: 112, 122, 153, 104";"";"3";"http://www.madrid.es/sites/v/index.jsp?vgnextchannel=bfa48ab43d6bb410VgnVCM100000171f5a0aRCRD&vgnextoid=9697b3e42751c010VgnVCM2000000c205a0aRCRD";"ESTEBAN PALACIOS";"CALLE";"V";"12";"";"";"";"";"MADRID";"MADRID";"28043";"2";"PIOVERA";"16";"HORTALEZA";"447242";"4478764";"40.457872904908626";"-3.6222314192739904";"917 598 457";"";"";"/contenido/entidadesYorganismos/CentrosAtencionSocialPersonasDiscapacidad/CentrosOcupacionalesPersonasDiscapacidad"
10610720;"Asociación esclerosis múltiple Madrid, centro de rehabilitación";"";"";"Centro de rehabilitación para personas con discapacidad física.";"Bus: 67, 83, 125, 175, 178, 165, 166";"";"1";"http://www.madrid.es/sites/v/index.jsp?vgnextchannel=bfa48ab43d6bb410VgnVCM100000171f5a0aRCRD&vgnextoid=2e94ef2b16151610VgnVCM1000001d4a900aRCRD";"SANGENJO";"CALLE";"V";"36";"1º";"";"";"";"MADRID";"MADRID";"28034";"5";"LA PAZ";"8";"FUENCARRAL-EL PARDO";"440796";"4482105";"40.48753110350201";"-3.6985691585465794";"913 785 526";"";"";"/contenido/entidadesYorganismos/CentrosAtencionSocialPersonasDiscapacidad"
11156108;"Carmen Rodríguez, Centro de rehabilitación";"";"";"Centro de rehabilitación para personas con discapacidad física.";"Metro: Arganzuela-Planetario (línea 6)  Bus: 148, 156";"";"3";"http://www.madrid.es/sites/v/index.jsp?vgnextchannel=bfa48ab43d6bb410VgnVCM100000171f5a0aRCRD&vgnextoid=846cbc18998c0710VgnVCM2000001f4a900aRCRD";"CROMO";"CALLE";"V";"5";"";"";"";"";"MADRID";"MADRID";"28045";"4";"LEGAZPI";"2";"ARGANZUELA";"441575";"4471285";"40.39012058613276";"-3.688378230986349";"917 512 013 / 647 620 736";"";"";"/contenido/entidadesYorganismos/CentrosAtencionSocialPersonasDiscapacidad"
11841150;"Centro Belmonte Únicas";"";"";"Residencia para personas con enfermedad mental crónica.";"Bus: 118, 116  Metro: Urgel (línea 5)";"";"3";"http://www.madrid.es/sites/v/index.jsp?vgnextchannel=bfa48ab43d6bb410VgnVCM100000171f5a0aRCRD&vgnextoid=aa3ad8a63ef44810VgnVCM2000001f4a900aRCRD";"BELMONTE DE TAJO";"CALLE";"V";"52";"";"";"";"";"MADRID";"MADRID";"28019";"2";"OPAÑEL";"11";"CARABANCHEL";"438887";"4471415";"40.39109482890491";"-3.720064527253826";"915 608 949 / 659 484 715";"";"";"/contenido/entidadesYorganismos/CentrosAtencionSocialPersonasDiscapacidad/CentrosDiasPersonasDiscapacidad"
10610621;"Centro Dato II, centro de recuperación para personas con discapacidad física";"";"";"Centro de recuperación para personas con discapacidad física.";"Bus: 114, 115";"";"3";"http://www.madrid.es/sites/v/index.jsp?vgnextchannel=bfa48ab43d6bb410VgnVCM100000171f5a0aRCRD&vgnextoid=f623ef2b16151610VgnVCM1000001d4a900aRCRD";"AVUTARDA";"RONDA";"V";"3";"";"";"";"";"MADRID";"MADRID";"28043";"2";"PIOVERA";"16";"HORTALEZA";"446001";"4478242";"40.45308767054584";"-3.636823746093877";"917 595 372";"";"";"/contenido/entidadesYorganismos/CentrosAtencionSocialPersonasDiscapacidad"
10608730;"Centro Dato de rehabilitación";"";"";"Centro de rehabilitación para personas con discapacidad física";"Metro: Canillas (Línea 4)";"";"3";"http://www.madrid.es/sites/v/index.jsp?vgnextchannel=bfa48ab43d6bb410VgnVCM100000171f5a0aRCRD&vgnextoid=d6fb3eb6a4c41610VgnVCM2000001f4a900aRCRD";"ANDARRIOS";"CALLE";"V";"19";"";"";"";"";"MADRID";"MADRID";"28043";"2";"PIOVERA";"16";"HORTALEZA";"446402";"4478483";"40.45528803169302";"-3.632112763387634";"913 003 764";"";"";"/contenido/entidadesYorganismos/CentrosAtencionSocialPersonasDiscapacidad/CentrosOcupacionalesPersonasDiscapacidad"
11155867;"Centro Exter para personas con enfermedad mental, Centro de día";"";"";"Centro de día para personas con enfermedad mental crónica.";"Bus: E4, 71, 130  Metro: Valdebernardo (línea 9)";"";"3";"http://www.madrid.es/sites/v/index.jsp?vgnextchannel=bfa48ab43d6bb410VgnVCM100000171f5a0aRCRD&vgnextoid=7bdbaf9c474c0710VgnVCM2000001f4a900aRCRD";"JOSE PRAT";"BULEVAR";"V";"36";"";"";"";"";"MADRID";"MADRID";"28032";"2";"VALDEBERNARDO";"19";"VICALVARO";"447342";"4471965";"40.396633404196365";"-3.620493665952262";"913 016 861";"";"";"/contenido/entidadesYorganismos/CentrosAtencionSocialPersonasDiscapacidad/CentrosDiasPersonasDiscapacidad"
11846435;"Centro Menni Vallecas";"";"";"Centro de rehabilitación para personas con enfermedad mental crónica.";"Metro: Sierra de Guadalupe (línea 1)  Bus: 103, 142. 143, 58, 54";"";"3";"http://www.madrid.es/sites/v/index.jsp?vgnextchannel=bfa48ab43d6bb410VgnVCM100000171f5a0aRCRD&vgnextoid=1e67942ec3574810VgnVCM2000001f4a900aRCRD";"ALBUFERA";"AVENIDA";"V";"321";"";"";"";"";"MADRID";"MADRID";"28031";"4";"PALOMERAS SURESTE";"13";"PUENTE DE VALLECAS";"446403";"4470524";"40.383588923720616";"-3.631430614569706";"917 517 579 / 638 986 607";"";"";"/contenido/entidadesYorganismos/CentrosAtencionSocialPersonasDiscapacidad/CentrosDiasPersonasDiscapacidad"
11527688;"Centro Ocupacional Cirvite";"";"";"Centro ocupacional para personas con discapacidad intelectual.";"Bus: 114, 115, 105, 153  Metro: Canillejas (línea 5)";"";"3";"http://www.madrid.es/sites/v/index.jsp?vgnextchannel=bfa48ab43d6bb410VgnVCM100000171f5a0aRCRD&vgnextoid=7a66c4390973d710VgnVCM2000001f4a900aRCRD";"ESPARTA";"CALLE";"V";"19";"2";"";"";"";"MADRID";"MADRID";"28022";"7";"CANILLEJAS";"20";"SAN BLAS-CANILLEJAS";"447727";"4477750";"40.44876603712921";"-3.616433914239875";"913 249 293";"";"";"/contenido/entidadesYorganismos/CentrosAtencionSocialPersonasDiscapacidad/CentrosOcupacionalesPersonasDiscapacidad"
133712;"Centro Ocupacional Estar Los Yebenes";"";"";"Centro ocupacional para personas con discapacidad intelectual.";"Bus: 31";"";"3";"http://www.madrid.es/sites/v/index.jsp?vgnextchannel=bfa48ab43d6bb410VgnVCM100000171f5a0aRCRD&vgnextoid=50886da0aa81c010VgnVCM1000000b205a0aRCRD";"LOS YEBENES";"CALLE";"V";"241";"2";"";"";"";"MADRID";"MADRID";"28047";"4";"ALUCHE";"10";"LATINA";"436238";"4471448";"40.39119412570655";"-3.7512714973887014";"917 194 632 / 915 543 637";"";"";"/contenido/entidadesYorganismos/CentrosAtencionSocialPersonasDiscapacidad/CentrosOcupacionalesPersonasDiscapacidad"
35004;"Centro de Recuperación de  Personas con Discapacidad Física (CRMF) de Madrid";"El Centro de Recuperación de Personas con Discapacidad Física (CRMF) del Imserso en Madrid, es un centro de servicios sociales público y gratuito para personas con diversidad funcional de todo el territorio español que ofrece a las personas usuarias un apoyo integral mediante Planes Individualizados de Recuperación desde un modelo de atención centrado en la persona, y facilitar así tanto su integración socio laboral como su calidad de vida, tal como establece nuestra carta de servicios.";"";"Servicios y prestaciones:    Fomento de la autonomía personal y social.   Orientación formativa y profesional.   Formación para el empleo y mejora de competencias básicas.   Servicio de integración laboral.   Recuperación médico funcional, incluyendo servicio de enfermería, de Fisioterapia, de logopedia y Terapia Ocupacional.   Servicio de rehabilitación psicológica.   Servicio de trabajo social.   Asistencia Técnica en materia de autonomía personal accesibilidad y nuevas tecnologías.   Actividades de ocio, tiempo libre y espacios de disfrute personal.   Alojamiento (Temporalmente fuera de servicio).   Manutención.  Atención e intervención a distancia. A través de la plataforma Teams y actualmente Cisco Webex, se realizan intervenciones individuales con las personas usuarias que por circunstancias no pueden acudir presencialmente al centro";"Metro: Portazgo (línea 1).  Bus: 54, 57, 58, 103, 136, 141, 143  Bicimad: Estación 428 (Avenida de la Albufera, 136)";"";"3";"http://www.madrid.es/sites/v/index.jsp?vgnextchannel=bfa48ab43d6bb410VgnVCM100000171f5a0aRCRD&vgnextoid=fc85b3e42751c010VgnVCM2000000c205a0aRCRD";"VALDERRIBAS";"CAMINO";"V";"12";"";"";"";"";"MADRID";"MADRID";"28038";"6";"NUMANCIA";"13";"PUENTE DE VALLECAS";"443493";"4472447";"40.40071479873729";"-3.6658896340662053";"914 781 011";"914 789 023";"crmf.madrid@imserso.es";"/contenido/entidadesYorganismos/CentrosAtencionSocialPersonasDiscapacidad/CentrosDiasPersonasDiscapacidad"
2022;"Centro de Referencia Estatal de Autonomía Personal y Ayudas Técnicas (CEAPAT)";"";"";"";"Metro: Miguel Hernández (línea 1)";"";"3";"http://www.madrid.es/sites/v/index.jsp?vgnextchannel=bfa48ab43d6bb410VgnVCM100000171f5a0aRCRD&vgnextoid=afdd1e79ee71c010VgnVCM1000000b205a0aRCRD";"EXTREME&amp;Ntilde;OS";"CALLE";"V";"1";"";"";"";"";"MADRID";"MADRID";"28018";"4";"PALOMERAS SURESTE";"13";"PUENTE DE VALLECAS";"445187";"4470750";"40.38554368384592";"-3.6457769875674284";"917 033 100";"";"ceapat@imserso.es";"/contenido/entidadesYorganismos/ArchivosCentrosDocumentacion"
11285226;"Centro de atención Rafael Cattarini";"";"";"Centro de rehabilitación para personas con discapacidad física.";"Bus: 177, 42";"";"3";"http://www.madrid.es/sites/v/index.jsp?vgnextchannel=bfa48ab43d6bb410VgnVCM100000171f5a0aRCRD&vgnextoid=48cd6755a3156710VgnVCM2000001f4a900aRCRD";"EMILIA";"CALLE";"V";"51";"";"";"";"";"MADRID";"MADRID";"28029";"4";"ALMENARA";"6";"TETUAN";"440814";"4480387";"40.472056921905434";"-3.6981904175962454";"913 113 530";"";"";"/contenido/entidadesYorganismos/CentrosAtencionSocialPersonasDiscapacidad"
11285132;"Centro de atención para personas adultas y mayores afectadas por la enfermedad de Parkinson";"";"";"Centro de rehabilitación para personas con discapacidad física";"Metro: Menéndez Pelayo (línea 1).  Bus: 10, 14, 26, 32, C1, C2.  Bicimad: Estación 281 (Paseo Reina Cristina,6).";"";"3";"http://www.madrid.es/sites/v/index.jsp?vgnextchannel=bfa48ab43d6bb410VgnVCM100000171f5a0aRCRD&vgnextoid=9b176fc5df056710VgnVCM1000001d4a900aRCRD";"ANDRES TORREJON";"CALLE";"V";"18";"";"";"";"";"MADRID";"MADRID";"28014";"5";"LOS JERONIMOS";"3";"RETIRO";"442126";"4473247";"40.40782981137551";"-3.6820700568399913";"914 340 406";"";"";"/contenido/entidadesYorganismos/CentrosAtencionSocialPersonasDiscapacidad"
11524888;"Centro de día Ademo";"";"";"Centro de día para personas con discapacidad intelectual.";"Bus: 20, 142, 144";"";"3";"http://www.madrid.es/sites/v/index.jsp?vgnextchannel=bfa48ab43d6bb410VgnVCM100000171f5a0aRCRD&vgnextoid=7429fd5e9c82d710VgnVCM2000001f4a900aRCRD";"LA TACONA";"CALLE";"V";"3";"";"";"";"";"MADRID";"MADRID";"28030";"5";"FONTARRON";"14";"MORATALAZ";"445570";"4471980";"40.39665181785836";"-3.641373451931094";"686 231 474";"";"";"/contenido/entidadesYorganismos/CentrosAtencionSocialPersonasDiscapacidad/CentrosDiasPersonasDiscapacidad"
10607889;"Centro de día Afanias Espacio Abierto";"";"";"Centro de día para personas con discapacidad intelectual.";"Metro: Lucero (línea 6)    Bus: 31, 138    Bicimad: estación 349 (Calle Huerta de Catañeda, 26)";"";"3";"http://www.madrid.es/sites/v/index.jsp?vgnextchannel=bfa48ab43d6bb410VgnVCM100000171f5a0aRCRD&vgnextoid=bf86ffbd81741610VgnVCM2000001f4a900aRCRD";"HERVAS";"CALLE";"V";"12";"";"";"";"";"MADRID";"MADRID";"28011";"3";"LUCERO";"10";"LATINA";"436945";"4473112";"40.406241800167095";"-3.743111431397358";"914 459 672";"";"";"/contenido/entidadesYorganismos/CentrosAtencionSocialPersonasDiscapacidad/CentrosDiasPersonasDiscapacidad"
77520;"Centro de día Argüelles";"";"";"Centro de día para personas con discapacidad física";"Metro: Moncloa (líneas 3, 6)  Bus: 2, 16, 61  Bicimad: Estación 199 (Calle Fernando el Católico n&amp;ordm; 61)";"";"1";"http://www.madrid.es/sites/v/index.jsp?vgnextchannel=bfa48ab43d6bb410VgnVCM100000171f5a0aRCRD&vgnextoid=0c588ed67151c010VgnVCM2000000c205a0aRCRD";"ANDRES MELLADO";"CALLE";"V";"31";"";"";"";"";"MADRID";"MADRID";"28015";"1";"GAZTAMBIDE";"7";"CHAMBERI";"439392";"4476134";"40.43364271681343";"-3.7145658372075636";"915 495 062";"";"";"/contenido/entidadesYorganismos/CentrosAtencionSocialPersonasDiscapacidad/CentrosDiasPersonasDiscapacidad"
11155041;"Centro de día Atipadace II";"";"";"Centro de día para personas con discapacidad física.";"Metro: Mirasierra (línea 9)    Bus: 64";"";"3";"http://www.madrid.es/sites/v/index.jsp?vgnextchannel=bfa48ab43d6bb410VgnVCM100000171f5a0aRCRD&vgnextoid=7d9f648cbfeb0710VgnVCM2000001f4a900aRCRD";"MIRADOR DE LA REINA";"CALLE";"V";"115";"";"";"";"";"MADRID";"MADRID";"28035";"7";"MIRASIERRA";"8";"FUENCARRAL-EL PARDO";"438986";"4482476";"40.49074187160651";"-3.719959549966161";"913 767 190 / 693 750 168";"";"";"/contenido/entidadesYorganismos/CentrosAtencionSocialPersonasDiscapacidad/CentrosDiasPersonasDiscapacidad"
11154976;"Centro de día Aucavi - Hortaleza";"";"";"Centro de día para personas con discapacidad intelectual.";"Bus: 112, 122, 153  Bicimad: Estación 537 (Avenida de Machupichu, 23)";"";"3";"http://www.madrid.es/sites/v/index.jsp?vgnextchannel=bfa48ab43d6bb410VgnVCM100000171f5a0aRCRD&vgnextoid=9ec8648cbfeb0710VgnVCM2000001f4a900aRCRD";"MACHAQUITO";"CALLE";"V";"33";"";"";"";"";"MADRID";"MADRID";"28043";"2";"PIOVERA";"16";"HORTALEZA";"446905";"4478759";"40.45780755833256";"-3.6262076892323165";"913 553 755";"";"";"/contenido/entidadesYorganismos/CentrosAtencionSocialPersonasDiscapacidad/CentrosDiasPersonasDiscapacidad"
11155183;"Centro de día Chamberí Intress";"";"";"Centro de día para personas con enfermedad mental crónica";"Bus: 2, 149, 37   Metro: Canal (línea 2, 7), Ríos Rosas (línea 1)   Bicimad: estación 202 (calle Santander esquina con avenida Filipinas) / estación 201 (calle José Abascal frente al número 2)";"";"3";"http://www.madrid.es/sites/v/index.jsp?vgnextchannel=bfa48ab43d6bb410VgnVCM100000171f5a0aRCRD&vgnextoid=0770fe1d63fb0710VgnVCM2000001f4a900aRCRD";"BOIX Y MORER";"CALLE";"V";"8";"";"";"";"";"MADRID";"MADRID";"28003";"6";"VALLEHERMOSO";"7";"CHAMBERI";"440095";"4476818";"40.43986202869541";"-3.706336723557644";"915 357 674";"";"";"/contenido/entidadesYorganismos/CentrosAtencionSocialPersonasDiscapacidad/CentrosDiasPersonasDiscapacidad"
11155167;"Centro de día Ciudad Lineal";"";"";"Centro de día para personas con enfermedad mental crónica.";"Metro: Quintana (línea 5)    Bus: 113, 28";"";"3";"http://www.madrid.es/sites/v/index.jsp?vgnextchannel=bfa48ab43d6bb410VgnVCM100000171f5a0aRCRD&vgnextoid=8d9efe1d63fb0710VgnVCM2000001f4a900aRCRD";"SOR MARIA DE AGREDA";"CALLE";"V";"47";"";"";"";"";"MADRID";"MADRID";"28017";"1";"VENTAS";"15";"CIUDAD LINEAL";"445112";"4475723";"40.43033820411039";"-3.647088183295877";"913 775 824";"";"";"/contenido/entidadesYorganismos/CentrosAtencionSocialPersonasDiscapacidad/CentrosDiasPersonasDiscapacidad"
11942;"Centro de día Enco";"";"";"Centro de día para personas con discapacidad intelectual.";"Metro: Las Tablas (línea 10)    Bus: 175, 176";"";"3";"http://www.madrid.es/sites/v/index.jsp?vgnextchannel=bfa48ab43d6bb410VgnVCM100000171f5a0aRCRD&vgnextoid=ad3466051361c010VgnVCM1000000b205a0aRCRD";"FROMISTA";"CALLE";"V";"13";"";"";"";"";"MADRID";"MADRID";"28050";"6";"VALVERDE";"8";"FUENCARRAL-EL PARDO";"442861";"4484628";"40.51040715725058";"-3.6744305706601446";"911 727 911 / 687 908 117";"";"";"/contenido/entidadesYorganismos/CentrosAtencionSocialPersonasDiscapacidad/CentrosDiasPersonasDiscapacidad"
11529474;"Centro de día Fuencarral";"";"";"Centro de día para personas con enfermedad mental crónica.";"Metro: Fuencarral (línea 10)    Bus: 137, 66";"";"3";"http://www.madrid.es/sites/v/index.jsp?vgnextchannel=bfa48ab43d6bb410VgnVCM100000171f5a0aRCRD&vgnextoid=c78db63ecf64d710VgnVCM2000001f4a900aRCRD";"HOSPITALET DE LLOBREGAT";"CALLE";"V";"2";"";"";"";"";"MADRID";"MADRID";"28034";"6";"VALVERDE";"8";"FUENCARRAL-EL PARDO";"441272";"4482866";"40.494422352403646";"-3.6930247463417136";"917 355 810 / 917 355 811 / 917 355 812";"";"";"/contenido/entidadesYorganismos/CentrosAtencionSocialPersonasDiscapacidad/CentrosDiasPersonasDiscapacidad"
133823;"Centro de día Funprodami";"";"";"Centro de día para personas con discapacidad intelectual.";"Bus: 57, 144  Cercanías: Asamblea de Madrid-Entrevías (C2, C7)";"";"1";"http://www.madrid.es/sites/v/index.jsp?vgnextchannel=bfa48ab43d6bb410VgnVCM100000171f5a0aRCRD&vgnextoid=32dd15a11a81c010VgnVCM1000000b205a0aRCRD";"GARCIA MIRANDA";"CALLE";"V";"4";"";"";"";"";"MADRID";"MADRID";"28018";"2";"SAN DIEGO";"13";"PUENTE DE VALLECAS";"443627";"4470483";"40.38303190435413";"-3.6641521212637627";"915 077 986";"";"";"/contenido/entidadesYorganismos/CentrosAtencionSocialPersonasDiscapacidad/CentrosDiasPersonasDiscapacidad"
11155855;"Centro de día Grupo 5 Arganzuela";"";"";"Centro de día para personas con enfermedad mental crónica";"Metro: Pirámides (línea 5)    Bus: 18, 62    Bicimad: Estación 275 (Paseo de Juan Antonio Vallejo Nájera Botas, 28).";"";"3";"http://www.madrid.es/sites/v/index.jsp?vgnextchannel=bfa48ab43d6bb410VgnVCM100000171f5a0aRCRD&vgnextoid=190aaf9c474c0710VgnVCM2000001f4a900aRCRD";"ARGANDA";"CALLE";"V";"18";"";"";"";"";"MADRID";"MADRID";"28005";"2";"ACACIAS";"2";"ARGANZUELA";"439955";"4472467";"40.400654256768846";"-3.7075737182792587";"911 250 006";"";"";"/contenido/entidadesYorganismos/CentrosAtencionSocialPersonasDiscapacidad/CentrosDiasPersonasDiscapacidad"
11155851;"Centro de día Hortaleza";"";"";"Centro de día para personas con enfermedad mental crónica.";"Metro: San Lorenzo (línea 4)    Bus: 72, 87";"";"3";"http://www.madrid.es/sites/v/index.jsp?vgnextchannel=bfa48ab43d6bb410VgnVCM100000171f5a0aRCRD&vgnextoid=3bc8af9c474c0710VgnVCM2000001f4a900aRCRD";"MAR BALTICO";"CALLE";"V";"11";"";"";"";"";"MADRID";"MADRID";"28033";"4";"PINAR DEL REY";"16";"HORTALEZA";"445590";"4480416";"40.47265231214954";"-3.641857122868782";"913 824 636";"";"";"/contenido/entidadesYorganismos/CentrosAtencionSocialPersonasDiscapacidad/CentrosDiasPersonasDiscapacidad"
11155221;"Centro de día La Latina Grupo 5";"";"";"Centro de día para personas con enfermedad mental crónica.";"Metro: Puerta del Ángel (línea 6)    Bus: 138    Bicimad: estación 325 (Paseo de los Jesuitas, 4)";"";"3";"http://www.madrid.es/sites/v/index.jsp?vgnextchannel=bfa48ab43d6bb410VgnVCM100000171f5a0aRCRD&vgnextoid=ba05fe1d63fb0710VgnVCM2000001f4a900aRCRD";"JAIME VERA";"CALLE";"V";"25";"";"";"";"";"MADRID";"MADRID";"28011";"2";"PUERTA DEL ANGEL";"10";"LATINA";"438188";"4473601";"40.41073588139989";"-3.7285148876397805";"915 263 704";"";"";"/contenido/entidadesYorganismos/CentrosAtencionSocialPersonasDiscapacidad/CentrosDiasPersonasDiscapacidad"
10607888;"Centro de día Nuestra Señora del Camino";"";"";"Centro de día para personas con discapacidad intelectual.";"Metro: Canillas (línea 4)    Bus: 120, 112, 122, 153";"";"3";"http://www.madrid.es/sites/v/index.jsp?vgnextchannel=bfa48ab43d6bb410VgnVCM100000171f5a0aRCRD&vgnextoid=5e36ffbd81741610VgnVCM2000001f4a900aRCRD";"DIONISIO INCA YUPANQUI";"CALLE";"V";"17";"";"";"";"";"MADRID";"MADRID";"28043";"2";"PIOVERA";"16";"HORTALEZA";"446386";"4479214";"40.461875888579776";"-3.6323714862737186";"913 004 241";"";"";"/contenido/entidadesYorganismos/CentrosAtencionSocialPersonasDiscapacidad/CentrosDiasPersonasDiscapacidad"
7191698;"Centro de día San Alfonso";"";"";"Centro de día para personas con discapacidad intelectual.";"Bus: 131, 6, 60, 116, 78, 81";"";"1";"http://www.madrid.es/sites/v/index.jsp?vgnextchannel=bfa48ab43d6bb410VgnVCM100000171f5a0aRCRD&vgnextoid=ec7b7006ac072410VgnVCM1000000b205a0aRCRD";"RAFAELA YBARRA";"AVENIDA";"V";"75";"BAJO";"";"";"";"MADRID";"MADRID";"28026";"7";"PRADOLONGO";"12";"USERA";"439579";"4470007";"40.37846222434239";"-3.7117800681016506";"915 696 548 / 915 691 606";"";"";"/contenido/entidadesYorganismos/CentrosAtencionSocialPersonasDiscapacidad/CentrosOcupacionalesPersonasDiscapacidad"
11156045;"Centro de día Soporte social distrito Centro Las Letras";"";"";"Centro de día para personas con enfermedad mental crónica.";"Metro: Antón Martín (línea 1)    Bus: 26, 32, 6";"";"3";"http://www.madrid.es/sites/v/index.jsp?vgnextchannel=bfa48ab43d6bb410VgnVCM100000171f5a0aRCRD&vgnextoid=0f465c10c05c0710VgnVCM2000001f4a900aRCRD";"DESAMPARADOS";"COSTANILLA";"V";"17";"";"";"";"";"MADRID";"MADRID";"28014";"3";"CORTES";"1";"CENTRO";"440894";"4473708";"40.411897144625414";"-3.6966340908357855";"914 202 194 / 914 202 198";"";"";"/contenido/entidadesYorganismos/CentrosAtencionSocialPersonasDiscapacidad/CentrosDiasPersonasDiscapacidad"
11155110;"Centro de día Walk Gainza";"";"";"Centro de día para personas con enfermedad mental crónica.";"Bus: 6, 60";"";"3";"http://www.madrid.es/sites/v/index.jsp?vgnextchannel=bfa48ab43d6bb410VgnVCM100000171f5a0aRCRD&vgnextoid=2de6648cbfeb0710VgnVCM2000001f4a900aRCRD";"GAINZA";"CALLE";"V";"307";"";"";"";"";"MADRID";"MADRID";"28041";"1";"ORCASITAS";"12";"USERA";"439128";"4468612";"40.36586293320146";"-3.7169516557042277";"914 282 626";"";"";"/contenido/entidadesYorganismos/CentrosAtencionSocialPersonasDiscapacidad/CentrosDiasPersonasDiscapacidad"
11858420;"Centro de día para personas con discapacidad intelectual y rehabilitación Fundación Instituto San José";"";"";"Centro de día para personas con discapacidad intelectual.";"Bus: 155, 35, SE832";"";"3";"http://www.madrid.es/sites/v/index.jsp?vgnextchannel=bfa48ab43d6bb410VgnVCM100000171f5a0aRCRD&vgnextoid=d541e5b090cb4810VgnVCM2000001f4a900aRCRD";"PINAR DE SAN JOSE";"CALLE";"V";"98";"";"";"";"";"MADRID";"MADRID";"28054";"6";"CUATRO VIENTOS";"10";"LATINA";"434205";"4468235";"40.36209379003986";"-3.774890979411398";"915 080 140";"";"";"/contenido/entidadesYorganismos/CentrosAtencionSocialPersonasDiscapacidad/CentrosOcupacionalesPersonasDiscapacidad"
11285436;"Centro de día y centro de rehabilitación Fundación Manantial para personas con trastorno mental grave de Barajas";"";"";"Centro de día y centro de rehabilitación para personas con enfermedad mental crónica.";"Bus: 101, 105, 115";"";"1";"http://www.madrid.es/sites/v/index.jsp?vgnextchannel=bfa48ab43d6bb410VgnVCM100000171f5a0aRCRD&vgnextoid=d4e5a178d9156710VgnVCM1000001d4a900aRCRD";"HERMANOS FALCO Y ALVAREZ DE TOLEDO";"PLAZA";"V";"1";"";"";"";"";"MADRID";"MADRID";"28042";"3";"CASCO H.BARAJAS";"21";"BARAJAS";"451000";"4480474";"40.4735113714068";"-3.57805132010274";"913 010 893";"";"";"/contenido/entidadesYorganismos/CentrosAtencionSocialPersonasDiscapacidad/CentrosOcupacionalesPersonasDiscapacidad"
11851901;"Centro de día y centro de rehabilitación psicosocial Nuestra Señora del Sagrario";"";"";"Centro de día y centro de rehabilitación para personas con enfermedad mental crónica.";"Metro: Vista Alegre (línea 5), Carabanchel (línea 5)  Bus: 34, 35";"";"3";"http://www.madrid.es/sites/v/index.jsp?vgnextchannel=bfa48ab43d6bb410VgnVCM100000171f5a0aRCRD&vgnextoid=eb2ac52a86994810VgnVCM1000001d4a900aRCRD";"MATILDE HERNANDEZ";"CALLE";"V";"97";"";"";"";"";"MADRID";"MADRID";"28025";"4";"VISTA ALEGRE";"11";"CARABANCHEL";"437397";"4470890";"40.38625494158068";"-3.737565015216509";"914 620 739";"";"";"/contenido/entidadesYorganismos/CentrosAtencionSocialPersonasDiscapacidad/CentrosOcupacionalesPersonasDiscapacidad"
1143;"Centro de día y centro ocupacional Manos Tendidas Arganzuela";"";"";"Centro de día y centro ocupacional para personas con discapacidad intelectual.";"Metro: Legazpi (línea 3, 6)  Bus: 62, 148, 156, T32  Bicimad: Estación 270 (Calle Teresa López Valcárcel esq. Teniente Coronel Noreña)";"";"3";"http://www.madrid.es/sites/v/index.jsp?vgnextchannel=bfa48ab43d6bb410VgnVCM100000171f5a0aRCRD&vgnextoid=d9ce1e79ee71c010VgnVCM1000000b205a0aRCRD";"RICARDO DAMAS";"CALLE";"V";"3";"";"";"";"";"MADRID";"MADRID";"28045";"4";"LEGAZPI";"2";"ARGANZUELA";"441037";"4470952";"40.387080871048894";"-3.6946832916098575";"914 671 670 (centro de día) / 918 711 538 /  914 671 670 (residencia)";"";"";"/contenido/entidadesYorganismos/CentrosAtencionSocialPersonasDiscapacidad/CentrosOcupacionalesPersonasDiscapacidad"
51238;"Centro de día y centro ocupacional para la atención al funcionamiento de personas con patología dual Pardo Valcarce";"";"";"Centro de día y centro ocupacional para personas con discapacidad intelectual.";"Metro: Paco de Lucía (línea 9)  Bus: 134, 170, 178";"";"1";"http://www.madrid.es/sites/v/index.jsp?vgnextchannel=bfa48ab43d6bb410VgnVCM100000171f5a0aRCRD&vgnextoid=e965598d1351c010VgnVCM1000000b205a0aRCRD";"MONASTERIO DE LAS HUELGAS";"CALLE";"V";"15";"";"";"";"";"MADRID";"MADRID";"28049";"7";"MIRASIERRA";"8";"FUENCARRAL-EL PARDO";"440077";"4483730";"40.50212487356608";"-3.7071987746336155";"917 355 790";"";"";"/contenido/entidadesYorganismos/CentrosAtencionSocialPersonasDiscapacidad/CentrosOcupacionalesPersonasDiscapacidad"
11847716;"Centro de día y residencia Medinaceli para personas con discapacidad intelectual";"";"";"Residencia y centro de día para personas con discapacidad intelectual.";"Metro: Guzmán el Bueno (línea 6, 7)  Bus: 45, 2, C1, F, C2, 44";"";"1";"http://www.madrid.es/sites/v/index.jsp?vgnextchannel=bfa48ab43d6bb410VgnVCM100000171f5a0aRCRD&vgnextoid=609508efba674810VgnVCM1000001d4a900aRCRD";"ESTUDIANTES";"CALLE";"V";"3";"";"";"";"";"MADRID";"MADRID";"28040";"3";"CIUDAD UNIVERSITARIA";"9";"MONCLOA-ARAVACA";"439576";"4477584";"40.44672150500691";"-3.712527732281532";"918 154 470";"";"";"/contenido/entidadesYorganismos/CentrosAtencionSocialPersonasDiscapacidad/ResidenciasPersonasDiscapacidad"
11155178;"Centro de día y soporte social Villaverde";"";"";"Centro de día para personas con enfermedad mental crónica.";"Bus: 79, 59";"";"3";"http://www.madrid.es/sites/v/index.jsp?vgnextchannel=bfa48ab43d6bb410VgnVCM100000171f5a0aRCRD&vgnextoid=f40ffe1d63fb0710VgnVCM2000001f4a900aRCRD";"PINAZO";"PLAZA";"V";"6";"";"";"";"";"MADRID";"MADRID";"28021";"2";"SAN CRISTOBAL";"17";"VILLAVERDE";"441371";"4466030";"40.34276443083453";"-3.6903066483625735";"917 232 168";"";"";"/contenido/entidadesYorganismos/CentrosAtencionSocialPersonasDiscapacidad/CentrosDiasPersonasDiscapacidad"
7192500;"Centro de día, centro ocupacional y centro de rehabilitación laboral Fundación Juan XXIII Roncalli";"";"";"Centro de día, centro ocupacional y centro de rehabilitación laboral para personas con discapacidad intelectual.";"Metro: Puerta de Arganda (línea 9)  Bus: 100, 106, 159, T23, E5, SE718, 71, E3  Renfe: Puerta de Arganda (C2, C7)";"";"3";"http://www.madrid.es/sites/v/index.jsp?vgnextchannel=bfa48ab43d6bb410VgnVCM100000171f5a0aRCRD&vgnextoid=c6d4085304572410VgnVCM2000000c205a0aRCRD";"GRAN VIA DEL ESTE";"AVENIDA";"V";"1";"BAJO";"";"";"";"MADRID";"MADRID";"28032";"3";"VALDERRIVAS";"19";"VICALVARO";"449473";"4472665";"40.403066988507774";"-3.595441745849985";"914 137 349";"";"";"/contenido/entidadesYorganismos/CentrosAtencionSocialPersonasDiscapacidad/CentrosOcupacionalesPersonasDiscapacidad"
175151;"Centro de día, centro ocupacional y residencia APADEMA";"";"";"Centro de día, centro ocupacional y residencia para personas con discapacidad intelectual.";"Metro: Mirasierra (línea 9)  Bus: 133, 134";"";"1";"http://www.madrid.es/sites/v/index.jsp?vgnextchannel=bfa48ab43d6bb410VgnVCM100000171f5a0aRCRD&vgnextoid=901c14c4d661c010VgnVCM1000000b205a0aRCRD";"MORALZARZAL";"CALLE";"V";"73";"";"";"";"";"MADRID";"MADRID";"28034";"7";"MIRASIERRA";"8";"FUENCARRAL-EL PARDO";"439392";"4482998";"40.495481283296485";"-3.7152153401473864";"917 364 169";"";"";"/contenido/entidadesYorganismos/AsociacionesAccionSocial"
10863039;"Centro de rehabilitación INDANE";"";"";"Centro de rehabilitación para personas con discapacidad física.";"Metro: Canal (línea 2, 7)  Bus: 2, 12";"";"1";"http://www.madrid.es/sites/v/index.jsp?vgnextchannel=bfa48ab43d6bb410VgnVCM100000171f5a0aRCRD&vgnextoid=e7ca40fd4f638610VgnVCM1000001d4a900aRCRD";"VALLEHERMOSO";"CALLE";"V";"100";"BAJA";"";"";"";"MADRID";"MADRID";"28003";"6";"VALLEHERMOSO";"7";"CHAMBERI";"439947";"4476790";"40.43959649590148";"-3.7080805370600967";"910 745 555 / 686 087 677";"";"";"/contenido/entidadesYorganismos/CentrosAtencionSocialPersonasDiscapacidad/CentrosOcupacionalesPersonasDiscapacidad"
11156145;"Centro de rehabilitación Neurociencia";"";"";"Centro de rehabilitación para personas con discapacidad física.";"Bus: 160";"";"3";"http://www.madrid.es/sites/v/index.jsp?vgnextchannel=bfa48ab43d6bb410VgnVCM100000171f5a0aRCRD&vgnextoid=f0febc18998c0710VgnVCM2000001f4a900aRCRD";"OSA MAYOR";"AVENIDA";"V";"2";"";"";"";"";"MADRID";"MADRID";"28023";"7";"ARAVACA";"9";"MONCLOA-ARAVACA";"434439";"4479292";"40.46171934729419";"-3.773283130892027";"616 062 630";"";"";"/contenido/entidadesYorganismos/CentrosAtencionSocialPersonasDiscapacidad"
11532115;"Centro de rehabilitación Orpea Madrid Mirasierra";"";"";"Centro de rehabilitación para personas con discapacidad física.";"Metro: Mirasierra (línea 9)  Bus: 49";"";"1";"http://www.madrid.es/sites/v/index.jsp?vgnextchannel=bfa48ab43d6bb410VgnVCM100000171f5a0aRCRD&vgnextoid=098353f6a7d4d710VgnVCM2000001f4a900aRCRD";"VENTISQUERO DE LA CONDESA";"AVENIDA";"V";"46";"BAJA";"";"";"";"MADRID";"MADRID";"28035";"7";"MIRASIERRA";"8";"FUENCARRAL-EL PARDO";"439162";"4482910";"40.49467303163574";"-3.7179277349273487";"914 488 801 / 679 407 472";"";"";"/contenido/entidadesYorganismos/CentrosAtencionSocialPersonasDiscapacidad/CentrosOcupacionalesPersonasDiscapacidad"
10608768;"Centro de rehabilitación integral de la FEMM";"";"";"Centro de rehabilitación para personas con discapacidad física";"Metro: Ventilla (línea 9), Plaza de Castilla (línea 1, 9, 10)  Bus: 42, 177  Bicimad: Estación 296 (Calle de la Costa Verde, 25-23)";"";"3";"http://www.madrid.es/sites/v/index.jsp?vgnextchannel=bfa48ab43d6bb410VgnVCM100000171f5a0aRCRD&vgnextoid=4a4d3eb6a4c41610VgnVCM2000001f4a900aRCRD";"ASTURIAS";"AVENIDA";"V";"35";"";"";"";"";"MADRID";"MADRID";"28029";"4";"ALMENARA";"6";"TETUAN";"441041";"4480043";"40.468981171236365";"-3.6954859236722464";"913 993 245 / 699 086 699";"";"";"/contenido/entidadesYorganismos/CentrosAtencionSocialPersonasDiscapacidad"
11156234;"Centro de rehabilitación laboral Arganzuela";"";"";"Centro de día para personas con enfermedad mental crónica.";"Metro: Acacias (línea 5)    Bus: 62";"";"3";"http://www.madrid.es/sites/v/index.jsp?vgnextchannel=bfa48ab43d6bb410VgnVCM100000171f5a0aRCRD&vgnextoid=45a3a9e48d8c0710VgnVCM2000001f4a900aRCRD";"ARQUITECTURA";"CALLE";"V";"1";"";"";"";"";"MADRID";"MADRID";"28005";"2";"ACACIAS";"2";"ARGANZUELA";"440358";"4472428";"40.4003293600296";"-3.7028221528501994";"914 627 275";"";"";"/contenido/entidadesYorganismos/CentrosAtencionSocialPersonasDiscapacidad/CentrosDiasPersonasDiscapacidad"
11156224;"Centro de rehabilitación laboral Candelita Ciudad Lineal";"";"";"Centro de rehabilitación para personas con enfermedad mental crónica";"Metro: Ventas (línea 2 y 5)    Bus: 12";"";"3";"http://www.madrid.es/sites/v/index.jsp?vgnextchannel=bfa48ab43d6bb410VgnVCM100000171f5a0aRCRD&vgnextoid=a422a9e48d8c0710VgnVCM2000001f4a900aRCRD";"SANCHO DAVILA";"CALLE";"V";"19";"";"";"";"";"MADRID";"MADRID";"28028";"3";"FUENTE DEL BERRO";"4";"SALAMANCA";"443862";"4475366";"40.42703675725809";"-3.6617925056983625";"915 141 150";"";"";"/contenido/entidadesYorganismos/CentrosAtencionSocialPersonasDiscapacidad/CentrosDiasPersonasDiscapacidad"
11285291;"Centro de rehabilitación laboral Carabanchel";"";"";"Centro de rehabilitación para personas con enfermedad mental crónica";"Bus: 17, 35  Metro: Carabanchel (línea 5)";"";"3";"http://www.madrid.es/sites/v/index.jsp?vgnextchannel=bfa48ab43d6bb410VgnVCM100000171f5a0aRCRD&vgnextoid=fcf9506f58156710VgnVCM1000001d4a900aRCRD";"INGENIEROS";"CAMINO";"V";"13";"";"";"";"";"MADRID";"MADRID";"28047";"4";"VISTA ALEGRE";"11";"CARABANCHEL";"436565";"4470891";"40.386205391513464";"-3.747372785310797";"915 252 140";"";"";"/contenido/entidadesYorganismos/CentrosAtencionSocialPersonasDiscapacidad/CentrosDiasPersonasDiscapacidad"
11156184;"Centro de rehabilitación laboral Fuencarral";"";"";"Centro de día para personas con enfermedad mental crónica";"Bus: 67, 83, 125, 175, 178, 165, 166  Bicimad: Estación 606 (Calle Fermín Caballero 2)";"";"3";"http://www.madrid.es/sites/v/index.jsp?vgnextchannel=bfa48ab43d6bb410VgnVCM100000171f5a0aRCRD&vgnextoid=e928a9e48d8c0710VgnVCM2000001f4a900aRCRD";"ALFREDO MARQUERIE";"CALLE";"V";"11";"";"";"";"";"MADRID";"MADRID";"28034";"5";"LA PAZ";"8";"FUENCARRAL-EL PARDO";"440856";"4482014";"40.486720067421565";"-3.6978470161498955";"911 291 601";"";"";"/contenido/entidadesYorganismos/CentrosAtencionSocialPersonasDiscapacidad/CentrosDiasPersonasDiscapacidad"
11857446;"Centro de rehabilitación laboral Intress Tetuán";"";"";"Centro de rehabilitación para personas con enfermedad mental crónica.";"Bus: 127, 45, C1, F, C2, 44  Metro: Cuatro Caminos (líneas 1, 2, 6)  Bicimad: Estación 204 (Calle Doctor Santero, 1)";"";"3";"http://www.madrid.es/sites/v/index.jsp?vgnextchannel=bfa48ab43d6bb410VgnVCM100000171f5a0aRCRD&vgnextoid=b58f5dbae3ea4810VgnVCM1000001d4a900aRCRD";"DOCTOR SANTERO";"CALLE";"V";"22";"";"";"";"";"MADRID";"MADRID";"28039";"1";"BELLAS VISTAS";"6";"TETUAN";"440067";"4477689";"40.447698501725654";"-3.7067503601106604";"919 920 109 / 659 092 895";"";"";"/contenido/entidadesYorganismos/CentrosAtencionSocialPersonasDiscapacidad/CentrosDiasPersonasDiscapacidad"
11155854;"Centro de rehabilitación laboral Latina Grupo 5";"";"";"Centro de día para personas con enfermedad mental crónica.";"Metro: Alto de Extremadura (línea 6)    Bus: 31, 33, 36, 39, 65";"";"3";"http://www.madrid.es/sites/v/index.jsp?vgnextchannel=bfa48ab43d6bb410VgnVCM100000171f5a0aRCRD&vgnextoid=3f49af9c474c0710VgnVCM2000001f4a900aRCRD";"ARCANGEL SAN RAFAEL";"CALLE";"V";"1";"";"";"";"";"MADRID";"MADRID";"28011";"2";"PUERTA DEL ANGEL";"10";"LATINA";"437357";"4473236";"40.40739162548029";"-3.738273598624469";"911 291 591";"";"";"/contenido/entidadesYorganismos/CentrosAtencionSocialPersonasDiscapacidad/CentrosDiasPersonasDiscapacidad"
11156165;"Centro de rehabilitación laboral Nueva vida";"";"";"Centro de rehabilitación para personas con enfermedad mental crónica.";"Metro: Ventas (línea 2 y 5)    Bus: 53, 74, 43, 48";"";"3";"http://www.madrid.es/sites/v/index.jsp?vgnextchannel=bfa48ab43d6bb410VgnVCM100000171f5a0aRCRD&vgnextoid=40a0bc18998c0710VgnVCM2000001f4a900aRCRD";"COLOMER";"CALLE";"V";"14";"";"";"";"";"MADRID";"MADRID";"28028";"4";"GUINDALERA";"4";"SALAMANCA";"443641";"4476187";"40.43441973830678";"-3.664480273941069";"913 552 680";"";"";"/contenido/entidadesYorganismos/CentrosAtencionSocialPersonasDiscapacidad/CentrosDiasPersonasDiscapacidad"
11525792;"Centro de rehabilitación laboral Villaverde";"";"";"Centro de rehabilitación para personas con enfermedad mental crónica";"Bus: 130, 22, 86  Metro: Villaverde Bajo - Cruce (línea 3)";"";"3";"http://www.madrid.es/sites/v/index.jsp?vgnextchannel=bfa48ab43d6bb410VgnVCM100000171f5a0aRCRD&vgnextoid=7602d5ae3bd2d710VgnVCM2000001f4a900aRCRD";"ALCOCER";"CALLE";"V";"42";"";"";"";"";"MADRID";"MADRID";"28041";"5";"LOS ANGELES";"17";"VILLAVERDE";"440460";"4466876";"40.35031859786236";"-3.7011069209511023";"917 975 838";"";"";"/contenido/entidadesYorganismos/CentrosAtencionSocialPersonasDiscapacidad/CentrosDiasPersonasDiscapacidad"
7827714;"Centro de rehabilitación y recuperación y residencia Medinaceli";"";"";"Residencia y centro de rehabilitación para personas con discapacidad física.";"Metro: Alto del Arenal (línea 1)  Bus: 57, 58, 103, 143";"";"1";"http://www.madrid.es/sites/v/index.jsp?vgnextchannel=bfa48ab43d6bb410VgnVCM100000171f5a0aRCRD&vgnextoid=b6598e738bdca410VgnVCM1000000b205a0aRCRD";"RAMIREZ TOME";"CALLE";"V";"38";"";"";"";"";"MADRID";"MADRID";"28038";"5";"PORTAZGO";"13";"PUENTE DE VALLECAS";"445128";"4471110";"40.38878570721145";"-3.646501329650509";"913 807 630";"";"";"/contenido/entidadesYorganismos/CentrosAtencionSocialPersonasDiscapacidad/ResidenciasPersonasDiscapacidad"
10608686;"Centro de servicios múltiples y residencia del lesionado medular Miguel Ángel García Oca";"";"";"Centro de rehabilitación y residencia para personas con discapacidad física.";"Metro: Buenos Aires (línea 1), Portazgo (línea 1)    Bus: 54, 141, 143";"";"3";"http://www.madrid.es/sites/v/index.jsp?vgnextchannel=bfa48ab43d6bb410VgnVCM100000171f5a0aRCRD&vgnextoid=b4a83eb6a4c41610VgnVCM2000001f4a900aRCRD";"VALDERRIBAS";"CAMINO";"V";"115";"";"";"";"";"MADRID";"MADRID";"28038";"6";"NUMANCIA";"13";"PUENTE DE VALLECAS";"444316";"4471748";"40.3944778539194";"-3.6561267016339087";"917 775 544";"";"";"/contenido/entidadesYorganismos/CentrosAtencionSocialPersonasDiscapacidad/CentrosOcupacionalesPersonasDiscapacidad"
7193047;"Centro ocupacional Ademo II";"";"";"Centro ocupacional para personas con discapacidad intelectual.";"Metro: Vinateros (línea 9)  Bus: 71, 30, 32";"";"3";"http://www.madrid.es/sites/v/index.jsp?vgnextchannel=bfa48ab43d6bb410VgnVCM100000171f5a0aRCRD&vgnextoid=e707107d4d572410VgnVCM1000000b205a0aRCRD";"CAMINO DE LOS VINATEROS";"CALLE";"V";"59";"";"";"";"";"MADRID";"MADRID";"28030";"4";"MEDIA LEGUA";"14";"MORATALAZ";"444623";"4473534";"40.41059083170422";"-3.652661949694097";"914 398 118";"";"";"/contenido/entidadesYorganismos/CentrosAtencionSocialPersonasDiscapacidad/CentrosOcupacionalesPersonasDiscapacidad"
7191610;"Centro ocupacional Afade";"";"";"Centro ocupacional para personas con discapacidad intelectual.";"Metro: Alto del Arenal (línea 1), Miguel Hernández (línea 1)  Bus: 54, 144";"";"3";"http://www.madrid.es/sites/v/index.jsp?vgnextchannel=bfa48ab43d6bb410VgnVCM100000171f5a0aRCRD&vgnextoid=8c17c067ba072410VgnVCM1000000b205a0aRCRD";"RAFAEL ALBERTI";"AVENIDA";"V";"4";"";"";"";"";"MADRID";"MADRID";"28038";"4";"PALOMERAS SURESTE";"13";"PUENTE DE VALLECAS";"445828";"4471379";"40.39125175478508";"-3.6382818521729297";"913 807 370";"";"";"/contenido/entidadesYorganismos/CentrosAtencionSocialPersonasDiscapacidad/CentrosOcupacionalesPersonasDiscapacidad"
179797;"Centro ocupacional Afanias las Victorias";"";"";"Centro ocupacional para personas con discapacidad intelectual.";"Metro: Valdeacederas (línea 1), Tetuán (línea 1)  Bus: 49  Bicimad: estación 301 (Calle Muller, 34)";"";"3";"http://www.madrid.es/sites/v/index.jsp?vgnextchannel=bfa48ab43d6bb410VgnVCM100000171f5a0aRCRD&vgnextoid=6ecfdef5ab41c010VgnVCM2000000c205a0aRCRD";"FRAY JUNIPERO SERRA";"CALLE";"V";"27";"BAJO";"";"";"";"MADRID";"MADRID";"28039";"5";"VALDEACEDERAS";"6";"TETUAN";"440626";"4479547";"40.46447885399867";"-3.7003342953735996";"915 715 216 / 915 711 735";"";"";"/contenido/entidadesYorganismos/CentrosAtencionSocialPersonasDiscapacidad/CentrosOcupacionalesPersonasDiscapacidad"
133713;"Centro ocupacional Estar 5";"";"";"Centro ocupacional para personas con discapacidad intelectual.";"Bus: 130, T31";"";"3";"http://www.madrid.es/sites/v/index.jsp?vgnextchannel=bfa48ab43d6bb410VgnVCM100000171f5a0aRCRD&vgnextoid=06986da0aa81c010VgnVCM1000000b205a0aRCRD";"HORMIGUERAS";"CAMINO";"V";"122";"4";"Q1";"";"";"MADRID";"MADRID";"28031";"1";"CASCO H.VALLECAS";"18";"VILLA DE VALLECAS";"445287";"4469485";"40.37415200820221";"-3.644499097070304";"915 543 637 /  913 803 107";"";"";"/contenido/entidadesYorganismos/CentrosAtencionSocialPersonasDiscapacidad/CentrosOcupacionalesPersonasDiscapacidad"
11841316;"Centro ocupacional Fundación Inclusive";"";"";"Centro ocupacional para personas con discapacidad intelectual.";"Metro: Santiago Bernabeu (línea 10)  Bus: 149, 5, 43";"";"3";"http://www.madrid.es/sites/v/index.jsp?vgnextchannel=bfa48ab43d6bb410VgnVCM100000171f5a0aRCRD&vgnextoid=10b3d8a63ef44810VgnVCM2000001f4a900aRCRD";"EDGAR NEVILLE";"CALLE";"V";"28";"";"";"";"";"MADRID";"MADRID";"28020";"2";"CUATRO CAMINOS";"6";"TETUAN";"440939";"4478092";"40.45139623758831";"-3.6965098401771623";"917 708 090 / 655 977 548";"";"";"/contenido/entidadesYorganismos/CentrosAtencionSocialPersonasDiscapacidad/CentrosOcupacionalesPersonasDiscapacidad"
7192542;"Centro ocupacional Fundación Prodis";"";"";"Centro ocupacional para personas con discapacidad intelectual.";"Metro: Valdebernardo (línea 9)  Bus: 71, 130, 8";"";"3";"http://www.madrid.es/sites/v/index.jsp?vgnextchannel=bfa48ab43d6bb410VgnVCM100000171f5a0aRCRD&vgnextoid=ce229e3465572410VgnVCM2000000c205a0aRCRD";"INDALECIO PRIETO";"BULEVAR";"V";"2";"";"";"";"";"MADRID";"MADRID";"28032";"2";"VALDEBERNARDO";"19";"VICALVARO";"447422";"4472926";"40.40529380046373";"-3.619628148619535";"913 715 351";"";"";"/contenido/entidadesYorganismos/CentrosAtencionSocialPersonasDiscapacidad/CentrosOcupacionalesPersonasDiscapacidad"
7827408;"Centro ocupacional Jardines de España";"";"";"Centro ocupacional para personas con discapacidad intelectual";"Bus: 173, 174, 176";"";"3";"http://www.madrid.es/sites/v/index.jsp?vgnextchannel=bfa48ab43d6bb410VgnVCM100000171f5a0aRCRD&vgnextoid=1a97fb625b9ca410VgnVCM2000000c205a0aRCRD";"BURGOS";"AVENIDA";"V";"1";"";"";"";"";"MADRID";"MADRID";"28036";"6";"CASTILLA";"5";"CHAMARTIN";"442617";"4480075";"40.46938009662294";"-3.676895278234155";"917 667 121 / 629 067 501";"";"";"/contenido/entidadesYorganismos/CentrosAtencionSocialPersonasDiscapacidad/CentrosOcupacionalesPersonasDiscapacidad"
11937;"Centro ocupacional Nazaret";"";"";"Centro ocupacional para personas con discapacidad intelectual.";"Bus: 174, 150  Renfe: Fuente de la Mora (C1, C10)";"";"3";"http://www.madrid.es/sites/v/index.jsp?vgnextchannel=bfa48ab43d6bb410VgnVCM100000171f5a0aRCRD&vgnextoid=8a7466051361c010VgnVCM1000000b205a0aRCRD";"MANOTERAS";"AVENIDA";"V";"1";"";"";"";"";"MADRID";"MADRID";"28050";"6";"VALDEFUENTES";"16";"HORTALEZA";"443124";"4482243";"40.48894186955553";"-3.6711180069340204";"913 027 851 / 913 027 853";"";"";"/contenido/entidadesYorganismos/CentrosAtencionSocialPersonasDiscapacidad/CentrosOcupacionalesPersonasDiscapacidad"
11285521;"Centro ocupacional Nuestra Señora del Camino III";"";"";"Centro ocupacional para personas con discapacidad intelectual.";"Metro: Valdezarza (línea 7)  Bus: 126, 127, 132, 64";"";"3";"http://www.madrid.es/sites/v/index.jsp?vgnextchannel=bfa48ab43d6bb410VgnVCM100000171f5a0aRCRD&vgnextoid=7b0fd40d0b156710VgnVCM1000001d4a900aRCRD";"NUEVA CALEDONIA";"CALLE";"V";"14";"";"";"";"";"MADRID";"MADRID";"28035";"3";"CIUDAD UNIVERSITARIA";"9";"MONCLOA-ARAVACA";"438836";"4479300";"40.46212135262279";"-3.7214188740023237";"914 596 344";"";"";"/contenido/entidadesYorganismos/CentrosAtencionSocialPersonasDiscapacidad/ResidenciasPersonasDiscapacidad"
56940;"Centro ocupacional Pintor Rosales";"";"";"Centro ocupacional para personas con discapacidad intelectual.";"Metro: Arg&amp;uuml;elles (línea 3, 4 y 6), Ventura Rodríguez (línea 3)  Bus: 1, 21, 44, 74, 133, 138";"";"3";"http://www.madrid.es/sites/v/index.jsp?vgnextchannel=bfa48ab43d6bb410VgnVCM100000171f5a0aRCRD&vgnextoid=637a8ed67151c010VgnVCM2000000c205a0aRCRD";"MARQUES DE URQUIJO";"CALLE";"V";"47";"";"";"";"";"MADRID";"MADRID";"28008";"2";"ARGUELLES";"9";"MONCLOA-ARAVACA";"438832";"4475613";"40.42890933944999";"-3.7211158485983127";"915 543 637";"";"";"/contenido/entidadesYorganismos/CentrosAtencionSocialPersonasDiscapacidad/CentrosOcupacionalesPersonasDiscapacidad"
10608506;"Centro ocupacional Ponce de León";"";"";"Centro ocupacional para personas con discapacidad intelectual.";"Metro: Hospital 12 de octubre (línea 3), San Fermín-Orcasur (línea 3)    Bus: 76, 18, 22, 59, 79, 85, 86, 121, 81";"";"3";"http://www.madrid.es/sites/v/index.jsp?vgnextchannel=bfa48ab43d6bb410VgnVCM100000171f5a0aRCRD&vgnextoid=7a10c0a43fb41610VgnVCM2000001f4a900aRCRD";"EDUARDO BARREIROS";"CALLE";"V";"6";"";"";"";"";"MADRID";"MADRID";"28041";"2";"ORCASUR";"12";"USERA";"440898";"4469324";"40.37240634440121";"-3.696174835478501";"913 178 441 / 913 178 442";"";"";"/contenido/entidadesYorganismos/CentrosAtencionSocialPersonasDiscapacidad/CentrosOcupacionalesPersonasDiscapacidad"
10612875;"Centro ocupacional Primer paso";"";"";"Centro ocupacional para personas con discapacidad intelectual.";"Bus: 161";"";"3";"http://www.madrid.es/sites/v/index.jsp?vgnextchannel=bfa48ab43d6bb410VgnVCM100000171f5a0aRCRD&vgnextoid=2b8563dc9e561610VgnVCM1000001d4a900aRCRD";"TAPIA DE CASARIEGO";"CALLE";"V";"13";"";"";"";"";"MADRID";"MADRID";"28023";"5";"VALDEMARIN";"9";"MONCLOA-ARAVACA";"434374";"4479651";"40.464941828201596";"-3.774080179397656";"911 124 983";"";"";"/contenido/entidadesYorganismos/CentrosAtencionSocialPersonasDiscapacidad/CentrosOcupacionalesPersonasDiscapacidad"
7827380;"Centro ocupacional San Fernando";"";"";"Centro ocupacional para personas con discapacidad intelectual.";"Metro: Almendrales (línea 3)  Bus: 78, 6, 18, 22, 59, 76, 79, 85, 86";"";"3";"http://www.madrid.es/sites/v/index.jsp?vgnextchannel=bfa48ab43d6bb410VgnVCM100000171f5a0aRCRD&vgnextoid=6fdbfb625b9ca410VgnVCM2000000c205a0aRCRD";"CRISTO DE LA VICTORIA";"CALLE";"V";"1";"";"";"";"";"MADRID";"MADRID";"28026";"4";"ALMENDRALES";"12";"USERA";"440603";"4470421";"40.38226328626074";"-3.6997701685582576";"914 690 391 / 914 674 221";"";"";"/contenido/entidadesYorganismos/CentrosAtencionSocialPersonasDiscapacidad/CentrosOcupacionalesPersonasDiscapacidad"
11941;"Centro ocupacional San Pedro Apostol";"";"";"Centro ocupacional para personas con discapacidad intelectual.";"Metro: Barajas (línea 8)  Bus: 101, 105, 115";"";"3";"http://www.madrid.es/sites/v/index.jsp?vgnextchannel=bfa48ab43d6bb410VgnVCM100000171f5a0aRCRD&vgnextoid=9bb466051361c010VgnVCM1000000b205a0aRCRD";"JUBILADO";"PLAZA";"V";"7";"";"";"";"";"MADRID";"MADRID";"28042";"3";"CASCO H.BARAJAS";"21";"BARAJAS";"451092";"4480540";"40.47410680699096";"-3.5769631957725725";"913 056 074";"";"";"/contenido/entidadesYorganismos/CentrosAtencionSocialPersonasDiscapacidad/CentrosOcupacionalesPersonasDiscapacidad"
39623;"Centro ocupacional y residencia Afanias Canillejas";"";"";"Centro ocupacional y residencia para personas con discapacidad intelectual";"Metro: Torre Arias (línea 5)  Bus: 28, 140, 153, 165";"";"3";"http://www.madrid.es/sites/v/index.jsp?vgnextchannel=bfa48ab43d6bb410VgnVCM100000171f5a0aRCRD&vgnextoid=712bf0bde551c010VgnVCM2000000c205a0aRCRD";"CANILLEJAS A VICALVARO";"AVENIDA";"V";"28";"";"";"";"";"MADRID";"MADRID";"28022";"1";"SIMANCAS";"20";"SAN BLAS-CANILLEJAS";"447849";"4476759";"40.43984483228853";"-3.614914740430984";"917 415 700";"";"";"/contenido/entidadesYorganismos/CentrosAtencionSocialPersonasDiscapacidad/CentrosOcupacionalesPersonasDiscapacidad"
133361;"Centro ocupacional y residencia Barajas";"";"";"Centro ocupacional y residencia para personas con discapacidad intelectual.";"Bus: 222, 223, 224 (desde Avenida de Ámerica)";"";"3";"http://www.madrid.es/sites/v/index.jsp?vgnextchannel=bfa48ab43d6bb410VgnVCM100000171f5a0aRCRD&vgnextoid=ae9715a11a81c010VgnVCM1000000b205a0aRCRD";"ZAOREJAS";"CALLE";"V";"16";"";"";"";"";"MADRID";"MADRID";"28042";"2";"AEROPUERTO";"21";"BARAJAS";"453122";"4477999";"40.45133060595076";"-3.5528289378073095";"917 473 311";"";"";"/contenido/entidadesYorganismos/CentrosAtencionSocialPersonasDiscapacidad/CentrosOcupacionalesPersonasDiscapacidad"
133488;"Centro ocupacional y residencia Carabanchel";"";"";"Centro ocupacional y residencia para personas con discapacidad intelectual.";"Bus: 34, 35";"";"1";"http://www.madrid.es/sites/v/index.jsp?vgnextchannel=bfa48ab43d6bb410VgnVCM100000171f5a0aRCRD&vgnextoid=dfd86da0aa81c010VgnVCM1000000b205a0aRCRD";"GENERAL RICARDOS";"CALLE";"V";"177";"";"";"";"";"MADRID";"MADRID";"28025";"5";"PUERTA BONITA";"11";"CARABANCHEL";"437487";"4470773";"40.385207193828954";"-3.7364894865229403";"914 656 308 / 914 628 614";"";"";"/contenido/entidadesYorganismos/CentrosAtencionSocialPersonasDiscapacidad/CentrosOcupacionalesPersonasDiscapacidad"
133475;"Centro ocupacional y residencia Casa Santa Teresa";"";"";"Centro ocupacional y residencia para personas con discapacidad intelectual.";"Metro: Duque de Pastrana (línea 9)  Bus: 107, 129, 70, 174";"";"3";"http://www.madrid.es/sites/v/index.jsp?vgnextchannel=bfa48ab43d6bb410VgnVCM100000171f5a0aRCRD&vgnextoid=31575f463b81c010VgnVCM1000000b205a0aRCRD";"PONIENTE";"CALLE";"V";"10";"";"";"";"";"MADRID";"MADRID";"28036";"6";"CASTILLA";"5";"CHAMARTIN";"442193";"4479937";"40.468105696439416";"-3.681890331736271";"913 020 613";"";"";"/contenido/entidadesYorganismos/CentrosAtencionSocialPersonasDiscapacidad/CentrosOcupacionalesPersonasDiscapacidad"
133522;"Centro ocupacional y residencia Ciudad Lineal";"";"";"Centro ocupacional y residencia para personas con discapacidad intelectual.";"Bus: 21, 70, 114, 11";"";"3";"http://www.madrid.es/sites/v/index.jsp?vgnextchannel=bfa48ab43d6bb410VgnVCM100000171f5a0aRCRD&vgnextoid=e3186da0aa81c010VgnVCM1000000b205a0aRCRD";"JOSEFA VALCARCEL";"CALLE";"V";"1";"";"";"";"";"MADRID";"MADRID";"28027";"5";"SAN PASCUAL";"15";"CIUDAD LINEAL";"444972";"4477699";"40.44812932263149";"-3.648919167355348";"917 422 201";"";"";"/contenido/entidadesYorganismos/CentrosAtencionSocialPersonasDiscapacidad/CentrosOcupacionalesPersonasDiscapacidad"
10605400;"Centro ocupacional y residencia Disma";"";"";"Centro ocupacional y residencia para personas con discapacidad intelectual";"Bus: 151, 166";"";"3";"http://www.madrid.es/sites/v/index.jsp?vgnextchannel=bfa48ab43d6bb410VgnVCM100000171f5a0aRCRD&vgnextoid=f48af81878231610VgnVCM1000001d4a900aRCRD";"BAHIA DE POLLENSA";"CALLE";"V";"25";"";"";"";"";"MADRID";"MADRID";"28042";"5";"CORRALEJOS";"21";"BARAJAS";"449829";"4479508";"40.46473190259812";"-3.5917816026576035";"917 479 226 / 630 100 146";"";"";"/contenido/entidadesYorganismos/CentrosAtencionSocialPersonasDiscapacidad/CentrosOcupacionalesPersonasDiscapacidad"
10605448;"Centro ocupacional y residencia Fundación ALAS Madrid";"";"";"Centro ocupacional y residencia para personas con discapacidad intelectual.";"Metro: Pavones (línea 9)  Bus: 8, 20";"";"1";"http://www.madrid.es/sites/v/index.jsp?vgnextchannel=bfa48ab43d6bb410VgnVCM100000171f5a0aRCRD&vgnextoid=2b6ef81878231610VgnVCM1000001d4a900aRCRD";"ENCOMIENDA DE PALACIOS";"CALLE";"V";"235";"";"";"";"";"MADRID";"MADRID";"28030";"1";"PAVONES";"14";"MORATALAZ";"446044";"4472095";"40.39771732231811";"-3.635794572225089";"917 724 300";"";"";"/contenido/entidadesYorganismos/CentrosAtencionSocialPersonasDiscapacidad/CentrosOcupacionalesPersonasDiscapacidad"
133490;"Centro ocupacional y residencia Juan de Austria";"";"";"Centro ocupacional y residencia para personas con discapacidad intelectual";"Metro: Ciudad Lineal (línea 5).  Bus: 48, 70, 104, 109, 113, 4, 77.  Bicimad: Estación 477 (calle Misterios, 1).";"";"3";"http://www.madrid.es/sites/v/index.jsp?vgnextchannel=bfa48ab43d6bb410VgnVCM100000171f5a0aRCRD&vgnextoid=5a696da0aa81c010VgnVCM1000000b205a0aRCRD";"ARTURO SORIA";"CALLE";"V";"12";"";"";"";"";"MADRID";"MADRID";"28027";"3";"QUINTANA";"15";"CIUDAD LINEAL";"445843";"4476682";"40.43902917486297";"-3.6385575667891215";"913 771 519";"";"";"/contenido/entidadesYorganismos/CentrosAtencionSocialPersonasDiscapacidad/CentrosOcupacionalesPersonasDiscapacidad"
35179;"Centro residencial San Martín de Porres";"";"";"Residencia para personas con discapacidad intelectual.";"Bus: 163";"";"3";"http://www.madrid.es/sites/v/index.jsp?vgnextchannel=bfa48ab43d6bb410VgnVCM100000171f5a0aRCRD&vgnextoid=389b444a2951c010VgnVCM2000000c205a0aRCRD";"WALMAN";"CALLE";"V";"17";"";"";"";"";"MADRID";"MADRID";"28023";"6";"EL PLANTIO";"9";"MONCLOA-ARAVACA";"430132";"4480474";"40.47201374593931";"-3.8242063426385497";"913 077 042";"";"";"/contenido/entidadesYorganismos/CentrosAtencionSocialPersonasDiscapacidad/ResidenciasPersonasDiscapacidad"
4852632;"Centro residencial San Nicolás para personas con discapacidad intelectual";"";"";"Residencia para personas con discapacidad intelectual.";"Bus: 35, 155";"";"3";"http://www.madrid.es/sites/v/index.jsp?vgnextchannel=bfa48ab43d6bb410VgnVCM100000171f5a0aRCRD&vgnextoid=598ceba6910f8110VgnVCM1000000b205a0aRCRD";"PINAR DE SAN JOSE";"CALLE";"V";"98";"";"";"";"";"MADRID";"MADRID";"28054";"6";"CUATRO VIENTOS";"10";"LATINA";"434205";"4468235";"40.36209379003986";"-3.774890979411398";"915 080 140";"";"";"/contenido/entidadesYorganismos/CentrosAtencionSocialPersonasDiscapacidad/CentrosDiasPersonasDiscapacidad"
7190391;"Centro residencial, centro de día y centro ocupacional Fundación Betesda Gran Vía de Hortaleza";"";"";"Centro residencial, centro de día y centro ocupacional para personas con discapacidad intelectual.";"Metro: Pinar del Rey (línea 8)  Bus: 87";"";"3";"http://www.madrid.es/sites/v/index.jsp?vgnextchannel=bfa48ab43d6bb410VgnVCM100000171f5a0aRCRD&vgnextoid=e4bd0deb6cf62410VgnVCM1000000b205a0aRCRD";"GRAN VIA DE HORTALEZA";"AVENIDA";"V";"1";"";"";"";"";"MADRID";"MADRID";"28033";"4";"PINAR DEL REY";"16";"HORTALEZA";"444108";"4479554";"40.46478428677373";"-3.659261897269786";"913 882 501 / 609 551 078";"";"";"/contenido/entidadesYorganismos/CentrosAtencionSocialPersonasDiscapacidad/CentrosOcupacionalesPersonasDiscapacidad"
11154959;"Cepri La Peineta, centro de día";"";"";"Centro de día para personas con discapacidad intelectual.";"Metro: Las Rosas (línea 2)  Bus: 140, 153";"";"3";"http://www.madrid.es/sites/v/index.jsp?vgnextchannel=bfa48ab43d6bb410VgnVCM100000171f5a0aRCRD&vgnextoid=2de3014bf7eb0710VgnVCM2000001f4a900aRCRD";"SUECIA";"CALLE";"V";"36";"";"";"";"";"MADRID";"MADRID";"28022";"5";"ROSAS";"20";"SAN BLAS-CANILLEJAS";"448674";"4474916";"40.423294337278605";"-3.6050407955560706";"913 240 255";"";"";"/contenido/entidadesYorganismos/CentrosAtencionSocialPersonasDiscapacidad/CentrosDiasPersonasDiscapacidad"
108506;"Cepri La Peineta, residencia";"";"";"Residencia para personas con discapacidad intelectual.";"Metro: Las Rosas (línea 2)  Bus: 140, 153";"";"3";"http://www.madrid.es/sites/v/index.jsp?vgnextchannel=bfa48ab43d6bb410VgnVCM100000171f5a0aRCRD&vgnextoid=eb6e15a11a81c010VgnVCM1000000b205a0aRCRD";"ZURICH";"CALLE";"V";"41";"";"";"";"";"MADRID";"MADRID";"28022";"5";"ROSAS";"20";"SAN BLAS-CANILLEJAS";"448777";"4474884";"40.42301448024141";"-3.6038241150517742";"913 135 856";"";"";"/contenido/entidadesYorganismos/CentrosAtencionSocialPersonasDiscapacidad/ResidenciasPersonasDiscapacidad"
10605457;"Conjunto residencial Las Fuentes";"";"";"Residencia para personas con discapacidad intelectual.";"Metro: Canillas (línea 4)    Bus: 112, 120, 122, 153";"";"3";"http://www.madrid.es/sites/v/index.jsp?vgnextchannel=bfa48ab43d6bb410VgnVCM100000171f5a0aRCRD&vgnextoid=74cef81878231610VgnVCM1000001d4a900aRCRD";"VICENTE MORALES";"CALLE";"V";"5";"";"";"";"";"MADRID";"MADRID";"28043";"2";"PIOVERA";"16";"HORTALEZA";"446062";"4479221";"40.461912532518056";"-3.636184523065201";"913 886 412";"";"";"/contenido/entidadesYorganismos/CentrosAtencionSocialPersonasDiscapacidad/ResidenciasPersonasDiscapacidad"
7828344;"Estudios Sobradiel Residencia para personas con discapacidad";"";"";"Residencia para personas con discapacidad física.";"Metro: Arturo Soria (línea 4), Esperanza (línea 4)  Bus: 11, 70, 122";"";"3";"http://www.madrid.es/sites/v/index.jsp?vgnextchannel=bfa48ab43d6bb410VgnVCM100000171f5a0aRCRD&vgnextoid=1c3a0e4553eca410VgnVCM1000000b205a0aRCRD";"SOBRADIEL";"RONDA";"V";"83";"";"";"";"";"MADRID";"MADRID";"28043";"2";"PIOVERA";"16";"HORTALEZA";"445198";"4478274";"40.45332231133247";"-3.6462949755112546";"913 885 627";"";"";"/contenido/entidadesYorganismos/CentrosAtencionSocialPersonasDiscapacidad/ResidenciasPersonasDiscapacidad"
11529290;"Frater Madrid, Centro de rehabilitación";"";"";"Centro de rehabilitación para personas con discapacidad física.";"Bus: 002  Metro: San Bernardo (línea 2 y 4)";"";"3";"http://www.madrid.es/sites/v/index.jsp?vgnextchannel=bfa48ab43d6bb410VgnVCM100000171f5a0aRCRD&vgnextoid=d7b575541b64d710VgnVCM2000001f4a900aRCRD";"MONTSERRAT";"CALLE";"V";"30";"";"";"";"";"MADRID";"MADRID";"28015";"5";"UNIVERSIDAD";"1";"CENTRO";"439835";"4475498";"40.42794591553719";"-3.7092762161228228";"915 414 397";"";"";"/contenido/entidadesYorganismos/CentrosAtencionSocialPersonasDiscapacidad/CentrosOcupacionalesPersonasDiscapacidad"
7190893;"Fundación Síndrome de Down, centro ocupacional Tres olivos";"";"";"Centro ocupacional para personas con discapacidad intelectual.";"Metro: Tres Olivos (línea 10)  Bus: 66, 137, SE704";"";"1";"http://www.madrid.es/sites/v/index.jsp?vgnextchannel=bfa48ab43d6bb410VgnVCM100000171f5a0aRCRD&vgnextoid=4b4cdffb91072410VgnVCM1000000b205a0aRCRD";"CUEVA DE MONTESINOS";"CALLE";"V";"45";"";"";"";"";"MADRID";"MADRID";"28034";"6";"VALVERDE";"8";"FUENCARRAL-EL PARDO";"441347";"4483462";"40.49980074716198";"-3.692186601368641";"913 876 790 / 629 410 839";"";"";"/contenido/entidadesYorganismos/CentrosAtencionSocialPersonasDiscapacidad/CentrosOcupacionalesPersonasDiscapacidad"
11530290;"Lescer, centro de rehabilitación calle Padres Dominicos";"";"";"Centro de rehabilitación para personas con discapacidad física.";"Bus: 155B";"";"3";"http://www.madrid.es/sites/v/index.jsp?vgnextchannel=bfa48ab43d6bb410VgnVCM100000171f5a0aRCRD&vgnextoid=bad33fce7974d710VgnVCM1000001d4a900aRCRD";"PADRES DOMINICOS";"CALLE";"V";"5";"";"";"";"";"MADRID";"MADRID";"28050";"6";"VALDEFUENTES";"16";"HORTALEZA";"444343";"4483953";"40.50443220893142";"-3.6568768654381985";"917 398 142 / 630 145 229";"";"";"/contenido/entidadesYorganismos/CentrosAtencionSocialPersonasDiscapacidad/CentrosOcupacionalesPersonasDiscapacidad"
11530802;"Manantial Las Rosas, Centro de rehabilitación laboral";"";"";"Centro de rehabilitación para personas con enfermedad mental crónica.";"Metro: Las Rosas (línea 2)  Bus: 140, 153";"";"3";"http://www.madrid.es/sites/v/index.jsp?vgnextchannel=bfa48ab43d6bb410VgnVCM100000171f5a0aRCRD&vgnextoid=66a1a8ff3a84d710VgnVCM2000001f4a900aRCRD";"SOFIA";"CALLE";"V";"177";"";"";"";"";"MADRID";"MADRID";"28022";"5";"ROSAS";"20";"SAN BLAS-CANILLEJAS";"448910";"4474758";"40.42188720984669";"-3.6022458922757497";"917 609 481";"";"";"/contenido/entidadesYorganismos/CentrosAtencionSocialPersonasDiscapacidad/CentrosDiasPersonasDiscapacidad"
11854873;"Menni Retiro, residencia y centro de rehabilitación laboral";"";"";"Residencia  y centro de rehabilitación laboral para personas con enfermedad mental crónica.";"Metro: Sáinz de Baranda (línea 6, 9)  Bus: 143, 156, 30, 56, 20";"";"3";"http://www.madrid.es/sites/v/index.jsp?vgnextchannel=bfa48ab43d6bb410VgnVCM100000171f5a0aRCRD&vgnextoid=047d5f96344a4810VgnVCM1000001d4a900aRCRD";"SAMARIA";"CALLE";"V";"3";"";"";"";"";"MADRID";"MADRID";"28007";"3";"ESTRELLA";"3";"RETIRO";"443308";"4474306";"40.41745444975348";"-3.668232544894511";"910 609 919";"";"";"/contenido/entidadesYorganismos/CentrosAtencionSocialPersonasDiscapacidad/CentrosDiasPersonasDiscapacidad"
11156189;"Menni Retiro, residencia, centro de día y centro de rehabilitación y soporte social";"";"";"Residencia, centro de día y centro de rehabilitación y soporte social para personas con enfermedad mental crónica.";"Metro: Sáinz de Baranda (línea 6, 9)  Bus: 143, 156, 30, 56, 20";"";"3";"http://www.madrid.es/sites/v/index.jsp?vgnextchannel=bfa48ab43d6bb410VgnVCM100000171f5a0aRCRD&vgnextoid=8c8aa9e48d8c0710VgnVCM2000001f4a900aRCRD";"SAMARIA";"CALLE";"V";"3";"";"";"";"";"MADRID";"MADRID";"28009";"6";"NIÑO JESUS";"3";"RETIRO";"443124";"4473825";"40.413104183537925";"-3.6703600801595697";"917 370 623";"";"";"/contenido/entidadesYorganismos/CentrosAtencionSocialPersonasDiscapacidad/CentrosDiasPersonasDiscapacidad"
11854753;"Numen centro de atención integral";"";"";"Centro de recuperación para personas con discapacidad física.";"Bus: 146  Metro: Suanzes (línea 5)";"";"1";"http://www.madrid.es/sites/v/index.jsp?vgnextchannel=bfa48ab43d6bb410VgnVCM100000171f5a0aRCRD&vgnextoid=5ca56dddfe3a4810VgnVCM1000001d4a900aRCRD";"TABATINGA";"CALLE";"V";"11";"BAJA";"";"";"";"MADRID";"MADRID";"28027";"8";"EL SALVADOR";"20";"SAN BLAS-CANILLEJAS";"446329";"4477250";"40.44417122224278";"-3.632878961676391";"917 432 191";"";"";"/contenido/entidadesYorganismos/CentrosAtencionSocialPersonasDiscapacidad/CentrosOcupacionalesPersonasDiscapacidad"
11602107;"Oficina Municipal de Vida Independiente para personas con discapacidad intelectual o del desarrollo";"La Oficina Municipal de Vida Independiente ofrece información, orientación y apoyo personalizado para personas con discapacidad intelectual y/o del desarrollo, sus familias, entidades y ciudadanía en general.Complementa a los demás recursos sociosanitarios de la ciudad de Madrid mediante la figura del asistente personal. Presta información, orientación y apoyo a las personas con discapacidad intelectual y/o del desarrollo, sus familias, entidades y a toda la ciudadanía.Su objetivo es conseguir una vida independiente fomentando la autonomía personal, la autodeterminación, la inclusión y el ejercicio de sus derechos en igualdad de condiciones que el resto de las madrileñas y madrileños.";"Presencial, de lunes a viernes de 10:00 a 14:00 horas y de 16:00 a 18:00 horas.Asistencia personal, se prestará los 365 días del año.Se puede solicitar atención con cita previa.";"Los trabajadores sociales de la oficina prestan los siguientes servicios: 1.- Información, orientación y asesoramiento en materia de recursos, servicios y prestaciones a los que pueden acceder las personas con discapacidad intelectual. 2.- Elaboración de un Plan Individual de Vida Independiente por parte del/la profesional, previa propuesta del usuario/a sobre el apoyo que requiere. 3.- Puesta a disposición de las personas con discapacidad intelectual de una 'bolsa de horas' de apoyo personal, en función de sus necesidades y demandas. 4.- Fomentar la participación inclusiva de las personas con discapacidad intelectual en actividades de la comunidad tales como ocio, cultura, deportes, espacios vecinales, etc. 5.- Apoyo en la búsqueda de vivienda independiente y en las actividades de la vida diaria para facilitar su normalización en cuanto a reglas, hábitos de trabajo o convivencia. 6.- Impulsar la autonomía personal y el desarrollo de recursos propios, participando en experiencias sociales, deportivas, culturales y la adquisición de las habilidades para la vida cotidiana. 7.- Orientar y acercar a las familias al conocimiento y la reflexión sobre la discapacidad intelectual, tanto a nivel particular como en aspectos comunes y/o compartidos, así como en materia de Vida Independiente. 8.- Derivación y coordinación con los servicios públicos de protección y/o servicios sociales, o atención primaria.  Personal:  1 coordinador/a  1 trabajador/a social Técnicos/as superiores de integración social / Educador/a.";"Bus: 25, 121, 131 y 138Metro: Aluche (L-5)Cercanías Renfe: Aluche (C-5)";"";"1";"http://www.madrid.es/sites/v/index.jsp?vgnextchannel=bfa48ab43d6bb410VgnVCM100000171f5a0aRCRD&vgnextoid=0beeb8914c70f710VgnVCM2000001f4a900aRCRD";"VALMOJADO";"CALLE";"V";"177";"";"";"";"Parque Aluche, entrada a la altura de la calle Valmojado, 177.";"MADRID";"MADRID";"28047";"4";"ALUCHE";"10";"LATINA";"435649";"4471305";"40.389860989670794";"-3.7581965426520747";"910 281 976";"";"ovidi@madrid.es";"/contenido/entidadesYorganismos/CentrosAtencionSocialPersonasDiscapacidad"
10608714;"Parkinson Madrid, centro integral Madrid Retiro";"";"";"Centro de rehabilitación para personas con discapacidad física.";"Bus: 152, 26, C1, 10, 14, 32, 152, C2, 63";"";"3";"http://www.madrid.es/sites/v/index.jsp?vgnextchannel=bfa48ab43d6bb410VgnVCM100000171f5a0aRCRD&vgnextoid=9c2a3eb6a4c41610VgnVCM2000001f4a900aRCRD";"POETA ESTEBAN DE VILLEGAS";"CALLE";"V";"12";"";"4";"";"";"MADRID";"MADRID";"28014";"5";"LOS JERONIMOS";"3";"RETIRO";"442263";"4473281";"40.40814835842319";"-3.6804515927774135";"914 340 406";"";"";"/contenido/entidadesYorganismos/CentrosAtencionSocialPersonasDiscapacidad/CentrosOcupacionalesPersonasDiscapacidad"
10608702;"Polibea, centro de rehabilitación";"";"";"Centro de recuperación para personas con discapacidad física.";"Metro: Esperanza (línea 4)  Bus: 11, 70, 122";"";"3";"http://www.madrid.es/sites/v/index.jsp?vgnextchannel=bfa48ab43d6bb410VgnVCM100000171f5a0aRCRD&vgnextoid=46793eb6a4c41610VgnVCM2000001f4a900aRCRD";"SOBRADIEL";"RONDA";"V";"36";"";"";"";"";"MADRID";"MADRID";"28043";"2";"PIOVERA";"16";"HORTALEZA";"445935";"4478267";"40.45331397647663";"-3.6376082547182045";"913 889 363";"";"";"/contenido/entidadesYorganismos/CentrosAtencionSocialPersonasDiscapacidad"
10863273;"Psico - Ballet Maite León";"";"";"Centro de formación escénica y artística para personas con discapacidad física, intelectual, del desarrollo, orgánica y sensorial. Escuela de Arte Inclusiva y formación profesional.";"Metro:  Ciudad Lineal (línea 5)    Bus: 70, 48";"";"1";"http://www.madrid.es/sites/v/index.jsp?vgnextchannel=bfa48ab43d6bb410VgnVCM100000171f5a0aRCRD&vgnextoid=be9949c526738610VgnVCM1000001d4a900aRCRD";"VIZCONDE DE LOS ASILOS";"CALLE";"V";"5";"";"";"";"";"MADRID";"MADRID";"28027";"3";"QUINTANA";"15";"CIUDAD LINEAL";"445874";"4476851";"40.44055445124285";"-3.638206237827177";"917 422 320";"";"";"/contenido/entidadesYorganismos/CentrosAtencionSocialPersonasDiscapacidad/CentrosOcupacionalesPersonasDiscapacidad"
6818168;"Residencia Belisana para para personas con discapacidad intelectual no gravemente afectados";"";"";"Residencia para personas con discapacidad intelectual";"Metro: Arturo Soria (línea 4)  Bus: 120, 122";"";"3";"http://www.madrid.es/sites/v/index.jsp?vgnextchannel=bfa48ab43d6bb410VgnVCM100000171f5a0aRCRD&vgnextoid=54e1f6ac0b2dc310VgnVCM1000000b205a0aRCRD";"BELISANA";"CALLE";"V";"22";"";"";"";"";"MADRID";"MADRID";"28043";"3";"CANILLAS";"16";"HORTALEZA";"444617";"4478817";"40.45817645163984";"-3.653202420315872";"913 882 501";"";"";"/contenido/entidadesYorganismos/CentrosAtencionSocialPersonasDiscapacidad/ResidenciasPersonasDiscapacidad"
11919;"Residencia Centro de servicios COCEMFE";"";"";"Residencia para personas con discapacidad física.";"Metro: Prosperidad (línea 4), Cruz del Rayo (línea 9)  Bus: 73, 9, 1";"";"3";"http://www.madrid.es/sites/v/index.jsp?vgnextchannel=bfa48ab43d6bb410VgnVCM100000171f5a0aRCRD&vgnextoid=f88072081661c010VgnVCM1000000b205a0aRCRD";"EUGENIO SALAZAR";"CALLE";"V";"2";"";"";"";"";"MADRID";"MADRID";"28002";"2";"PROSPERIDAD";"5";"CHAMARTIN";"442936";"4477295";"40.44435496792805";"-3.6728916691982363";"914 138 001";"";"";"/contenido/entidadesYorganismos/CentrosAtencionSocialPersonasDiscapacidad/ResidenciasPersonasDiscapacidad"
7827516;"Residencia Estudios Asura";"";"";"Residencia para personas con discapacidad física";"Metro: Arturo Soria (línea 4)  Bus: 120,122";"";"3";"http://www.madrid.es/sites/v/index.jsp?vgnextchannel=bfa48ab43d6bb410VgnVCM100000171f5a0aRCRD&vgnextoid=44cc7c8c2e9ca410VgnVCM2000000c205a0aRCRD";"ASURA";"CALLE";"V";"74";"";"";"";"";"MADRID";"MADRID";"28043";"2";"PIOVERA";"16";"HORTALEZA";"444611";"4478571";"40.45596001748207";"-3.653241575113162";"913 002 140 / 913 005 153";"";"";"/contenido/entidadesYorganismos/CentrosAtencionSocialPersonasDiscapacidad/ResidenciasPersonasDiscapacidad"
11532098;"Residencia Grupo 5 Avenida de América";"";"";"Residencia para personas con enfermedad mental crónica y discapacidad intelectual.";"Bus: 1, 72  Metro: Cartagena (línea 7)";"";"3";"http://www.madrid.es/sites/v/index.jsp?vgnextchannel=bfa48ab43d6bb410VgnVCM100000171f5a0aRCRD&vgnextoid=3f1153f6a7d4d710VgnVCM2000001f4a900aRCRD";"QUINTILIANO";"CALLE";"V";"19";"";"";"";"";"MADRID";"MADRID";"28002";"2";"PROSPERIDAD";"5";"CHAMARTIN";"442733";"4476852";"40.44034828600933";"-3.6752424786492996";"647 358 940";"";"";"/contenido/entidadesYorganismos/CentrosAtencionSocialPersonasDiscapacidad/CentrosDiasPersonasDiscapacidad"
11285538;"Residencia Grupo 5 Canillejas";"";"";"Residencia para personas con enfermedad mental crónica.";"Bus: 77, 105, 140, 153, 165  Metro: Torre Arias, Canillejas (línea 5)";"";"3";"http://www.madrid.es/sites/v/index.jsp?vgnextchannel=bfa48ab43d6bb410VgnVCM100000171f5a0aRCRD&vgnextoid=3002d40d0b156710VgnVCM1000001d4a900aRCRD";"SUAREZ GARCIA";"CALLE";"V";"19";"";"";"";"";"MADRID";"MADRID";"28022";"7";"CANILLEJAS";"20";"SAN BLAS-CANILLEJAS";"447721";"4477542";"40.44689628539865";"-3.616488292271352";"661 763 333";"";"";"/contenido/entidadesYorganismos/CentrosAtencionSocialPersonasDiscapacidad/CentrosDiasPersonasDiscapacidad"
11285549;"Residencia Grupo 5 Mirasierra";"";"";"Residencia para personas con enfermedad mental crónica.";"Bus: 133";"";"3";"http://www.madrid.es/sites/v/index.jsp?vgnextchannel=bfa48ab43d6bb410VgnVCM100000171f5a0aRCRD&vgnextoid=6e03d40d0b156710VgnVCM1000001d4a900aRCRD";"PAN DE AZUCAR";"CALLE";"V";"4";"";"";"";"";"MADRID";"MADRID";"28034";"7";"MIRASIERRA";"8";"FUENCARRAL-EL PARDO";"440088";"4482568";"40.49165490440411";"-3.7069606964643778";"914 026 012 / 647 358 840";"";"";"/contenido/entidadesYorganismos/CentrosAtencionSocialPersonasDiscapacidad/CentrosDiasPersonasDiscapacidad"
11285558;"Residencia Manuel Gómez - Latina";"";"";"Residencia para personas con enfermedad mental crónica.";"Bus: 31, 33, 36, 39, 65  Metro: Alto de Extremadura (línea 6)";"";"3";"http://www.madrid.es/sites/v/index.jsp?vgnextchannel=bfa48ab43d6bb410VgnVCM100000171f5a0aRCRD&vgnextoid=c3a3d40d0b156710VgnVCM1000001d4a900aRCRD";"ARCANGEL SAN RAFAEL";"CALLE";"V";"3";"";"";"";"";"MADRID";"MADRID";"28011";"2";"PUERTA DEL ANGEL";"10";"LATINA";"437350";"4473216";"40.4072064344459";"-3.738352775600738";"";"";"";"/contenido/entidadesYorganismos/CentrosAtencionSocialPersonasDiscapacidad/CentrosDiasPersonasDiscapacidad"
11532159;"Residencia Medinamar Simancas";"";"";"Residencia para personas con enfermedad mental crónica.";"Metro: Simancas (línea 7)  Bus: 109, 38, 4, 48, 70";"";"3";"http://www.madrid.es/sites/v/index.jsp?vgnextchannel=bfa48ab43d6bb410VgnVCM100000171f5a0aRCRD&vgnextoid=52bbb813cf05d710VgnVCM2000001f4a900aRCRD";"CASTILLO DE SIMANCAS";"CALLE";"V";"2";"";"";"";"";"MADRID";"MADRID";"28037";"1";"SIMANCAS";"20";"SAN BLAS-CANILLEJAS";"446803";"4475399";"40.427528169273984";"-3.627131940654409";"911 732 284";"";"";"/contenido/entidadesYorganismos/CentrosAtencionSocialPersonasDiscapacidad/CentrosDiasPersonasDiscapacidad"
133640;"Residencia Mirasierra para personas con discapacidad intelectual gravemente afectadas y centro de día CAMP Mirasierra";"";"";"Residencia y centro de día para personas con discapacidad intelectual gravemente afectadas.";"Metro: Mirasierra (línea 9)  Bus: 49, 134";"";"1";"http://www.madrid.es/sites/v/index.jsp?vgnextchannel=bfa48ab43d6bb410VgnVCM100000171f5a0aRCRD&vgnextoid=551015a11a81c010VgnVCM1000000b205a0aRCRD";"LA MASO";"CALLE";"V";"40";"";"";"";"";"MADRID";"MADRID";"28034";"7";"MIRASIERRA";"8";"FUENCARRAL-EL PARDO";"439475";"4482270";"40.48892405001379";"-3.7141662389685877";"917 398 700";"";"";"/contenido/entidadesYorganismos/CentrosAtencionSocialPersonasDiscapacidad/CentrosDiasPersonasDiscapacidad"
11156246;"Residencia San Juan Bautista";"";"";"Residencia para personas con enfermedad mental crónica.";"Metro: Arturo Soria (línea 4)  Bus: 72, 73, 9, 87, 11, 70, 7";"";"3";"http://www.madrid.es/sites/v/index.jsp?vgnextchannel=bfa48ab43d6bb410VgnVCM100000171f5a0aRCRD&vgnextoid=f565a9e48d8c0710VgnVCM2000001f4a900aRCRD";"NAVARRO AMANDI";"CALLE";"V";"2";"";"";"";"";"MADRID";"MADRID";"28033";"7";"COLINA";"15";"CIUDAD LINEAL";"444021";"4479077";"40.46048102170562";"-3.6602463125093845";"914 135 011";"";"";"/contenido/entidadesYorganismos/CentrosAtencionSocialPersonasDiscapacidad/CentrosDiasPersonasDiscapacidad"
11859072;"Residencia Sear para personas con discapacidad física";"";"";"Residencia para personas con discapacidad física.";"Bus: 712, 713, 714, 716";"";"3";"http://www.madrid.es/sites/v/index.jsp?vgnextchannel=bfa48ab43d6bb410VgnVCM100000171f5a0aRCRD&vgnextoid=3ca5fe86c4db4810VgnVCM2000001f4a900aRCRD";"COLMENAR VIEJO";"CARRETERA";"V";"13.6";"";"";"";"";"MADRID";"MADRID";"28049";"";"";"";"DISTRITO";"439552";"4490491";"40.56299317375062";"-3.7140517146418874";"917 340 148";"";"";"/contenido/entidadesYorganismos/CentrosAtencionSocialPersonasDiscapacidad/CentrosOcupacionalesPersonasDiscapacidad"
11286110;"Residencia Tetuán";"";"";"Residencia para personas con enfermedad mental crónica.";"Metro: Ventilla (línea 9)  Bus: 177, 49";"";"3";"http://www.madrid.es/sites/v/index.jsp?vgnextchannel=bfa48ab43d6bb410VgnVCM100000171f5a0aRCRD&vgnextoid=a986f6bf5b066710VgnVCM1000001d4a900aRCRD";"PINOS BAJA";"CALLE";"V";"88";"";"";"";"";"MADRID";"MADRID";"28029";"5";"VALDEACEDERAS";"6";"TETUAN";"440578";"4480177";"40.47015231433826";"-3.7009627558279243";"913 231 555";"";"";"/contenido/entidadesYorganismos/CentrosAtencionSocialPersonasDiscapacidad/CentrosDiasPersonasDiscapacidad"
133674;"Residencia de minusválidos San Vicente";"";"";"Residencia para personas con discapacidad intelectual.";"Bus: 131, 6, 60, 116, 81, 78";"";"3";"http://www.madrid.es/sites/v/index.jsp?vgnextchannel=bfa48ab43d6bb410VgnVCM100000171f5a0aRCRD&vgnextoid=30ff15a11a81c010VgnVCM1000000b205a0aRCRD";"RAFAELA YBARRA";"AVENIDA";"V";"75";"";"";"";"";"MADRID";"MADRID";"28026";"7";"PRADOLONGO";"12";"USERA";"439579";"4470007";"40.37846222434239";"-3.7117800681016506";"915 691 606";"";"";"/contenido/entidadesYorganismos/CentrosAtencionSocialPersonasDiscapacidad/ResidenciasPersonasDiscapacidad"
133636;"Residencia para personas con discapacidad intelectual gravemente afectadas y centro de día Dos de Mayo";"";"";"Residencia y centro de día para personas con discapacidad intelectual.";"Bus: 150, 174  Cercanías: Fuente de la Mora (C1, C10)";"";"1";"http://www.madrid.es/sites/v/index.jsp?vgnextchannel=bfa48ab43d6bb410VgnVCM100000171f5a0aRCRD&vgnextoid=7e7e15a11a81c010VgnVCM1000000b205a0aRCRD";"O&amp;Ntilde;A";"CALLE";"V";"1";"";"";"";"";"MADRID";"MADRID";"28050";"6";"VALDEFUENTES";"16";"HORTALEZA";"443282";"4482216";"40.48870660405748";"-3.669245434425141";"913 839 927 / 913 838 962 / 913 839 711 / 913 833 393";"";"";"/contenido/entidadesYorganismos/CentrosAtencionSocialPersonasDiscapacidad/CentrosDiasPersonasDiscapacidad"
10605428;"Residencia y centro de día Carmen Sevilla";"";"";"Residencia y centro de día para personas con discapacidad intelectual.";"Metro: La Almudena (línea 2), García Noblejas (línea 7)    Bus: 70, 109    Bicimad: estación 490 (Calle Hermanos García Nobleza (esquina Plaza del Reloj Solar))";"";"1";"http://www.madrid.es/sites/v/index.jsp?vgnextchannel=bfa48ab43d6bb410VgnVCM100000171f5a0aRCRD&vgnextoid=944bf81878231610VgnVCM1000001d4a900aRCRD";"GABRIEL MONTERO";"CALLE";"V";"1";"";"";"";"";"MADRID";"MADRID";"28017";"2";"PUEBLO NUEVO";"15";"CIUDAD LINEAL";"446469";"4475076";"40.4245996910244";"-3.631038633473549";"913 274 040";"";"";"/contenido/entidadesYorganismos/CentrosAtencionSocialPersonasDiscapacidad/CentrosDiasPersonasDiscapacidad"
11156062;"Residencia y centro de día Nuestra Señora de Valvanera";"";"";"Residencia y centro de día para personas con enfermedad mental crónica.";"Bus: 10, 24, 111, 310, 102";"";"3";"http://www.madrid.es/sites/v/index.jsp?vgnextchannel=bfa48ab43d6bb410VgnVCM100000171f5a0aRCRD&vgnextoid=bd19bc18998c0710VgnVCM2000001f4a900aRCRD";"FELISA MENDEZ";"CALLE";"V";"3";"";"";"";"";"MADRID";"MADRID";"28053";"2";"SAN DIEGO";"13";"PUENTE DE VALLECAS";"443126";"4471629";"40.39332090550943";"-3.670139580262466";"915 522 917";"";"";"/contenido/entidadesYorganismos/CentrosAtencionSocialPersonasDiscapacidad/CentrosDiasPersonasDiscapacidad"
4849820;"Residencia y centro de rehabilitación Duques de Lugo";"";"";"Sector: personas con discapacidad física";"Bus: 39, 139.";"";"1";"http://www.madrid.es/sites/v/index.jsp?vgnextchannel=bfa48ab43d6bb410VgnVCM100000171f5a0aRCRD&vgnextoid=775b92b6b4ae8110VgnVCM1000000b205a0aRCRD";"ADONIS";"CALLE";"V";"1";"";"";"";"";"MADRID";"MADRID";"28024";"7";"LAS AGUILAS";"10";"LATINA";"434313";"4470957";"40.386624062061955";"-3.7738989126760094";"915 188 127";"";"";"/contenido/entidadesYorganismos/CentrosAtencionSocialPersonasDiscapacidad"
11532166;"Residencia y centro de rehabilitación San Miguel Hermanas Hospitalarias";"";"";"Residencia y centro de rehabilitación para personas con enfermedad mental crónica.";"Metro: Arturo Soria (línea 4)  Bus: 11, 70, 72, 73, 9, 53, 87  Bicimad: Estación 480 (Calle Vicente Muzas, 13)";"";"3";"http://www.madrid.es/sites/v/index.jsp?vgnextchannel=bfa48ab43d6bb410VgnVCM100000171f5a0aRCRD&vgnextoid=795eb813cf05d710VgnVCM2000001f4a900aRCRD";"ARTURO SORIA";"CALLE";"V";"204";"";"";"";"";"MADRID";"MADRID";"28043";"7";"COLINA";"15";"CIUDAD LINEAL";"444000";"4479006";"40.45984108333044";"-3.660488085693163";"914 135 011 / 690 018 728";"";"";"/contenido/entidadesYorganismos/CentrosAtencionSocialPersonasDiscapacidad/CentrosDiasPersonasDiscapacidad"
11156240;"Residencia y centro de rehabilitación laboral de Hortaleza de la Fundación independiente Manantial";"";"";"Residencia y centro de rehabilitación para personas con enfermedad mental crónica";"Bus: 153";"";"3";"http://www.madrid.es/sites/v/index.jsp?vgnextchannel=bfa48ab43d6bb410VgnVCM100000171f5a0aRCRD&vgnextoid=4da4a9e48d8c0710VgnVCM2000001f4a900aRCRD";"ARROYO DEL SANTO";"AVENIDA";"V";"12";"";"";"";"";"MADRID";"MADRID";"28042";"1";"PALOMAS";"16";"HORTALEZA";"447382";"4478119";"40.45207234467039";"-3.620525808309078";"913 717 320 (residencia) / 913717264 (centro de rehabilitación)";"";"";"/contenido/entidadesYorganismos/CentrosAtencionSocialPersonasDiscapacidad/CentrosOcupacionalesPersonasDiscapacidad"
11531388;"Residencia y centro ocupacional Nuestra Señora del Camino";"";"";"Centro ocupacional para personas con discapacidad intelectual";"Metro: Mirasierra (línea 9)  Bus: 49";"";"3";"http://www.madrid.es/sites/v/index.jsp?vgnextchannel=bfa48ab43d6bb410VgnVCM100000171f5a0aRCRD&vgnextoid=e6424101a5c4d710VgnVCM2000001f4a900aRCRD";"COLLADO DE TIROBARRA";"CALLE";"V";"8";"";"";"";"";"MADRID";"MADRID";"28034";"7";"MIRASIERRA";"8";"FUENCARRAL-EL PARDO";"439300";"4482948";"40.49501934128508";"-3.7163005779581755";"917 364 794";"";"";"/contenido/entidadesYorganismos/CentrosAtencionSocialPersonasDiscapacidad/CentrosOcupacionalesPersonasDiscapacidad"
133523;"Residencia, centro de día y centro ocupacional Ángel de la Guarda";"";"";"Residencia, centro de día y centro ocupacional para personas con discapacidad intelectual.";"Metro: La Elipa (línea 2), El Carmen (línea 5)  Bus: 106  Bicimad: estación 483 (Calle Marcelino Álvarez, 31)";"";"1";"http://www.madrid.es/sites/v/index.jsp?vgnextchannel=bfa48ab43d6bb410VgnVCM100000171f5a0aRCRD&vgnextoid=0db615a11a81c010VgnVCM1000000b205a0aRCRD";"DAROCA";"AVENIDA";"V";"60";"";"";"";"";"MADRID";"MADRID";"28017";"1";"VENTAS";"15";"CIUDAD LINEAL";"444652";"4475605";"40.4292488150886";"-3.652508653842869";"914 047 504";"";"";"/contenido/entidadesYorganismos/CentrosAtencionSocialPersonasDiscapacidad/CentrosOcupacionalesPersonasDiscapacidad"
11155334;"Residencia, centro de día y soporte social Aravaca";"";"";"Residencia y centro de día para personas con enfermedad mental crónica.";"Bus: 162";"";"3";"http://www.madrid.es/sites/v/index.jsp?vgnextchannel=bfa48ab43d6bb410VgnVCM100000171f5a0aRCRD&vgnextoid=efcfb48876fb0710VgnVCM2000001f4a900aRCRD";"ARENAS Y NAVARRO";"CALLE";"V";"7";"";"";"";"";"MADRID";"MADRID";"28023";"5";"VALDEMARIN";"9";"MONCLOA-ARAVACA";"432468";"4479958";"40.467563236176424";"-3.796596022935098";"913 071 048";"";"";"/contenido/entidadesYorganismos/CentrosAtencionSocialPersonasDiscapacidad/CentrosDiasPersonasDiscapacidad"
11156057;"Sajonia Fundación Manantial, Centro de día";"";"";"Centro de día para personas con enfermedad mental crónica.";"Metro: Las rosas (línea 2)    Bus: 140, 153";"";"3";"http://www.madrid.es/sites/v/index.jsp?vgnextchannel=bfa48ab43d6bb410VgnVCM100000171f5a0aRCRD&vgnextoid=c7c75c10c05c0710VgnVCM2000001f4a900aRCRD";"SAJONIA";"CALLE";"V";"23";"";"";"";"";"MADRID";"MADRID";"28022";"5";"ROSAS";"20";"SAN BLAS-CANILLEJAS";"448596";"4474705";"40.421393764449846";"-3.6059393260417494";"912 031 684";"";"";"/contenido/entidadesYorganismos/CentrosAtencionSocialPersonasDiscapacidad/CentrosDiasPersonasDiscapacidad"
11155335;"Vallecas grupo Exter, Centro de día";"";"";"Centro de día para personas con enfermedad mental crónica.";"Bus: 130, T31, 103, 142, 143, 54, 58, H1  Metro: Villa de Vallecas (línea 1)  Bicimad: Estación 437 (C Sierra de Guadalupe, 11).";"";"3";"http://www.madrid.es/sites/v/index.jsp?vgnextchannel=bfa48ab43d6bb410VgnVCM100000171f5a0aRCRD&vgnextoid=00f0b48876fb0710VgnVCM2000001f4a900aRCRD";"SAN JAIME";"CALLE";"V";"6";"";"";"";"";"MADRID";"MADRID";"28031";"1";"CASCO H.VALLECAS";"18";"VILLA DE VALLECAS";"446578";"4469869";"40.37769539007225";"-3.6293220708599687";"913 807 757";"";"";"/contenido/entidadesYorganismos/CentrosAtencionSocialPersonasDiscapacidad/CentrosDiasPersonasDiscapacidad"
11156172;"Walk Usera, Centro de rehabilitación laboral";"";"";"Centro de rehabilitación para personas con enfermedad mental crónica";"Bus: 6, 60";"";"3";"http://www.madrid.es/sites/v/index.jsp?vgnextchannel=bfa48ab43d6bb410VgnVCM100000171f5a0aRCRD&vgnextoid=aa53bc18998c0710VgnVCM2000001f4a900aRCRD";"BEASAIN";"CALLE";"V";"25";"";"";"";"";"MADRID";"MADRID";"28041";"1";"ORCASITAS";"12";"USERA";"439214";"4468725";"40.366885859751314";"-3.7159576914372203";"913 418 967";"";"";"/contenido/entidadesYorganismos/CentrosAtencionSocialPersonasDiscapacidad/CentrosDiasPersonasDiscapacidad"

